a:2:{s:4:"data";a:8:{s:2:"id";s:2:"20";s:5:"title";s:0:"";s:4:"prop";s:0:"";s:5:"alias";s:32:"odezhda-dlya-okhrannykh-struktur";s:4:"name";s:53:"одежда для охранных структур";s:6:"parent";s:1:"0";s:7:"parents";a:0:{}s:8:"children";a:2:{s:10:"categories";a:3:{i:0;a:6:{s:2:"id";s:2:"21";s:5:"title";s:0:"";s:4:"prop";s:0:"";s:5:"alias";s:18:"formennaya-odezhda";s:4:"name";s:31:"форменная одежда";s:6:"parent";s:2:"20";}i:1;a:6:{s:2:"id";s:2:"79";s:5:"title";s:0:"";s:4:"prop";s:0:"";s:5:"alias";s:8:"letnyaya";s:4:"name";s:12:"летняя";s:6:"parent";s:2:"20";}i:2;a:6:{s:2:"id";s:2:"80";s:5:"title";s:0:"";s:4:"prop";s:0:"";s:5:"alias";s:20:"zimnyaya-uteplennaya";s:4:"name";s:33:"зимняя утепленная";s:6:"parent";s:2:"20";}}s:8:"products";a:17:{i:0;a:20:{s:2:"id";s:4:"1212";s:3:"act";s:1:"N";s:9:"prod_type";s:0:"";s:4:"name";s:63:"Костюм Охрана зимний КМФ(зел) (к+пк)";s:3:"art";s:9:"Кос712";s:4:"sort";s:3:"100";s:6:"search";s:67:"КОСТЮМ ОХРАНА ЗИМНИЙ КМФ(ЗЕЛ) (К+ПК)

";s:6:"parent";s:2:"80";s:4:"durl";s:89:"odezhda-dlya-okhrannykh-struktur/zimnyaya-uteplennaya/kostyum-okhrana-zimniy-kmf-zel-k-pk";s:4:"dtxt";s:0:"";s:4:"dpic";N;s:11:"preview_pic";N;s:4:"bxid";s:6:"200569";s:5:"alias";s:35:"kostyum-okhrana-zimniy-kmf-zel-k-pk";s:7:"section";s:5:"11700";s:5:"title";s:0:"";s:11:"description";s:0:"";s:8:"keywords";s:0:"";s:5:"price";s:1:"0";s:9:"old-price";s:1:"0";}i:1;a:20:{s:2:"id";s:4:"1213";s:3:"act";s:1:"N";s:9:"prod_type";s:0:"";s:4:"name";s:36:"Костюм Ягуар черный";s:3:"art";s:9:"Кос004";s:4:"sort";s:3:"100";s:6:"search";s:2510:"КОСТЮМ ЯГУАР ЧЕРНЫЙ

ОПИСАНИЕ: КУРТКА ПРЯМАЯ С ЦЕНТРАЛЬНОЙ БОРТОВОЙ ЗАСТЕЖКОЙ НА МОЛНИЮ И ВЕТРОЗАЩИТНЫМ КЛАПАНОМ, ЗАСТЕГИВАЮЩИМСЯ НА ЧЕТЫРЕ КНОПКИ. ПОЛОЧКИ ИЗ ТРЕХ ЧАСТЕЙ, С ПРИТАЧНЫМИ КОКЕТКАМИ, НА СРЕДНЕЙ ЧАСТИ ПОЛОЧЕК КАРМАНЫ С НАКЛОННЫМ ВХОДОМ, С ДВУМЯ НИЖНИМИ КАРМАНАМИ С КЛАПАНАМИ , ЗАСТЕГИВАЮЩИМИСЯ НА 2 УЧАСТКА ЛИПУЧКИ. СПИНКА С ПРИТАЧНОЙ КОКЕТКОЙ. РУКАВА ВТАЧНЫЕ, ДВУХШОВНЫЕ С ВНУТРЕННИМИ ТРИКОТАЖНЫМИ МАНЖЕТАМИ. ВОРОТНИК ВТАЧНОЙ, МЕХОВОЙ. ПО ЛИНИИ ГОРЛОВИНЫ НА МОЛНИЮ ПРИСТЕГИВАЕТСЯ УТЕПЛЕННЫЙ КАПЮШОН, ЗАСТЕГИВАЮЩИЙСЯ НА КОНТАКТНУЮ ЛЕНТУ. ПО ЛИЦЕВОМУ ВЫРЕЗУ КАПЮШОНА ПРОДЕРНУТ ШНУР С ДВУМЯ ФИКСАТОРАМИ «ШАР» И НАКОНЕЧНИКАМИ. ПО ЛИНИИ ТАЛИИ ДЛЯ РЕГУЛИРОВКИ ОБЪЕМА ПРЕДУСМОТРЕНА КУЛИСА СО ШНУРОМ И 1-М СТОПОРОМ. ПОЛУКОМБИНЕЗОН ОТРЕЗНОЙ ПО ЛИНИИ ТАЛИИ НА ПЕРЕДНИХ ПОЛОВИНКАХ, С ЗАСТЕЖКОЙ НА МОЛНИЮ СПЕРЕДИ. НА ГРУДКЕ СЛЕВА НАКЛАДНОЙ ОБЪЕМНЫЙ КАРМАН ДЛЯ РАЦИИ С КЛАПАНОМ, ЗАСТЕГИВАЮЩИМСЯ НА КНОПКУ. ДВА НАКЛАДНЫХ БОКОВЫХ КАРМАНА С НАКЛОННЫМ ВХОДОМ. НА СПИНКЕ ПО ЛИНИИ ТАЛИИ - ЭЛАСТИЧНАЯ ТЕСЬМА, НА ЗАДНИХ ПОЛОВИНКАХ НАКЛАДНЫЕ КАРМАНЫ. БРЕТЕЛИ С ОТКРЫТЫМ УЧАСТКОМ ЭЛАСТИЧНОЙ ТЕСЬМЫ СЗАДИ, А СПЕРЕДИ ПРИСТЕГИВАЮТСЯ КАРАБИНАМИ. ТКАНЬ ВЕРХА - ОКСФОРД ЧЕРНОГО ЦВЕТА, УТЕПЛИТЕЛЬ СИНТЕПОН: НА ПОЛОЧКЕ И СПИНКЕ КУРТКИ - 3 СЛОЯ, НА РУКАВАХ И П/К - ДВА СЛОЯ, КАПЮШОН, ВЕТРОЗАЩИТНАЯ ПЛАНКА - 1 СЛОЙ. ЦВЕТ: ЧЕРНЫЙ ТКАНЬ: ОКСФОРД, 100% П/Э РАЗМЕР: С 96-100 ПО 120-124 РОСТ: 170-176, 182-188 ГОСТ 29335-92";s:6:"parent";s:2:"80";s:4:"durl";s:76:"odezhda-dlya-okhrannykh-struktur/zimnyaya-uteplennaya/kostyum-yaguar-chernyy";s:4:"dtxt";s:2474:"Описание: Куртка прямая с центральной бортовой застежкой на молнию и ветрозащитным клапаном, застегивающимся на четыре кнопки. Полочки из трех частей, с притачными кокетками, на средней части полочек карманы с наклонным входом, с двумя нижними карманами с клапанами , застегивающимися на 2 участка липучки. Спинка с притачной кокеткой. Рукава втачные, двухшовные с внутренними трикотажными манжетами. Воротник втачной, меховой. По линии горловины на молнию пристегивается утепленный капюшон, застегивающийся на контактную ленту. По лицевому вырезу капюшона продернут шнур с двумя фиксаторами «шар» и наконечниками. По линии талии для регулировки объема предусмотрена кулиса со шнуром и 1-м стопором. Полукомбинезон отрезной по линии талии на передних половинках, с застежкой на молнию спереди. На грудке слева накладной объемный карман для рации с клапаном, застегивающимся на кнопку. Два накладных боковых кармана с наклонным входом. На спинке по линии талии - эластичная тесьма, на задних половинках накладные карманы. Бретели с открытым участком эластичной тесьмы сзади, а спереди пристегиваются карабинами. Ткань верха - оксфорд черного цвета, утеплитель синтепон: на полочке и спинке куртки - 3 слоя, на рукавах и п/к - два слоя, капюшон, ветрозащитная планка - 1 слой. Цвет: ЧЕРНЫЙ Ткань: оксфорд, 100&#37; п/э Размер: с 96-100 по 120-124 Рост: 170-176, 182-188 ГОСТ 29335-92";s:4:"dpic";s:13:"/932/7963.jpg";s:11:"preview_pic";s:13:"/f2a/7963.jpg";s:4:"bxid";s:6:"200648";s:5:"alias";s:22:"kostyum-yaguar-chernyy";s:7:"section";s:5:"11700";s:5:"title";s:0:"";s:11:"description";s:0:"";s:8:"keywords";s:0:"";s:5:"price";s:1:"0";s:9:"old-price";s:1:"0";}i:2;a:20:{s:2:"id";s:4:"1214";s:3:"act";s:1:"Y";s:9:"prod_type";s:0:"";s:4:"name";s:73:"Костюм Охранник утепл.,черный (укор.к+пк)";s:3:"art";s:9:"Кос714";s:4:"sort";s:3:"100";s:6:"search";s:794:"КОСТЮМ ОХРАННИК УТЕПЛ.,ЧЕРНЫЙ (УКОР.К+ПК)

КОМПЛЕКТАЦИЯ: КУРТКА С ПОЛУКОМБИНЕЗОНОМ. КУРТКА УКОРОЧЕННАЯ, СУПАТНАЯ ЗАСТЕЖКА НА МОЛНИЮ, ДВА ВЕРХНИХ НАКЛАДНЫХ КАРМАНА С КЛАПАНОМ, ДВА НИЖНИХ ПРОРЕЗНЫХ КАРМАНА, МЕХОВОЙ ВОРОТНИК, УТЕПЛЕННЫЙ КАПЮШОН. ПОЛУКОМБИНЕЗОН С ЗАСТЕЖКОЙ НА МОЛНИЮ, КАРМАНА ДЛЯ СРЕДСТВ СВЯЗИ. УТЕПЛИТЕЛЬ: СИНТЕПОН (390 ГР В КУРТКЕ, 260 ГР В ПОЛУКОМБИНЕЗОНЕ) ТКАНЬ: ОКСФОРД, 100% П/Э РАЗМЕР: С 96-100 ПО 120-124 РОСТ: 170-176, 182-188 ГОСТ 29335-92";s:6:"parent";s:2:"80";s:4:"durl";s:95:"odezhda-dlya-okhrannykh-struktur/zimnyaya-uteplennaya/kostyum-okhrannik-utepl-chernyy-ukor-k-pk";s:4:"dtxt";s:729:"Комплектация: куртка с полукомбинезоном. Куртка укороченная, супатная застежка на молнию, два верхних накладных кармана с клапаном, два нижних прорезных кармана, меховой воротник, утепленный капюшон. Полукомбинезон с застежкой на молнию, кармана для средств связи. Утеплитель: синтепон &#40;390 гр в куртке, 260 гр в полукомбинезоне&#41; Ткань: оксфорд, 100&#37; п/э Размер: с 96-100 по 120-124 Рост: 170-176, 182-188 ГОСТ 29335-92";s:4:"dpic";s:17:"/f22/img_3055.jpg";s:11:"preview_pic";s:17:"/693/img_3055.jpg";s:4:"bxid";s:6:"201961";s:5:"alias";s:41:"kostyum-okhrannik-utepl-chernyy-ukor-k-pk";s:7:"section";s:5:"11700";s:5:"title";s:0:"";s:11:"description";s:0:"";s:8:"keywords";s:0:"";s:5:"price";s:1:"0";s:9:"old-price";s:1:"0";}i:3;a:20:{s:2:"id";s:4:"1215";s:3:"act";s:1:"N";s:9:"prod_type";s:0:"";s:4:"name";s:42:"Джемпер мужской черный";s:3:"art";s:17:"Джемпер001";s:4:"sort";s:3:"100";s:6:"search";s:730:"ДЖЕМПЕР МУЖСКОЙ ЧЕРНЫЙ

ДЖЕМПЕР МУЖСКОЙ ЧЁРНЫЙ С РУБАШЕЧНЫМИ РУКАВАМИ ВЫПОЛНЕН ИЗ ПРЯЖИ-ДВУНИТКИ ПЛОТНЫМ КОМБИНИРОВАННЫМ ПЕРЕПЛЕТЕНИЕМ. ДЛЯ БОЛЕЕ ДЛИТЕЛЬНОГО ИСПОЛЬЗОВАНИЯ И ЗАЩИТЫ ОТ ПРОТИРАНИЯ НА ИЗДЕЛИЕ НАШИТЫ ТКАНЕВЫЕ ДЕТАЛИ: НАПЛЕЧНИКИ, ПОГОНЫ И НАЛОКОТНИКИ. ИЗДЕЛИЕ ХОРОШО ЗАЩИЩАЕТ ОРГАНИЗМ ЧЕЛОВЕКА ОТ РЕЗКИХ ПЕРЕПАДОВ ТЕМПЕРАТУР. РАЗМЕРНЫЙ РЯД С 44 ПО 62. РАСЦВЕТКИ: ОЛИВА, ЧЕРНЫЙ, СИНИЙ. .";s:6:"parent";s:2:"80";s:4:"durl";s:79:"odezhda-dlya-okhrannykh-struktur/zimnyaya-uteplennaya/dzhemper-muzhskoy-chernyy";s:4:"dtxt";s:684:"Джемпер мужской чёрный с рубашечными рукавами выполнен из пряжи-двунитки плотным комбинированным переплетением. Для более длительного использования и защиты от протирания на изделие нашиты тканевые детали: наплечники, погоны и налокотники. Изделие хорошо защищает организм человека от резких перепадов температур. Размерный ряд с 44 по 62. Расцветки: олива, черный, синий. .";s:4:"dpic";s:14:"/6ad/13976.jpg";s:11:"preview_pic";s:14:"/049/13976.jpg";s:4:"bxid";s:6:"201965";s:5:"alias";s:25:"dzhemper-muzhskoy-chernyy";s:7:"section";s:5:"11700";s:5:"title";s:0:"";s:11:"description";s:0:"";s:8:"keywords";s:0:"";s:5:"price";s:1:"0";s:9:"old-price";s:1:"0";}i:4;a:20:{s:2:"id";s:4:"1216";s:3:"act";s:1:"N";s:9:"prod_type";s:0:"";s:4:"name";s:90:"Костюм Клякса маскировочный белый с черными пятн";s:3:"art";s:9:"Кос326";s:4:"sort";s:3:"100";s:6:"search";s:94:"КОСТЮМ КЛЯКСА МАСКИРОВОЧНЫЙ БЕЛЫЙ С ЧЕРНЫМИ ПЯТН

";s:6:"parent";s:2:"80";s:4:"durl";s:107:"odezhda-dlya-okhrannykh-struktur/zimnyaya-uteplennaya/kostyum-klyaksa-maskirovochnyy-belyy-s-chernymi-pyatn";s:4:"dtxt";s:0:"";s:4:"dpic";s:13:"/6bd/3309.jpg";s:11:"preview_pic";s:13:"/656/3309.jpg";s:4:"bxid";s:6:"201966";s:5:"alias";s:53:"kostyum-klyaksa-maskirovochnyy-belyy-s-chernymi-pyatn";s:7:"section";s:5:"11700";s:5:"title";s:0:"";s:11:"description";s:0:"";s:8:"keywords";s:0:"";s:5:"price";s:1:"0";s:9:"old-price";s:1:"0";}i:5;a:20:{s:2:"id";s:4:"1217";s:3:"act";s:1:"N";s:9:"prod_type";s:0:"";s:4:"name";s:50:"Толстовка Охранник  т.синий";s:3:"art";s:9:"Тол001";s:4:"sort";s:3:"100";s:6:"search";s:1844:"ТОЛСТОВКА ОХРАННИК  Т.СИНИЙ

КУРТКА ТОЛСТОВКА УКОРОЧЕННАЯ, ПО НИЗУ СТЯНУТА ЭЛАСТИЧНОЙ ТЕСЬМОЙ - РЕГУЛИРУЕТСЯ ПО РАЗМЕРУ, ВОРОТНИК-СТОЙКА С ЦЕНТРАЛЬНОЙ ЗАСТЕЖКОЙ НА ТЕСЬМУ-МОЛНИЮ. ИМЕЕТ ДВА НИЖНИХ КАРМАНА НА МОЛНИИ. РУКАВ ДЛИННЫЙ ВТАЧНОЙ НА МАНЖЕТЕ. РЕКОМЕНДУЕМЫЕ МАТЕРИАЛЫ: ТКАНЬ ФЛИС. РАСЦВЕТКИ: ЛЕС, ЗЕЛЕНЫЙ, БЕЛЫЙ КАМУФЛЯЖ. ГОСТ 27575-87. ОПИСАНИЕ ТКАНИ: ФЛИС (FLEECE) – ВОРСОВОЕ НЕТКАНОЕ ПОЛОТНО, ИЗГОТОВЛЕННОЕ ИЗ НЕСТРУКТУРИРОВАННОГО ПОЛИЭСТЕРА, ПРИ ПРОИЗВОДСТВЕ КОТОРОГО ИСПОЛЬЗУЮТСЯ СПЕЦИАЛЬНЫЕ ТЕХНОЛОГИИ ПЛЕТЕНИЯ ВОЛОКНА И СОЗДАНИЯ ВОРСА (ВОРС ПРИ ЭТОМ СОСТАВЛЯЕТ ОДНО ЦЕЛОЕ С ОСНОВОЙ). ЭТО ОЧЕНЬ ЛЕГКИЙ, МЯГКИЙ, ПРИЯТНЫЙ НА ОЩУПЬ ТРИКОТАЖНЫЙ МАТЕРИАЛ, КОТОРЫЙ СОХРАНЯЕТ ТЕПЛО И ПРАКТИЧЕСКИ НЕ ВПИТЫВАЕТ ВЛАГУ, НЕ ВЫЗЫВАЕТ АЛЛЕРГИИ, ЧТО ОЧЕНЬ ВАЖНО ПРИ ПРОИЗВОДСТВЕ ДЕТСКОЙ ОДЕЖДЫ. БЛАГОДАРЯ СПЕЦИАЛЬНОЙ ОБРАБОТКЕ, ПРЕПЯТСТВУЮЩЕЙ СКАТЫВАНИЮ (АНТИПИЛЛИНГ), ИЗДЕЛИЯ ИЗ ФЛИСА ДОЛГО СОХРАНЯЮТ ПЕРВОНАЧАЛЬНЫЙ ВНЕШНИЙ ВИД. ГОРАЗДО ПРОЧНЕЕ НАТУРАЛЬНЫХ ТКАНЕЙ, ЗА СЧЕТ ЧЕГО ОБЛАДАЕТ ВЫСОКОЙ ИЗНОСОСТОЙКОСТЬЮ.";s:6:"parent";s:2:"80";s:4:"durl";s:81:"odezhda-dlya-okhrannykh-struktur/zimnyaya-uteplennaya/tolstovka-okhrannik-t-siniy";s:4:"dtxt";s:1814:"Куртка толстовка укороченная, по низу стянута эластичной тесьмой - регулируется по размеру, воротник-стойка с центральной застежкой на тесьму-молнию. Имеет два нижних кармана на молнии. Рукав длинный втачной на манжете. Рекомендуемые материалы: ткань Флис. Расцветки: лес, зеленый, белый камуфляж. ГОСТ 27575-87. Описание ткани: Флис &#40;Fleece&#41; – ворсовое нетканое полотно, изготовленное из неструктурированного полиэстера, при производстве которого используются специальные технологии плетения волокна и создания ворса &#40;ворс при этом составляет одно целое с основой&#41;. Это очень легкий, мягкий, приятный на ощупь трикотажный материал, который сохраняет тепло и практически не впитывает влагу, не вызывает аллергии, что очень важно при производстве детской одежды. Благодаря специальной обработке, препятствующей скатыванию &#40;антипиллинг&#41;, изделия из флиса долго сохраняют первоначальный внешний вид. Гораздо прочнее натуральных тканей, за счет чего обладает высокой износостойкостью.";s:4:"dpic";s:13:"/c35/3502.jpg";s:11:"preview_pic";s:13:"/4e1/3502.jpg";s:4:"bxid";s:6:"201967";s:5:"alias";s:27:"tolstovka-okhrannik-t-siniy";s:7:"section";s:5:"11700";s:5:"title";s:0:"";s:11:"description";s:0:"";s:8:"keywords";s:0:"";s:5:"price";s:1:"0";s:9:"old-price";s:1:"0";}i:6;a:20:{s:2:"id";s:4:"1218";s:3:"act";s:1:"N";s:9:"prod_type";s:0:"";s:4:"name";s:77:"Куртка Охрана утепл. цв.черный (тк.Оксфорд)";s:3:"art";s:9:"Кур660";s:4:"sort";s:3:"100";s:6:"search";s:812:"КУРТКА ОХРАНА УТЕПЛ. ЦВ.ЧЕРНЫЙ (ТК.ОКСФОРД)

КУРТКА УТЕПЛЕННАЯ ЧЕРНАЯ С ЦЕНТРАЛЬНОЙ ЗАСТЕЖКОЙ НА МОЛНИЮ С ВЕТРОЗАЩИТНОЙ ПЛАНКОЙ С ЗАСТЕЖКОЙ НА КНОПКИ, ВТАЧНОЙ МЕХОВОЙ ВОРОТНИК, С КАПЮШОНОМ , 2 НИЖНИХ НАКЛАДНЫХ КАРМАНА, 2 НАГРУДНЫХ НАКЛАДНЫХ КАРМАНА С КЛАПАНОМ С ЗАСТЕЖКОЙ НА КНОПКИ, 1 НАКЛАДНОЙ КАРМАН НА ЛЕВОМ РУКАВЕ С КЛАПАНОМ , МАНЖЕТ РУКАВА НА РЕЗИНКЕ ТКАНЬ: ОКСФОРД-210 УТЕПЛИТЕЛЬ: СИНТЕПОН 2 СЛОЯ ПО 20ГР/М2 РАЗМЕР: С 44-46 ПО 60-62 РОСТ: С 170-176 ПО 182-188 .";s:6:"parent";s:2:"80";s:4:"durl";s:97:"odezhda-dlya-okhrannykh-struktur/zimnyaya-uteplennaya/kurtka-okhrana-utepl-tsv-chernyy-tk-oksford";s:4:"dtxt";s:731:"Куртка утепленная черная с центральной застежкой на молнию с ветрозащитной планкой с застежкой на кнопки, втачной меховой воротник, с капюшоном , 2 нижних накладных кармана, 2 нагрудных накладных кармана с клапаном с застежкой на кнопки, 1 накладной карман на левом рукаве с клапаном , манжет рукава на резинке ткань: оксфорд-210 утеплитель: синтепон 2 слоя по 20гр/м2 размер: с 44-46 по 60-62 рост: с 170-176 по 182-188 .";s:4:"dpic";s:14:"/910/12270.jpg";s:11:"preview_pic";s:14:"/7b7/12270.jpg";s:4:"bxid";s:6:"202258";s:5:"alias";s:43:"kurtka-okhrana-utepl-tsv-chernyy-tk-oksford";s:7:"section";s:5:"11700";s:5:"title";s:0:"";s:11:"description";s:0:"";s:8:"keywords";s:0:"";s:5:"price";s:1:"0";s:9:"old-price";s:1:"0";}i:7;a:20:{s:2:"id";s:3:"867";s:3:"act";s:1:"N";s:9:"prod_type";s:0:"";s:4:"name";s:44:"Галстук Охранник черный";s:3:"art";s:9:"Гал009";s:4:"sort";s:3:"100";s:6:"search";s:466:"ГАЛСТУК ОХРАННИК ЧЕРНЫЙ
ГАЛСТУК ОХРАННИКА МОДЕЛЬ С ЖЕСТКИМ ФИКСИРОВАННЫМ УЗЛОМ И ЗАСТЕЖКОЙ СЗАДИ НА КРЮЧОК. ПО ОБХВАТУ ШЕИ РЕГУЛИРУЕТСЯ ЭЛАСТИЧНОЙ ТЕСЬМОЙ И ПРЯЖКОЙ. РЕКОМЕНДУЕТСЯ КАК ДОПОЛНЕНИЕ К КОСТЮМУ ОХРАННИКА С РУБАШКОЙ. ЦВЕТ: ЧЕРНЫЙ ТКАНЬ: КРЕП .";s:6:"parent";s:2:"79";s:4:"durl";s:67:"odezhda-dlya-okhrannykh-struktur/letnyaya/galstuk-okhrannik-chernyy";s:4:"dtxt";s:420:"Галстук охранника Модель с жестким фиксированным узлом и застежкой сзади на крючок. По обхвату шеи регулируется эластичной тесьмой и пряжкой. Рекомендуется как дополнение к костюму охранника с рубашкой. Цвет: черный Ткань: Креп .";s:4:"dpic";s:13:"/d0e/3636.jpg";s:11:"preview_pic";s:13:"/7b7/3636.jpg";s:4:"bxid";s:6:"200325";s:5:"alias";s:25:"galstuk-okhrannik-chernyy";s:7:"section";s:5:"11686";s:5:"title";s:0:"";s:11:"description";s:0:"";s:8:"keywords";s:0:"";s:5:"price";s:1:"0";s:9:"old-price";s:1:"0";}i:8;a:20:{s:2:"id";s:3:"868";s:3:"act";s:1:"N";s:9:"prod_type";s:0:"";s:4:"name";s:57:"Костюм Легион охранника черный";s:3:"art";s:9:"Кос258";s:4:"sort";s:3:"100";s:6:"search";s:955:"КОСТЮМ ЛЕГИОН ОХРАННИКА ЧЕРНЫЙ

КОСТЮМ ОХРАННИКА ЛЕТНИЙ ЛЕГИОН СОСТОИТ ИЗ КУРТКИ И БРЮК. КУРТКА ПРЯМОГО СИЛУЭТА С ЦЕНТРАЛЬНОЙ ЗАСТЕЖКОЙ НА МОЛНИЮ, ОТЛОЖНЫМ ВОРОТНИКОМ. ОСНАЩЕН НАГРУДНЫМИ НАКЛАДНЫМИ КАРМАНАМИ С КЛАПАНАМИ НА КНОПКАХ ДЛЯ СРЕДСТВ СВЯЗИ, ИМЕЕТСЯ КАРМАН НА МОЛНИИ ДЛЯ ДОКУМЕНТОВ. НИЖНИЕ КАРМАНЫ, ПРОРЕЗНЫЕ С КОСЫМ ВХОДОМ. НА РУКАВЕ НАКЛАДНОЙ КАРМАН С КЛАПАНОМ. ОБЪЕМ ТАЛИИ БРЮК РЕГУЛИРУЕТСЯ ЭЛАСТИЧНОЙ ЛЕНТОЙ. ЦВЕТ: ЧЕРНЫЙ ТКАНЬ: СМЕСОВАЯ (65% ПОЛИЭФИР, 35% ХЛОПОК) ПЛ.215 Г/М2, ВО РАЗМЕР: С 88-92 ПО 120-124 РОСТ: 170-176, 182-188 .";s:6:"parent";s:2:"79";s:4:"durl";s:75:"odezhda-dlya-okhrannykh-struktur/letnyaya/kostyum-legion-okhrannika-chernyy";s:4:"dtxt";s:910:"Костюм охранника летний Легион Состоит из куртки и брюк. Куртка прямого силуэта с центральной застежкой на молнию, отложным воротником. Оснащен нагрудными накладными карманами с клапанами на кнопках для средств связи, имеется карман на молнии для документов. Нижние карманы, прорезные с косым входом. На рукаве накладной карман с клапаном. Объем талии брюк регулируется эластичной лентой. Цвет: черный Ткань: смесовая &#40;65&#37; полиэфир, 35&#37; хлопок&#41; пл.215 г/м2, ВО Размер: с 88-92 по 120-124 Рост: 170-176, 182-188 .";s:4:"dpic";s:17:"/bea/img_3390.jpg";s:11:"preview_pic";s:17:"/fce/img_3390.jpg";s:4:"bxid";s:6:"200540";s:5:"alias";s:33:"kostyum-legion-okhrannika-chernyy";s:7:"section";s:5:"11686";s:5:"title";s:0:"";s:11:"description";s:0:"";s:8:"keywords";s:0:"";s:5:"price";s:1:"0";s:9:"old-price";s:1:"0";}i:9;a:20:{s:2:"id";s:3:"869";s:3:"act";s:1:"Y";s:9:"prod_type";s:0:"";s:4:"name";s:49:"Костюм Охранник черн, (к+бр)";s:3:"art";s:9:"Кос265";s:4:"sort";s:3:"100";s:6:"search";s:730:"КОСТЮМ ОХРАННИК ЧЕРН, (К+БР)

КУРТКА С ЗАСТЕЖКОЙ НА МОЛНИЮ. НА ПОЛОЧКАХ ОБРАБОТАНЫ ДВА НАГРУДНЫХ НАКЛАДНЫХ КАРМАНА КНИЖКИ С КЛАПАНАМИ И ДВА НИЖНИХ ПРОРЕЗНЫХ КАРМАНА С ЛИСТОЧКАМИ. РУКАВА ДЛИННЫЕ С МАНЖЕТАМИ, ЗАСТЕГИВАЮЩИМИСЯ НА КНОПКИ. БРЮКИ ПРЯМОГО ПОКРОЯ С ВЫСТРОЧЕННЫМИ СТРЕЛКАМИ И БОКОВЫМИ КАРМАНАМИ. ЦВЕТ: ЧЕРНЫЙ. ТКАНЬ: СМЕСОВАЯ (65% ПОЛИЭФИР, 35% ХЛОПОК) ПЛ.210Г/М РАЗМЕР: С 88-96 ПО 120-124 РОСТ: 170-176, 182-188 .";s:6:"parent";s:2:"79";s:4:"durl";s:70:"odezhda-dlya-okhrannykh-struktur/letnyaya/kostyum-okhrannik-chern-k-br";s:4:"dtxt";s:693:"Куртка с застежкой на молнию. На полочках обработаны два нагрудных накладных кармана книжки с клапанами и два нижних прорезных кармана с листочками. Рукава длинные с манжетами, застегивающимися на кнопки. Брюки прямого покроя с выстроченными стрелками и боковыми карманами. Цвет: черный. Ткань: смесовая &#40;65&#37; полиэфир, 35&#37; хлопок&#41; пл.210г/м Размер: с 88-96 по 120-124 Рост: 170-176, 182-188 .";s:4:"dpic";s:17:"/693/img_3517.jpg";s:11:"preview_pic";s:17:"/ea3/img_3517.jpg";s:4:"bxid";s:6:"200571";s:5:"alias";s:28:"kostyum-okhrannik-chern-k-br";s:7:"section";s:5:"11686";s:5:"title";s:0:"";s:11:"description";s:0:"";s:8:"keywords";s:0:"";s:5:"price";s:1:"0";s:9:"old-price";s:1:"0";}i:10;a:20:{s:2:"id";s:3:"870";s:3:"act";s:1:"Y";s:9:"prod_type";s:0:"";s:4:"name";s:74:"Рубашка охранника голубая длинный рукав";s:3:"art";s:9:"Руб514";s:4:"sort";s:3:"100";s:6:"search";s:847:"РУБАШКА ОХРАННИКА ГОЛУБАЯ ДЛИННЫЙ РУКАВ

РУБАШКА ОХРАННИКА, ДЛИННЫЙ РУКАВ РУБАШКА С ЦЕНТРАЛЬНОЙ ЗАСТЕЖКОЙ НА ПУГОВИЦЫ, НАГРУДНЫМИ НАКЛАДНЫМИ КАРМАНАМИ С КЛАПАНОМ. РУКАВ ДЛИННЫЙ НА ПРИТАЧНОЙ МАНЖЕТЕ С ЗАСТЕЖКОЙ НА ПУГОВИЦЫ. ВОРОТНИК ОТЛОЖНОЙ НА ОТРЕЗНОЙ СТОЙКЕ КОНТРАСТНОГО ЦВЕТА. ПОГОН С ФИКСАЦИЕЙ НА ПУГОВИЦУ, КЛАПАНА, СТОЙКА ВОРОТНИКА ИЗ ОТДЕЛОЧНОЙ ТКАНИ. ЦВЕТ: ГОЛУБОЙ С ЧЕРНОЙ ОТДЕЛКОЙ ТКАНЬ: СОРОЧЕЧНАЯ(65% ПОЛИЭФИР, 35% ХЛОПОК) РАЗМЕР: С 39 ПО 45 РОСТ: 170-176, 182-188";s:6:"parent";s:2:"79";s:4:"durl";s:84:"odezhda-dlya-okhrannykh-struktur/letnyaya/rubashka-okhrannika-golubaya-dlinnyy-rukav";s:4:"dtxt";s:785:"Рубашка охранника, длинный рукав Рубашка с центральной застежкой на пуговицы, нагрудными накладными карманами с клапаном. Рукав длинный на притачной манжете с застежкой на пуговицы. Воротник отложной на отрезной стойке контрастного цвета. Погон с фиксацией на пуговицу, клапана, стойка воротника из отделочной ткани. Цвет: голубой с черной отделкой Ткань: сорочечная&#40;65&#37; полиэфир, 35&#37; хлопок&#41; Размер: с 39 по 45 Рост: 170-176, 182-188";s:4:"dpic";s:17:"/18a/img_3522.jpg";s:11:"preview_pic";s:17:"/949/img_3522.jpg";s:4:"bxid";s:6:"201285";s:5:"alias";s:42:"rubashka-okhrannika-golubaya-dlinnyy-rukav";s:7:"section";s:5:"11686";s:5:"title";s:0:"";s:11:"description";s:0:"";s:8:"keywords";s:0:"";s:5:"price";s:1:"0";s:9:"old-price";s:1:"0";}i:11;a:20:{s:2:"id";s:3:"871";s:3:"act";s:1:"N";s:9:"prod_type";s:0:"";s:4:"name";s:94:"Рубашка охранника голубая длинный рукав на резинке";s:3:"art";s:9:"Руб518";s:4:"sort";s:3:"100";s:6:"search";s:767:"РУБАШКА ОХРАННИКА ГОЛУБАЯ ДЛИННЫЙ РУКАВ НА РЕЗИНКЕ

РУБАШКА С ЦЕНТРАЛЬНОЙ БОРТОВОЙ ЗАСТЕЖКОЙ НА ПУГОВИЦЫ, НАГРУДНЫМИ НАКЛАДНЫМИ КАРМАНАМИ С ФИГУРНЫМИ  КЛАПАНАМИ. РУКАВ ДЛИННЫЙ. ВОРОТНИК ОТЛОЖНОЙ НА ОТРЕЗНОЙ СТОЙКЕ КОНТРАСТНОГО ЦВЕТА. ПОГОН С ФИКСАЦИЕЙ НА ПУГОВИЦУ, КЛАПАНА, СТОЙКА ВОРОТНИКА ИЗ ОТДЕЛОЧНОЙ ТКАНИ. ЦВЕТ: ГОЛУБОЙ С ЧЕРНОЙ ОТДЕЛКОЙ ТКАНЬ: СОРОЧЕЧНАЯ(65% ПОЛИЭФИР, 35% ХЛОПОК) РАЗМЕР: С 39 ПО 45 РОСТ: 170-176, 182-188";s:6:"parent";s:2:"79";s:4:"durl";s:95:"odezhda-dlya-okhrannykh-struktur/letnyaya/rubashka-okhrannika-golubaya-dlinnyy-rukav-na-rezinke";s:4:"dtxt";s:685:"Рубашка с центральной бортовой застежкой на пуговицы, нагрудными накладными карманами с фигурными  клапанами. Рукав длинный. Воротник отложной на отрезной стойке контрастного цвета. Погон с фиксацией на пуговицу, клапана, стойка воротника из отделочной ткани. Цвет: голубой с черной отделкой Ткань: сорочечная&#40;65&#37; полиэфир, 35&#37; хлопок&#41; Размер: с 39 по 45 Рост: 170-176, 182-188";s:4:"dpic";s:13:"/7df/7830.jpg";s:11:"preview_pic";s:13:"/b29/7830.jpg";s:4:"bxid";s:6:"201286";s:5:"alias";s:53:"rubashka-okhrannika-golubaya-dlinnyy-rukav-na-rezinke";s:7:"section";s:5:"11686";s:5:"title";s:0:"";s:11:"description";s:0:"";s:8:"keywords";s:0:"";s:5:"price";s:1:"0";s:9:"old-price";s:1:"0";}i:12;a:20:{s:2:"id";s:3:"872";s:3:"act";s:1:"Y";s:9:"prod_type";s:0:"";s:4:"name";s:76:"Рубашка охранника голубая короткий рукав";s:3:"art";s:9:"Руб516";s:4:"sort";s:3:"100";s:6:"search";s:747:"РУБАШКА ОХРАННИКА ГОЛУБАЯ КОРОТКИЙ РУКАВ

РУБАШКА С ЦЕНТРАЛЬНОЙ БОРТОВОЙ ЗАСТЕЖКОЙ НА ПУГОВИЦЫ, НАГРУДНЫМИ НАКЛАДНЫМИ КАРМАНАМИ С ФИГУРНЫМИ КЛАПАНАМИ. РУКАВ КОРОТКИЙ. ВОРОТНИК ОТЛОЖНОЙ НА ОТРЕЗНОЙ СТОЙКЕ КОНТРАСТНОГО ЦВЕТА. ПОГОН С ФИКСАЦИЕЙ НА ПУГОВИЦУ, КЛАПАНА, СТОЙКА ВОРОТНИКА ИЗ ОТДЕЛОЧНОЙ ТКАНИ. ЦВЕТ: ГОЛУБОЙ С ЧЕРНОЙ ОТДЕЛКОЙ ТКАНЬ: СОРОЧЕЧНАЯ(65% ПОЛИЭФИР, 35% ХЛОПОК) РАЗМЕР: С 39 ПО 45 РОСТ: 170-176, 182-188 .";s:6:"parent";s:2:"79";s:4:"durl";s:85:"odezhda-dlya-okhrannykh-struktur/letnyaya/rubashka-okhrannika-golubaya-korotkiy-rukav";s:4:"dtxt";s:683:"Рубашка с центральной бортовой застежкой на пуговицы, нагрудными накладными карманами с фигурными клапанами. Рукав короткий. Воротник отложной на отрезной стойке контрастного цвета. Погон с фиксацией на пуговицу, клапана, стойка воротника из отделочной ткани. Цвет: голубой с черной отделкой Ткань: сорочечная&#40;65&#37; полиэфир, 35&#37; хлопок&#41; Размер: с 39 по 45 Рост: 170-176, 182-188 .";s:4:"dpic";s:17:"/c31/img_3397.jpg";s:11:"preview_pic";s:17:"/edc/img_3397.jpg";s:4:"bxid";s:6:"201287";s:5:"alias";s:43:"rubashka-okhrannika-golubaya-korotkiy-rukav";s:7:"section";s:5:"11686";s:5:"title";s:0:"";s:11:"description";s:0:"";s:8:"keywords";s:0:"";s:5:"price";s:1:"0";s:9:"old-price";s:1:"0";}i:13;a:20:{s:2:"id";s:3:"873";s:3:"act";s:1:"N";s:9:"prod_type";s:0:"";s:4:"name";s:96:"Рубашка охранника голубая короткий рукав на резинке";s:3:"art";s:9:"Руб517";s:4:"sort";s:3:"100";s:6:"search";s:857:"РУБАШКА ОХРАННИКА ГОЛУБАЯ КОРОТКИЙ РУКАВ НА РЕЗИНКЕ
РУБАШКА ОХРАННИКА КОРОТКИЙ РУКАВ РУБАШКА С ЦЕНТРАЛЬНОЙ БОРТОВОЙ ЗАСТЕЖКОЙ НА ПУГОВИЦЫ, НАГРУДНЫМИ НАКЛАДНЫМИ КАРМАНАМИ С ФИГУРНЫМИ КЛАПАНАМИ. РУКАВ КОРОТКИЙ. ВОРОТНИК ОТЛОЖНОЙ НА ОТРЕЗНОЙ СТОЙКЕ КОНТРАСТНОГО ЦВЕТА. ПОГОН С ФИКСАЦИЕЙ НА ПУГОВИЦУ, КЛАПАНА, СТОЙКА ВОРОТНИКА ИЗ ОТДЕЛОЧНОЙ ТКАНИ. ПОЯС НА РЕЗИНКЕ. ЦВЕТ: ГОЛУБОЙ С ЧЕРНОЙ ОТДЕЛКОЙ ТКАНЬ: СОРОЧЕЧНАЯ(65% ПОЛИЭФИР, 35% ХЛОПОК) РАЗМЕР: С 39 ПО 45 РОСТ: 170-176, 182-188 .";s:6:"parent";s:2:"79";s:4:"durl";s:96:"odezhda-dlya-okhrannykh-struktur/letnyaya/rubashka-okhrannika-golubaya-korotkiy-rukav-na-rezinke";s:4:"dtxt";s:775:"Рубашка охранника короткий рукав Рубашка с центральной бортовой застежкой на пуговицы, нагрудными накладными карманами с фигурными клапанами. Рукав короткий. Воротник отложной на отрезной стойке контрастного цвета. Погон с фиксацией на пуговицу, клапана, стойка воротника из отделочной ткани. Пояс на резинке. Цвет: голубой с черной отделкой Ткань: сорочечная&#40;65&#37; полиэфир, 35&#37; хлопок&#41; Размер: с 39 по 45 Рост: 170-176, 182-188 .";s:4:"dpic";s:14:"/5a4/12064.jpg";s:11:"preview_pic";s:14:"/7b4/12064.jpg";s:4:"bxid";s:6:"201288";s:5:"alias";s:54:"rubashka-okhrannika-golubaya-korotkiy-rukav-na-rezinke";s:7:"section";s:5:"11686";s:5:"title";s:0:"";s:11:"description";s:0:"";s:8:"keywords";s:0:"";s:5:"price";s:1:"0";s:9:"old-price";s:1:"0";}i:14;a:20:{s:2:"id";s:3:"874";s:3:"act";s:1:"N";s:9:"prod_type";s:0:"";s:4:"name";s:43:"Ремень мужской нат.кожа";s:3:"art";s:9:"Рем001";s:4:"sort";s:3:"100";s:6:"search";s:146:"РЕМЕНЬ МУЖСКОЙ НАТ.КОЖА

МАТЕРИАЛ: 100% КОЖА ДЛИНА: 138 СМ ШИРИНА: 50 ММ ЦВЕТ: ЧЕРНЫЙ .";s:6:"parent";s:2:"79";s:4:"durl";s:66:"odezhda-dlya-okhrannykh-struktur/letnyaya/remen-muzhskoy-nat-kozha";s:4:"dtxt";s:103:"Материал: 100&#37; кожа Длина: 138 см Ширина: 50 мм Цвет: черный .";s:4:"dpic";s:14:"/d0e/16296.jpg";s:11:"preview_pic";s:14:"/dbe/16296.jpg";s:4:"bxid";s:6:"201972";s:5:"alias";s:24:"remen-muzhskoy-nat-kozha";s:7:"section";s:5:"11686";s:5:"title";s:0:"";s:11:"description";s:0:"";s:8:"keywords";s:0:"";s:5:"price";s:1:"0";s:9:"old-price";s:1:"0";}i:15;a:20:{s:2:"id";s:3:"501";s:3:"act";s:1:"N";s:9:"prod_type";s:0:"";s:4:"name";s:47:"Блузка форменная цв.белый";s:3:"art";s:15:"ФорБлу016";s:4:"sort";s:3:"100";s:6:"search";s:51:"БЛУЗКА ФОРМЕННАЯ ЦВ.БЕЛЫЙ

";s:6:"parent";s:2:"21";s:4:"durl";s:79:"odezhda-dlya-okhrannykh-struktur/formennaya-odezhda/bluzka-formennaya-tsv-belyy";s:4:"dtxt";s:0:"";s:4:"dpic";N;s:11:"preview_pic";N;s:4:"bxid";s:6:"200218";s:5:"alias";s:27:"bluzka-formennaya-tsv-belyy";s:7:"section";s:5:"11666";s:5:"title";s:0:"";s:11:"description";s:0:"";s:8:"keywords";s:0:"";s:5:"price";s:1:"0";s:9:"old-price";s:1:"0";}i:16;a:20:{s:2:"id";s:3:"502";s:3:"act";s:1:"N";s:9:"prod_type";s:0:"";s:4:"name";s:55:"Блузка форменная цв.оливковый";s:3:"art";s:15:"ФорБлу019";s:4:"sort";s:3:"100";s:6:"search";s:59:"БЛУЗКА ФОРМЕННАЯ ЦВ.ОЛИВКОВЫЙ

";s:6:"parent";s:2:"21";s:4:"durl";s:83:"odezhda-dlya-okhrannykh-struktur/formennaya-odezhda/bluzka-formennaya-tsv-olivkovyy";s:4:"dtxt";s:0:"";s:4:"dpic";N;s:11:"preview_pic";N;s:4:"bxid";s:6:"200219";s:5:"alias";s:31:"bluzka-formennaya-tsv-olivkovyy";s:7:"section";s:5:"11666";s:5:"title";s:0:"";s:11:"description";s:0:"";s:8:"keywords";s:0:"";s:5:"price";s:1:"0";s:9:"old-price";s:1:"0";}}}}s:8:"end_time";i:1565720408;}