a:2:{s:4:"data";a:8:{s:2:"id";s:2:"40";s:5:"title";s:0:"";s:4:"prop";s:0:"";s:5:"alias";s:25:"vlagozashchitnaya-odezhda";s:4:"name";s:39:"влагозащитная одежда";s:6:"parent";s:1:"9";s:7:"parents";a:1:{i:0;a:6:{s:2:"id";s:1:"9";s:5:"title";s:0:"";s:4:"prop";s:0:"";s:5:"alias";s:20:"zashchitnaya-odezhda";s:4:"name";s:29:"защитная одежда";s:6:"parent";s:1:"0";}}s:8:"children";a:2:{s:10:"categories";a:0:{}s:8:"products";a:23:{i:0;a:20:{s:2:"id";s:4:"1069";s:3:"act";s:1:"Y";s:9:"prod_type";s:0:"";s:4:"name";s:16:"Дождевик";s:3:"art";s:9:"Пла001";s:4:"sort";s:3:"100";s:6:"search";s:341:"ДОЖДЕВИК

ШВЫ ПРОСТРОЧЕНЫ НИТКАМИ И ПОДВЕРНУТЫ ДВАЖДЫ ДЛЯ ЗАЩИТЫ ОТ ПРОМОКАНИЯ. ЦВЕТ: СВЕТЛО-ЗЕЛЕНЫЙ ИЛИ СВЕТЛО-ГОЛУБОЙ С МЕТАЛЛИЧЕСКИМ ОТЛИВОМ МАТЕРИАЛ: ПОЛИЭТИЛЕН ВЫСОКОГО ДАВЛЕНИЯ .";s:6:"parent";s:2:"40";s:4:"durl";s:56:"zashchitnaya-odezhda/vlagozashchitnaya-odezhda/dozhdevik";s:4:"dtxt";s:321:"Швы прострочены нитками и подвернуты дважды для защиты от промокания. Цвет: светло-зеленый или светло-голубой с металлическим отливом Материал: полиэтилен высокого давления .";s:4:"dpic";s:17:"/585/img_3142.jpg";s:11:"preview_pic";s:17:"/122/img_3142.jpg";s:4:"bxid";s:6:"200348";s:5:"alias";s:9:"dozhdevik";s:7:"section";s:5:"11691";s:5:"title";s:0:"";s:11:"description";s:0:"";s:8:"keywords";s:0:"";s:5:"price";s:1:"0";s:9:"old-price";s:1:"0";}i:1;a:20:{s:2:"id";s:4:"1070";s:3:"act";s:1:"N";s:9:"prod_type";s:0:"";s:4:"name";s:66:"Костюм нейлоновый с ПВХ цв.т.зеленый";s:3:"art";s:9:"Кос109";s:4:"sort";s:3:"100";s:6:"search";s:514:"КОСТЮМ НЕЙЛОНОВЫЙ С ПВХ ЦВ.Т.ЗЕЛЕНЫЙ

КОСТЮМ КУРТКА+БРЮКИ, В ИНДИВИДУАЛЬНОЙ УПАКОВКЕ. КУРТКА НА МОЛНИИ С КАПЮШОНОМ И ДВУМЯ КАРМАНАМИ, БРЮКИ НА РЕЗИНКЕ, ДВА КАРМАНА. МАТЕРИАЛ - НЕЙЛОН С ВНУТРЕННИМ ПВХ ПОКРЫТИЕМ, ШВЫ ПРОКЛЕЕНЫ ЦВЕТ - ЗЕЛЕНЫЙ Р-РЫ - L, XL, XXL, XXXL. КОЛИЧЕСТВО В КОРОБЕ: 25 ШТУК .";s:6:"parent";s:2:"40";s:4:"durl";s:86:"zashchitnaya-odezhda/vlagozashchitnaya-odezhda/kostyum-neylonovyy-s-pvkh-tsv-t-zelenyy";s:4:"dtxt";s:448:"Костюм куртка&#43;брюки, в индивидуальной упаковке. Куртка на молнии с капюшоном и двумя карманами, брюки на резинке, два кармана. Материал - нейлон с внутренним ПВХ покрытием, швы проклеены Цвет - зеленый Р-ры - L, XL, XXL, XXXL. Количество в коробе: 25 штук .";s:4:"dpic";N;s:11:"preview_pic";N;s:4:"bxid";s:6:"200667";s:5:"alias";s:39:"kostyum-neylonovyy-s-pvkh-tsv-t-zelenyy";s:7:"section";s:5:"11691";s:5:"title";s:0:"";s:11:"description";s:0:"";s:8:"keywords";s:0:"";s:5:"price";s:1:"0";s:9:"old-price";s:1:"0";}i:2;a:20:{s:2:"id";s:4:"1071";s:3:"act";s:1:"Y";s:9:"prod_type";s:0:"";s:4:"name";s:62:"Костюм нейлоновый с ПВХ цв.т.синий";s:3:"art";s:9:"Кос112";s:4:"sort";s:3:"100";s:6:"search";s:506:"КОСТЮМ НЕЙЛОНОВЫЙ С ПВХ ЦВ.Т.СИНИЙ

КОСТЮМ КУРТКА+БРЮКИ, В ИНДИВИДУАЛЬНОЙ УПАКОВКЕ. КУРТКА НА МОЛНИИ С КАПЮШОНОМ И ДВУМЯ КАРМАНАМИ, БРЮКИ НА РЕЗИНКЕ, ДВА КАРМАНА. МАТЕРИАЛ - НЕЙЛОН С ВНУТРЕННИМ ПВХ ПОКРЫТИЕМ, ШВЫ ПРОКЛЕЕНЫ ЦВЕТ - СИНИЙ Р-РЫ - L, XL, XXL, XXXL. КОЛИЧЕСТВО В КОРОБЕ: 25 ШТУК .";s:6:"parent";s:2:"40";s:4:"durl";s:84:"zashchitnaya-odezhda/vlagozashchitnaya-odezhda/kostyum-neylonovyy-s-pvkh-tsv-t-siniy";s:4:"dtxt";s:444:"Костюм куртка&#43;брюки, в индивидуальной упаковке. Куртка на молнии с капюшоном и двумя карманами, брюки на резинке, два кармана. Материал - нейлон с внутренним ПВХ покрытием, швы проклеены Цвет - синий Р-ры - L, XL, XXL, XXXL. Количество в коробе: 25 штук .";s:4:"dpic";s:17:"/b3f/img_2907.jpg";s:11:"preview_pic";s:17:"/36e/img_2907.jpg";s:4:"bxid";s:6:"200668";s:5:"alias";s:37:"kostyum-neylonovyy-s-pvkh-tsv-t-siniy";s:7:"section";s:5:"11691";s:5:"title";s:0:"";s:11:"description";s:0:"";s:8:"keywords";s:0:"";s:5:"price";s:1:"0";s:9:"old-price";s:1:"0";}i:3;a:20:{s:2:"id";s:4:"1072";s:3:"act";s:1:"Y";s:9:"prod_type";s:0:"";s:4:"name";s:67:"Костюм рыбака Fisherman*s WPL с прокл. швами";s:3:"art";s:9:"Кос646";s:4:"sort";s:3:"100";s:6:"search";s:2288:"КОСТЮМ РЫБАКА FISHERMAN*S WPL С ПРОКЛ. ШВАМИ

УДОБНАЯ КОНСТРУКЦИЯ: КУРТКА С ПРОЧНОЙ ЗАСТЕЖКОЙ НА МОЛНИИ С ДОПОЛНИТЕЛЬНЫМ КЛАПАНОМ НА ТЕКСТИЛЬНОЙ ЗАСТЕЖКЕ (ЛИПУНЕ). ПОЛУКОМБИНЕЗОН С УДОБНЫМ КАРМАНОМ С КЛАПАНОМ И РЕГУЛИРОВКОЙ ПОЛНОТЫ. РУКАВА С НАЛОКОТНИКАМИ И МАНЖЕТАМИ, НАКОЛЕННИКАМИ НА БРЮЧИНАХ. 2. ТКАНЬ: КОСТЮМ ИЗГОТОВЛЕН ИЗ СПЕЦИАЛЬНОЙ ПРОЧНОЙ ТКАНИ С ПВХ ПОКРЫТИЕМ, ВЕС ТКАНИ 500 ГР. / КВ. М. ВОДОУПОРНОСТЬ — НЕ МЕНЕЕ 10.000 ММ. ВОД. СТОЛБА. ПОВЫШЕННЫЕ ПРОЧНОСТНЫЕ ХАРАКТЕРИСТИКИ. ОЧЕНЬ ВЫСОКИЕ ПОКАЗАТЕЛИ ИЗНОСОСТОЙКОСТИ. ТКАНЬ СТОЙКАЯ К ДЕЙСТВИЮ МОРСКОЙ ВОДЫ, РЫБЬЕГО ЖИРА, НЕФТЕПРОДУКТОВ. ЦВЕТ: ЯРКО-ОРАНЖЕВЫЙ. ТКАНЬ ЭКОЛОГИЧНА И СООТВЕТСТВУЕТ ЕВРОПЕЙСКОМУ СТАНДАРТУ EN 71 PART3 3. СПЕЦИАЛЬНАЯ ТКАНЬ КОСТЮМА FISHERMAN'S ПО ФИЗИКО-МЕХАНИЧЕСКИМ СВОЙСТВАМ ЛИБО СОПОСТАВИМА, ЛИБО ПРЕВОСХОДИТ ТКАНЬ КЛАССИЧЕСКОГО КОСТЮМА РОКОН-БУКСА. ЧТО ПОЗВОЛИЛО УВЕЛИЧИТЬ СРОКИ ЭКСПЛУАТАЦИИ КОСТЮМОВ FISHERMAN'S ПО СРАВНЕНИЮ С КЛАССИЧЕСКИМИ КОСТЮМАМИ РЫБАКА. 4. ВСЕ ШВЫ КОСТЮМА НАДЕЖНО ЗАГЕРМЕТИЗИРОВАНЫ СПЕЦИАЛЬНОЙ ЛЕНТОЙ. 5. КОСТЮМ СНАБЖЕН СВЕТООТРАЖАЮЩИМИ ЭЛЕМЕНТАМИ, УЛУЧШАЮЩИМИ ВИДИМОСТЬ В ТЕМНОЕ ВРЕМЯ. 6. ИЗГОТОВЛЕН В ПОЛНОМ СООТВЕТСТВИИ С ТЕХНИЧЕСКИМ РЕГЛАМЕНТОМ ТАМОЖЕННОГО СОЮЗА ТР ТС 019/2011 О БЕЗОПАСНОСТИ СРЕДСТВ ИНДИВИДУАЛЬНОЙ ЗАЩИТЫ. ДЕКЛАРАЦИЯ/СЕРТИФИКАТ ПРЕДОСТАВЛЯЕТСЯ.";s:6:"parent";s:2:"40";s:4:"durl";s:92:"zashchitnaya-odezhda/vlagozashchitnaya-odezhda/kostyum-rybaka-fisherman-s-wpl-s-prokl-shvami";s:4:"dtxt";s:2233:"Удобная конструкция: куртка с прочной застежкой на молнии с дополнительным клапаном на текстильной застежке &#40;липуне&#41;. Полукомбинезон с удобным карманом с клапаном и регулировкой полноты. Рукава с налокотниками и манжетами, наколенниками на брючинах. 2. Ткань: костюм изготовлен из специальной прочной ткани с ПВХ покрытием, вес ткани 500 гр. / кв. м. Водоупорность — не менее 10.000 мм. вод. столба. Повышенные прочностные характеристики. Очень высокие показатели износостойкости. Ткань стойкая к действию морской воды, рыбьего жира, нефтепродуктов. Цвет: ярко-оранжевый. Ткань экологична и соответствует Европейскому стандарту EN 71 PART3 3. Специальная ткань костюма Fisherman&#39;s по физико-механическим свойствам либо сопоставима, либо превосходит ткань классического костюма Рокон-Букса. Что позволило увеличить сроки эксплуатации костюмов Fisherman&#39;s по сравнению с классическими костюмами рыбака. 4. Все швы костюма надежно загерметизированы специальной лентой. 5. Костюм снабжен светоотражающими элементами, улучшающими видимость в темное время. 6. Изготовлен в полном соответствии с техническим регламентом таможенного союза ТР ТС 019/2011 О безопасности средств индивидуальной защиты. Декларация/сертификат предоставляется.";s:4:"dpic";s:14:"/e5d/15432.jpg";s:11:"preview_pic";s:14:"/f0d/15432.jpg";s:4:"bxid";s:6:"200685";s:5:"alias";s:45:"kostyum-rybaka-fisherman-s-wpl-s-prokl-shvami";s:7:"section";s:5:"11691";s:5:"title";s:0:"";s:11:"description";s:0:"";s:8:"keywords";s:0:"";s:5:"price";s:1:"0";s:9:"old-price";s:1:"0";}i:4;a:20:{s:2:"id";s:4:"1073";s:3:"act";s:1:"N";s:9:"prod_type";s:0:"";s:4:"name";s:70:"Плащ нейлоновый с ПВХ цв.темно-зеленый";s:3:"art";s:9:"Пла006";s:4:"sort";s:3:"100";s:6:"search";s:429:"ПЛАЩ НЕЙЛОНОВЫЙ С ПВХ ЦВ.ТЕМНО-ЗЕЛЕНЫЙ

ПЛАЩ ДЛЯ ЗАЩИТЫ ОТ ВЛАГИ, С КАПЮШОНОМ, ДВУМЯ КАРМАНАМИ, В ИНДИВИДУАЛЬНОЙ УПАКОВКЕ. МАТЕРИАЛ - НЕЙЛОН С ВНУТРЕННИМ ПВХ ПОКРЫТИЕМ, ШВЫ ПРОКЛЕЕНЫ ЦВЕТ - ЗЕЛЕНЫЙ Р-РЫ - L, XL, XXL, XXXL. КОЛИЧЕСТВО В КОРОБЕ: 25 .";s:6:"parent";s:2:"40";s:4:"durl";s:90:"zashchitnaya-odezhda/vlagozashchitnaya-odezhda/plashch-neylonovyy-s-pvkh-tsv-temno-zelenyy";s:4:"dtxt";s:355:"Плащ для защиты от влаги, с капюшоном, двумя карманами, в индивидуальной упаковке. Материал - нейлон с внутренним ПВХ покрытием, швы проклеены Цвет - зеленый Р-ры - L, XL, XXL, XXXL. Количество в коробе: 25 .";s:4:"dpic";s:13:"/53c/2599.jpg";s:11:"preview_pic";s:17:"/d5d/img_2798.jpg";s:4:"bxid";s:6:"201149";s:5:"alias";s:43:"plashch-neylonovyy-s-pvkh-tsv-temno-zelenyy";s:7:"section";s:5:"11691";s:5:"title";s:0:"";s:11:"description";s:0:"";s:8:"keywords";s:0:"";s:5:"price";s:1:"0";s:9:"old-price";s:1:"0";}i:5;a:20:{s:2:"id";s:4:"1074";s:3:"act";s:1:"Y";s:9:"prod_type";s:0:"";s:4:"name";s:66:"Плащ нейлоновый с ПВХ цв.темно-синий";s:3:"art";s:9:"Пла008";s:4:"sort";s:3:"100";s:6:"search";s:421:"ПЛАЩ НЕЙЛОНОВЫЙ С ПВХ ЦВ.ТЕМНО-СИНИЙ

ПЛАЩ ДЛЯ ЗАЩИТЫ ОТ ВЛАГИ, С КАПЮШОНОМ, ДВУМЯ КАРМАНАМИ, В ИНДИВИДУАЛЬНОЙ УПАКОВКЕ. МАТЕРИАЛ - НЕЙЛОН С ВНУТРЕННИМ ПВХ ПОКРЫТИЕМ, ШВЫ ПРОКЛЕЕНЫ ЦВЕТ - СИНИЙ Р-РЫ - L, XL, XXL, XXXL. КОЛИЧЕСТВО В КОРОБЕ: 25 .";s:6:"parent";s:2:"40";s:4:"durl";s:88:"zashchitnaya-odezhda/vlagozashchitnaya-odezhda/plashch-neylonovyy-s-pvkh-tsv-temno-siniy";s:4:"dtxt";s:351:"Плащ для защиты от влаги, с капюшоном, двумя карманами, в индивидуальной упаковке. Материал - нейлон с внутренним ПВХ покрытием, швы проклеены Цвет - синий Р-ры - L, XL, XXL, XXXL. Количество в коробе: 25 .";s:4:"dpic";s:17:"/ad1/img_2886.jpg";s:11:"preview_pic";s:17:"/38c/img_2886.jpg";s:4:"bxid";s:6:"201150";s:5:"alias";s:41:"plashch-neylonovyy-s-pvkh-tsv-temno-siniy";s:7:"section";s:5:"11691";s:5:"title";s:0:"";s:11:"description";s:0:"";s:8:"keywords";s:0:"";s:5:"price";s:1:"0";s:9:"old-price";s:1:"0";}i:6;a:20:{s:2:"id";s:4:"1075";s:3:"act";s:1:"N";s:9:"prod_type";s:0:"";s:4:"name";s:74:"Костюм влагозащитный Exstra -Vision WPL цв.лимон";s:3:"art";s:9:"Кос910";s:4:"sort";s:3:"100";s:6:"search";s:1554:"КОСТЮМ ВЛАГОЗАЩИТНЫЙ EXSTRA -VISION WPL ЦВ.ЛИМОН

КОСТЮМ ИЗГОТАВЛИВАЕТСЯ ИЗ ТКАНИ ЯРКО-ЛИМОННОГО ЦВЕТА. ИМЕЕТ СВЕТООТРАЖАЮЩИЕ ПОЛОСЫ. СООТВЕТСТВУЕТ 3-МУ КЛАССУ ПО ГОСТ Р 12.4.219-99 «ОДЕЖДА СПЕЦИАЛЬНАЯ СИГНАЛЬНАЯ ПОВЫШЕННОЙ ВИДИМОСТИ». УДОБНАЯ КОНСТРУКЦИЯ: КУРТКА С ЗАСТЕЖКОЙ НА МОЛНИИ, КЛАПАНОМ ПРОТИВ ВЕТРА, КАПЮШОНОМ, ДВУМЯ КАРМАНАМИ С КЛАПАНАМИ, МАНЖЕТАМИ НА РУКАВАХ. ТКАНЬ: КОСТЮМ ИЗГОТОВЛЕН ИЗ ПРОЧНОЙ ПЛАЩЕВОЙ ТКАНИ С ПВХ ПОКРЫТИЕМ. ВЕС ТКАНИ — 225 ГР./МЕТР.КВ. ВОДОУПОРНОСТЬ ТКАНИ НЕ МЕНЕЕ 5000 ММ ВОДЯНОГО СТОЛБА. ТКАНЬ ЭКОЛОГИЧНА И СООТВЕТСТВУЕТ ЕВРОПЕЙСКОМУ СТАНДАРТУ ПО СОДЕРЖАНИЮ ВРЕДНЫХ ВЕЩЕСТВ EN 71 PART3. ПРОКЛЕЕННЫЕ ШВЫ: ВСЕ ШВЫ КОСТЮМА ЗАГЕРМЕТИЗИРОВАНЫ СПЕЦИАЛЬНОЙ ЛЕНТОЙ. ИЗГОТОВЛЕН В ПОЛНОМ СООТВЕТСТВИИ С ТЕХНИЧЕСКИМ РЕГЛАМЕНТОМ ТАМОЖЕННОГО СОЮЗА ТР ТС 019/2011 О БЕЗОПАСНОСТИ СРЕДСТВ ИНДИВИУАЛЬНОЙ ЗАЩИТЫ. ДЕКЛАРАЦИЯ/СЕРТИФИКАТ ПРЕДОСТАВЛЯЕТСЯ.";s:6:"parent";s:2:"40";s:4:"durl";s:99:"zashchitnaya-odezhda/vlagozashchitnaya-odezhda/kostyum-vlagozashchitnyy-exstra-vision-wpl-tsv-limon";s:4:"dtxt";s:1476:"Костюм изготавливается из ткани ярко-лимонного цвета. Имеет светоотражающие полосы. Соответствует 3-му классу по ГОСТ Р 12.4.219-99 «Одежда специальная сигнальная повышенной видимости». Удобная конструкция: куртка с застежкой на молнии, клапаном против ветра, капюшоном, двумя карманами с клапанами, манжетами на рукавах. Ткань: костюм изготовлен из прочной плащевой ткани с ПВХ покрытием. Вес ткани — 225 гр./метр.кв. Водоупорность ткани не менее 5000 мм водяного столба. Ткань экологична и соответствует европейскому стандарту по содержанию вредных веществ EN 71 PART3. Проклеенные швы: все швы костюма загерметизированы специальной лентой. Изготовлен в полном соответствии с техническим регламентом таможенного союза ТР ТС 019/2011 О безопасности средств индивиуальной защиты. Декларация/сертификат предоставляется.";s:4:"dpic";s:14:"/9d0/10244.jpg";s:11:"preview_pic";s:14:"/f23/10244.jpg";s:4:"bxid";s:6:"201883";s:5:"alias";s:52:"kostyum-vlagozashchitnyy-exstra-vision-wpl-tsv-limon";s:7:"section";s:5:"11691";s:5:"title";s:0:"";s:11:"description";s:0:"";s:8:"keywords";s:0:"";s:5:"price";s:1:"0";s:9:"old-price";s:1:"0";}i:7;a:20:{s:2:"id";s:4:"1076";s:3:"act";s:1:"N";s:9:"prod_type";s:0:"";s:4:"name";s:82:"Костюм влагозащитный Exstra -Vision WPL цв.оранжевый";s:3:"art";s:9:"Кос911";s:4:"sort";s:3:"100";s:6:"search";s:1564:"КОСТЮМ ВЛАГОЗАЩИТНЫЙ EXSTRA -VISION WPL ЦВ.ОРАНЖЕВЫЙ

КОСТЮМ ИЗГОТАВЛИВАЕТСЯ ИЗ ТКАНИ ЯРКО-ОРАНЖЕВОГО ЦВЕТА. ИМЕЕТ СВЕТООТРАЖАЮЩИЕ ПОЛОСЫ. СООТВЕТСТВУЕТ 3-МУ КЛАССУ ПО ГОСТ Р 12.4.219-99 «ОДЕЖДА СПЕЦИАЛЬНАЯ СИГНАЛЬНАЯ ПОВЫШЕННОЙ ВИДИМОСТИ». УДОБНАЯ КОНСТРУКЦИЯ: КУРТКА С ЗАСТЕЖКОЙ НА МОЛНИИ, КЛАПАНОМ ПРОТИВ ВЕТРА, КАПЮШОНОМ, ДВУМЯ КАРМАНАМИ С КЛАПАНАМИ, МАНЖЕТАМИ НА РУКАВАХ. ТКАНЬ: КОСТЮМ ИЗГОТОВЛЕН ИЗ ПРОЧНОЙ ПЛАЩЕВОЙ ТКАНИ С ПВХ ПОКРЫТИЕМ. ВЕС ТКАНИ — 225 ГР./МЕТР.КВ. ВОДОУПОРНОСТЬ ТКАНИ НЕ МЕНЕЕ 5000 ММ ВОДЯНОГО СТОЛБА. ТКАНЬ ЭКОЛОГИЧНА И СООТВЕТСТВУЕТ ЕВРОПЕЙСКОМУ СТАНДАРТУ ПО СОДЕРЖАНИЮ ВРЕДНЫХ ВЕЩЕСТВ EN 71 PART3. ПРОКЛЕЕННЫЕ ШВЫ: ВСЕ ШВЫ КОСТЮМА ЗАГЕРМЕТИЗИРОВАНЫ СПЕЦИАЛЬНОЙ ЛЕНТОЙ. ИЗГОТОВЛЕН В ПОЛНОМ СООТВЕТСТВИИ С ТЕХНИЧЕСКИМ РЕГЛАМЕНТОМ ТАМОЖЕННОГО СОЮЗА ТР ТС 019/2011 О БЕЗОПАСНОСТИ СРЕДСТВ ИНДИВИУАЛЬНОЙ ЗАЩИТЫ. ДЕКЛАРАЦИЯ/СЕРТИФИКАТ ПРЕДОСТАВЛЯЕТСЯ.";s:6:"parent";s:2:"40";s:4:"durl";s:104:"zashchitnaya-odezhda/vlagozashchitnaya-odezhda/kostyum-vlagozashchitnyy-exstra-vision-wpl-tsv-oranzhevyy";s:4:"dtxt";s:1478:"Костюм изготавливается из ткани ярко-оранжевого цвета. Имеет светоотражающие полосы. Соответствует 3-му классу по ГОСТ Р 12.4.219-99 «Одежда специальная сигнальная повышенной видимости». Удобная конструкция: куртка с застежкой на молнии, клапаном против ветра, капюшоном, двумя карманами с клапанами, манжетами на рукавах. Ткань: костюм изготовлен из прочной плащевой ткани с ПВХ покрытием. Вес ткани — 225 гр./метр.кв. Водоупорность ткани не менее 5000 мм водяного столба. Ткань экологична и соответствует европейскому стандарту по содержанию вредных веществ EN 71 PART3. Проклеенные швы: все швы костюма загерметизированы специальной лентой. Изготовлен в полном соответствии с техническим регламентом таможенного союза ТР ТС 019/2011 О безопасности средств индивиуальной защиты. Декларация/сертификат предоставляется.";s:4:"dpic";s:14:"/b99/16303.jpg";s:11:"preview_pic";s:14:"/e83/16303.jpg";s:4:"bxid";s:6:"201884";s:5:"alias";s:57:"kostyum-vlagozashchitnyy-exstra-vision-wpl-tsv-oranzhevyy";s:7:"section";s:5:"11691";s:5:"title";s:0:"";s:11:"description";s:0:"";s:8:"keywords";s:0:"";s:5:"price";s:1:"0";s:9:"old-price";s:1:"0";}i:8;a:20:{s:2:"id";s:4:"1077";s:3:"act";s:1:"N";s:9:"prod_type";s:0:"";s:4:"name";s:50:"Костюм влагозащитный Hunter WPL";s:3:"art";s:9:"Кос912";s:4:"sort";s:3:"100";s:6:"search";s:1379:"КОСТЮМ ВЛАГОЗАЩИТНЫЙ HUNTER WPL

УДОБНАЯ КОНСТРУКЦИЯ: КОСТЮМ СОСТОИТ ИЗ КУРТКИ И БРЮК. КУРТКА С ЗАСТЕЖКОЙ НА МОЛНИИ, КЛАПАНОМ ПРОТИВ ВЕТРА, КАПЮШОНОМ, ДВУМЯ КАРМАНАМИ С КЛАПАНАМИ, МАНЖЕТАМИ НА РУКАВАХ. БРЮКИ С МАНЖЕТАМИ. ТКАНЬ: КОСТЮМ ИЗГОТОВЛЕН ИЗ ПРОЧНОЙ ПЛАЩЕВОЙ ТКАНИ С ПВХ ПОКРЫТИЕМ. ВЕС ТКАНИ - 225ГР./КВ.М. ВОДОУПОРНОСТЬ ТКАНИ НЕ МЕНЕЕ 5000 ММ ВОДЯНОГО СТОЛБА. ТКАНЬ ЭКОЛОГИЧНА И СООТВЕТСТВУЕТ ЕВРОПЕЙСКОМУ СТАНДАРТУ ПО СОДЕРЖАНИЮ ВРЕДНЫХ ВЕЩЕСТВ EN 71 PART3. ПРОКЛЕЕННЫЕ ШВЫ: ВСЕ ШВЫ КОСТЮМА ЗАГЕРМЕТИЗИРОВАНЫ СПЕЦИАЛЬНОЙ ЛЕНТОЙ. КОСТЮМ ВЫПУСКАЕТСЯ В ЗЕЛЕНОМ КАМУФЛИРОВАННОМ ЦВЕТЕ. ИЗГОТОВЛЕН В ПОЛНОМ СООТВЕТСТВИИ С ТЕХНИЧЕСКИМ РЕГЛАМЕНТОМ ТАМОЖЕННОГО СОЮЗА ТР ТС 019/2011 О БЕЗОПАСНОСТИ СРЕДСТВ ИНДИВИДУАЛЬНОЙ ЗАЩИТЫ. ДЕКЛАРАЦИЯ/СЕРТИФИКАТ ПРЕДОСТАВЛЯЕТСЯ.";s:6:"parent";s:2:"40";s:4:"durl";s:82:"zashchitnaya-odezhda/vlagozashchitnaya-odezhda/kostyum-vlagozashchitnyy-hunter-wpl";s:4:"dtxt";s:1325:"Удобная конструкция: костюм состоит из куртки и брюк. Куртка с застежкой на молнии, клапаном против ветра, капюшоном, двумя карманами с клапанами, манжетами на рукавах. Брюки с манжетами. Ткань: костюм изготовлен из прочной плащевой ткани с ПВХ покрытием. Вес ткани - 225гр./кв.м. Водоупорность ткани не менее 5000 мм водяного столба. Ткань экологична и соответствует европейскому стандарту по содержанию вредных веществ EN 71 PART3. Проклеенные швы: все швы костюма загерметизированы специальной лентой. Костюм выпускается в зеленом камуфлированном цвете. Изготовлен в полном соответствии с техническим регламентом таможенного союза ТР ТС 019/2011 О безопасности средств индивидуальной защиты. Декларация/сертификат предоставляется.";s:4:"dpic";s:14:"/5e6/16304.jpg";s:11:"preview_pic";s:14:"/d51/16304.jpg";s:4:"bxid";s:6:"201885";s:5:"alias";s:35:"kostyum-vlagozashchitnyy-hunter-wpl";s:7:"section";s:5:"11691";s:5:"title";s:0:"";s:11:"description";s:0:"";s:8:"keywords";s:0:"";s:5:"price";s:1:"0";s:9:"old-price";s:1:"0";}i:9;a:20:{s:2:"id";s:4:"1078";s:3:"act";s:1:"N";s:9:"prod_type";s:0:"";s:4:"name";s:52:"Костюм влагозащитный Poseidon WPL";s:3:"art";s:9:"Кос913";s:4:"sort";s:3:"100";s:6:"search";s:1330:"КОСТЮМ ВЛАГОЗАЩИТНЫЙ POSEIDON WPL

УДОБНАЯ КОНСТРУКЦИЯ:КОСТЮМ СОСТОИТ ИЗ КУРТКИ И БРЮК. КУРТКА С ЗАСТЕЖКОЙ НА МОЛНИИ, КЛАПАНОМ ПРОТИВ ВЕТРА, КАПЮШОНОМ, ДВУМЯ КАРМАНАМИ С КЛАПАНАМИ, МАНЖЕТАМИ НА РУКАВАХ ТКАНЬ: КОСТЮМ ИЗГОТОВЛЕН ИЗ ПРОЧНОЙ ПЛАЩЕВОЙ ТКАНИ С ПВХ ПОКРЫТИЕМ. ВЕС ТКАНИ — 225 ГР./МЕТР.КВ. ВОДОУПОРНОСТЬ ТКАНИ НЕ МЕНЕЕ 5000 ММ ВОДЯНОГО СТОЛБА. ТКАНЬ ЭКОЛОГИЧНА И СООТВЕТСТВУЕТ ЕВРОПЕЙСКОМУ СТАНДАРТУ ПО СОДЕРЖАНИЮ ВРЕДНЫХ ВЕЩЕСТВ EN 71 PART3. ПРОКЛЕЕННЫЕ ШВЫ: ВСЕ ШВЫ КОСТЮМА ЗАГЕРМЕТИЗИРОВАНЫ СПЕЦИАЛЬНОЙ ЛЕНТОЙ. КОСТЮМ ВЫПУСКАЕТСЯ В ТЕМНО-СИНЕМ ЦВЕТЕ. ИЗГОТОВЛЕН В ПОЛНОМ СООТВЕТСТВИИ С ТЕХНИЧЕСКИМ РЕГЛАМЕНТОМ ТАМОЖЕННОГО СОЮЗА ТР ТС 019/2011 О БЕЗОПАСНОСТИ СРЕДСТВ ИНДИВИДУАЛЬНОЙ ЗАЩИТЫ. ДЕКЛАРАЦИЯ/СЕРТИФИКАТ ПРЕДОСТАВЛЯЕТСЯ.";s:6:"parent";s:2:"40";s:4:"durl";s:84:"zashchitnaya-odezhda/vlagozashchitnaya-odezhda/kostyum-vlagozashchitnyy-poseidon-wpl";s:4:"dtxt";s:1274:"Удобная конструкция:костюм состоит из куртки и брюк. Куртка с застежкой на молнии, клапаном против ветра, капюшоном, двумя карманами с клапанами, манжетами на рукавах Ткань: костюм изготовлен из прочной плащевой ткани с ПВХ покрытием. Вес ткани — 225 гр./метр.кв. Водоупорность ткани не менее 5000 мм водяного столба. Ткань экологична и соответствует европейскому стандарту по содержанию вредных веществ EN 71 PART3. Проклеенные швы: все швы костюма загерметизированы специальной лентой. Костюм выпускается в темно-синем цвете. Изготовлен в полном соответствии с техническим регламентом таможенного союза ТР ТС 019/2011 О безопасности средств индивидуальной защиты. Декларация/сертификат предоставляется.";s:4:"dpic";s:14:"/efa/16305.jpg";s:11:"preview_pic";s:14:"/ee3/16305.jpg";s:4:"bxid";s:6:"201886";s:5:"alias";s:37:"kostyum-vlagozashchitnyy-poseidon-wpl";s:7:"section";s:5:"11691";s:5:"title";s:0:"";s:11:"description";s:0:"";s:8:"keywords";s:0:"";s:5:"price";s:1:"0";s:9:"old-price";s:1:"0";}i:10;a:20:{s:2:"id";s:4:"1079";s:3:"act";s:1:"N";s:9:"prod_type";s:0:"";s:4:"name";s:64:"Плащ влагозащитный Poseidon WPL цв.лимон";s:3:"art";s:9:"Пла901";s:4:"sort";s:3:"100";s:6:"search";s:1299:"ПЛАЩ ВЛАГОЗАЩИТНЫЙ POSEIDON WPL ЦВ.ЛИМОН

УДОБНАЯ КОНСТРУКЦИЯ: ПЛАЩ С ЗАСТЕЖКОЙ НА МОЛНИИ, КЛАПАНОМ ПРОТИВ ВЕТРА, КАПЮШОНОМ, ДВУМЯ КАРМАНАМИ С КЛАПАНАМИ, МАНЖЕТАМИ НА РУКАВАХ. ТКАНЬ: ПЛАЩ ИЗГОТОВЛЕН ИЗ ПРОЧНОЙ ПЛАЩЕВОЙ ТКАНИ С ПВХ ПОКРЫТИЕМ. ВЕС ТКАНИ — 225 ГР./МЕТР.КВ. ВОДОУПОРНОСТЬ ТКАНИ НЕ МЕНЕЕ 5000 ММ ВОДЯНОГО СТОЛБА. ТКАНЬ ЭКОЛОГИЧНА И СООТВЕТСТВУЕТ ЕВРОПЕЙСКОМУ СТАНДАРТУ ПО СОДЕРЖАНИЮ ВРЕДНЫХ ВЕЩЕСТВ EN 71 PART3. ПРОКЛЕЕННЫЕ ШВЫ: ВСЕ ШВЫ ПЛАЩА ЗАГЕРМЕТИЗИРОВАНЫ СПЕЦИАЛЬНОЙ ЛЕНТОЙ. ПЛАЩ ВЫПУСКАЕТСЯ ЯРКО-ЛИМОННОМ ФЛУОРЕСЦЕНТНОМ ЦВЕТЕ. ИЗГОТОВЛЕН В ПОЛНОМ СООТВЕТСТВИИ С ТЕХНИЧЕСКИМ РЕГЛАМЕНТОМ ТАМОЖЕННОГО СОЮЗА ТР ТС 019/2011 О БЕЗОПАСНОСТИ СРЕДСТВ ИНДИВИДУАЛЬНОЙ ЗАЩИТЫ. ДЕКЛАРАЦИЯ/СЕРТИФИКАТ ПРЕДОСТАВЛЯЕТСЯ.";s:6:"parent";s:2:"40";s:4:"durl";s:94:"zashchitnaya-odezhda/vlagozashchitnaya-odezhda/plashch-vlagozashchitnyy-poseidon-wpl-tsv-limon";s:4:"dtxt";s:1231:"Удобная конструкция: плащ с застежкой на молнии, клапаном против ветра, капюшоном, двумя карманами с клапанами, манжетами на рукавах. Ткань: плащ изготовлен из прочной плащевой ткани с ПВХ покрытием. Вес ткани — 225 гр./метр.кв. Водоупорность ткани не менее 5000 мм водяного столба. Ткань экологична и соответствует европейскому стандарту по содержанию вредных веществ EN 71 PART3. Проклеенные швы: все швы плаща загерметизированы специальной лентой. Плащ выпускается ярко-лимонном флуоресцентном цвете. Изготовлен в полном соответствии с техническим регламентом таможенного союза ТР ТС 019/2011 О безопасности средств индивидуальной защиты. Декларация/сертификат предоставляется.";s:4:"dpic";s:14:"/69b/16307.jpg";s:11:"preview_pic";s:14:"/349/16307.jpg";s:4:"bxid";s:6:"201887";s:5:"alias";s:47:"plashch-vlagozashchitnyy-poseidon-wpl-tsv-limon";s:7:"section";s:5:"11691";s:5:"title";s:0:"";s:11:"description";s:0:"";s:8:"keywords";s:0:"";s:5:"price";s:1:"0";s:9:"old-price";s:1:"0";}i:11;a:20:{s:2:"id";s:4:"1080";s:3:"act";s:1:"N";s:9:"prod_type";s:0:"";s:4:"name";s:72:"Плащ влагозащитный Poseidon WPL цв.оранжевый";s:3:"art";s:9:"Пла903";s:4:"sort";s:3:"100";s:6:"search";s:1312:"ПЛАЩ ВЛАГОЗАЩИТНЫЙ POSEIDON WPL ЦВ.ОРАНЖЕВЫЙ

УДОБНАЯ КОНСТРУКЦИЯ: ПЛАЩ С ЗАСТЕЖКОЙ НА МОЛНИИ, КЛАПАНОМ ПРОТИВ ВЕТРА, КАПЮШОНОМ, ДВУМЯ КАРМАНАМИ С КЛАПАНАМИ, МАНЖЕТАМИ НА РУКАВАХ. ТКАНЬ: ПЛАЩ ИЗГОТОВЛЕН ИЗ ПРОЧНОЙ ПЛАЩЕВОЙ ТКАНИ С ПВХ ПОКРЫТИЕМ. ВЕС ТКАНИ — 225 ГР./МЕТР.КВ. ВОДОУПОРНОСТЬ ТКАНИ НЕ МЕНЕЕ 5000 ММ ВОДЯНОГО СТОЛБА. ТКАНЬ ЭКОЛОГИЧНА И СООТВЕТСТВУЕТ ЕВРОПЕЙСКОМУ СТАНДАРТУ ПО СОДЕРЖАНИЮ ВРЕДНЫХ ВЕЩЕСТВ EN 71 PART3. ПРОКЛЕЕННЫЕ ШВЫ: ВСЕ ШВЫ ПЛАЩА ЗАГЕРМЕТИЗИРОВАНЫ СПЕЦИАЛЬНОЙ ЛЕНТОЙ. ПЛАЩ ВЫПУСКАЕТСЯ В ЯРКО-ОРАНЖЕВОМ ФЛУОРЕСЦЕНТНОМ ЦВЕТЕ. ИЗГОТОВЛЕН В ПОЛНОМ СООТВЕТСТВИИ С ТЕХНИЧЕСКИМ РЕГЛАМЕНТОМ ТАМОЖЕННОГО СОЮЗА ТР ТС 019/2011 О БЕЗОПАСНОСТИ СРЕДСТВ ИНДИВИДУАЛЬНОЙ ЗАЩИТЫ. ДЕКЛАРАЦИЯ/СЕРТИФИКАТ ПРЕДОСТАВЛЯЕТСЯ.";s:6:"parent";s:2:"40";s:4:"durl";s:99:"zashchitnaya-odezhda/vlagozashchitnaya-odezhda/plashch-vlagozashchitnyy-poseidon-wpl-tsv-oranzhevyy";s:4:"dtxt";s:1236:"Удобная конструкция: плащ с застежкой на молнии, клапаном против ветра, капюшоном, двумя карманами с клапанами, манжетами на рукавах. Ткань: плащ изготовлен из прочной плащевой ткани с ПВХ покрытием. Вес ткани — 225 гр./метр.кв. Водоупорность ткани не менее 5000 мм водяного столба. Ткань экологична и соответствует европейскому стандарту по содержанию вредных веществ EN 71 PART3. Проклеенные швы: все швы плаща загерметизированы специальной лентой. Плащ выпускается в ярко-оранжевом флуоресцентном цвете. Изготовлен в полном соответствии с техническим регламентом таможенного союза ТР ТС 019/2011 О безопасности средств индивидуальной защиты. Декларация/сертификат предоставляется.";s:4:"dpic";s:14:"/730/16308.jpg";s:11:"preview_pic";s:14:"/a46/16308.jpg";s:4:"bxid";s:6:"201888";s:5:"alias";s:52:"plashch-vlagozashchitnyy-poseidon-wpl-tsv-oranzhevyy";s:7:"section";s:5:"11691";s:5:"title";s:0:"";s:11:"description";s:0:"";s:8:"keywords";s:0:"";s:5:"price";s:1:"0";s:9:"old-price";s:1:"0";}i:12;a:20:{s:2:"id";s:4:"1081";s:3:"act";s:1:"N";s:9:"prod_type";s:0:"";s:4:"name";s:59:"Плащ влагозащитный Poseidon WPL синий";s:3:"art";s:9:"Пла902";s:4:"sort";s:3:"100";s:6:"search";s:1253:"ПЛАЩ ВЛАГОЗАЩИТНЫЙ POSEIDON WPL СИНИЙ

УДОБНАЯ КОНСТРУКЦИЯ: ПЛАЩ С ЗАСТЕЖКОЙ НА МОЛНИИ, КЛАПАНОМ ПРОТИВ ВЕТРА, КАПЮШОНОМ, ДВУМЯ КАРМАНАМИ С КЛАПАНАМИ, МАНЖЕТАМИ НА РУКАВАХ. ТКАНЬ: ПЛАЩ ИЗГОТОВЛЕН ИЗ ПРОЧНОЙ ПЛАЩЕВОЙ ТКАНИ С ПВХ ПОКРЫТИЕМ. ВЕС ТКАНИ — 225 ГР./МЕТР.КВ. ВОДОУПОРНОСТЬ ТКАНИ НЕ МЕНЕЕ 5000 ММ ВОДЯНОГО СТОЛБА. ТКАНЬ ЭКОЛОГИЧНА И СООТВЕТСТВУЕТ ЕВРОПЕЙСКОМУ СТАНДАРТУ ПО СОДЕРЖАНИЮ ВРЕДНЫХ ВЕЩЕСТВ EN 71 PART3. ПРОКЛЕЕННЫЕ ШВЫ: ВСЕ ШВЫ ПЛАЩА ЗАГЕРМЕТИЗИРОВАНЫ СПЕЦИАЛЬНОЙ ЛЕНТОЙ. ПЛАЩ ВЫПУСКАЕТСЯ В СИНЕМ ЦВЕТЕ. ИЗГОТОВЛЕН В ПОЛНОМ СООТВЕТСТВИИ С ТЕХНИЧЕСКИМ РЕГЛАМЕНТОМ ТАМОЖЕННОГО СОЮЗА ТР ТС 019/2011 О БЕЗОПАСНОСТИ СРЕДСТВ ИНДИВИДУАЛЬНОЙ ЗАЩИТЫ. ДЕКЛАРАЦИЯ/СЕРТИФИКАТ ПРЕДОСТАВЛЯЕТСЯ.";s:6:"parent";s:2:"40";s:4:"durl";s:90:"zashchitnaya-odezhda/vlagozashchitnaya-odezhda/plashch-vlagozashchitnyy-poseidon-wpl-siniy";s:4:"dtxt";s:1190:"Удобная конструкция: плащ с застежкой на молнии, клапаном против ветра, капюшоном, двумя карманами с клапанами, манжетами на рукавах. Ткань: плащ изготовлен из прочной плащевой ткани с ПВХ покрытием. Вес ткани — 225 гр./метр.кв. Водоупорность ткани не менее 5000 мм водяного столба. Ткань экологична и соответствует европейскому стандарту по содержанию вредных веществ EN 71 PART3. Проклеенные швы: все швы плаща загерметизированы специальной лентой. Плащ выпускается в синем цвете. Изготовлен в полном соответствии с техническим регламентом таможенного союза ТР ТС 019/2011 О безопасности средств индивидуальной защиты. Декларация/сертификат предоставляется.";s:4:"dpic";s:14:"/3e2/16309.jpg";s:11:"preview_pic";s:14:"/511/16309.jpg";s:4:"bxid";s:6:"201889";s:5:"alias";s:43:"plashch-vlagozashchitnyy-poseidon-wpl-siniy";s:7:"section";s:5:"11691";s:5:"title";s:0:"";s:11:"description";s:0:"";s:8:"keywords";s:0:"";s:5:"price";s:1:"0";s:9:"old-price";s:1:"0";}i:13;a:20:{s:2:"id";s:4:"1082";s:3:"act";s:1:"N";s:9:"prod_type";s:0:"";s:4:"name";s:60:"Плащ влагозащитный Еxtra vision лимон";s:3:"art";s:9:"Пла904";s:4:"sort";s:3:"100";s:6:"search";s:1490:"ПЛАЩ ВЛАГОЗАЩИТНЫЙ ЕXTRA VISION ЛИМОН

ПЛАЩ ИЗГОТАВЛИВАЕТСЯ ИЗ ТКАНИ ЯРКО-ЛИМОННОГО ЦВЕТА. ИМЕЕТ СВЕТООТРАЖАЮЩИЕ ПОЛОСЫ. СООТВЕТСТВУЕТ 3-МУ КЛАССУ ПО ГОСТ Р 12.4.219-99 «ОДЕЖДА СПЕЦИАЛЬНАЯ СИГНАЛЬНАЯ ПОВЫШЕННОЙ ВИДИМОСТИ». УДОБНАЯ КОНСТРУКЦИЯ: ПЛАЩ С ЗАСТЕЖКОЙ НА МОЛНИИ, КЛАПАНОМ ПРОТИВ ВЕТРА, КАПЮШОНОМ, ДВУМЯ КАРМАНАМИ С КЛАПАНАМИ. ТКАНЬ: ПЛАЩ ИЗГОТОВЛЕН ИЗ ПРОЧНОЙ ПЛАЩЕВОЙ ТКАНИ С ПВХ ПОКРЫТИЕМ. ВЕС ТКАНИ — 225 ГР./МЕТР.КВ. ВОДОУПОРНОСТЬ ТКАНИ НЕ МЕНЕЕ 5000 ММ ВОДЯНОГО СТОЛБА. ТКАНЬ ЭКОЛОГИЧНА И СООТВЕТСТВУЕТ ЕВРОПЕЙСКОМУ СТАНДАРТУ ПО СОДЕРЖАНИЮ ВРЕДНЫХ ВЕЩЕСТВ EN 71 PART3. ПРОКЛЕЕННЫЕ ШВЫ: ВСЕ ШВЫ КОСТЮМА ЗАГЕРМЕТИЗИРОВАНЫ СПЕЦИАЛЬНОЙ ЛЕНТОЙ. ИЗГОТОВЛЕН В ПОЛНОМ СООТВЕТСТВИИ С ТЕХНИЧЕСКИМ РЕГЛАМЕНТОМ ТАМОЖЕННОГО СОЮЗА ТР ТС 019/2011 О БЕЗОПАСНОСТИ СРЕДСТВ ИНДИВИДУАЛЬНОЙ ЗАЩИТЫ. ДЕКЛАРАЦИЯ/СЕРТИФИКАТ ПРЕДОСТАВЛЯЕТСЯ.";s:6:"parent";s:2:"40";s:4:"durl";s:90:"zashchitnaya-odezhda/vlagozashchitnaya-odezhda/plashch-vlagozashchitnyy-extra-vision-limon";s:4:"dtxt";s:1426:"Плащ изготавливается из ткани ярко-лимонного цвета. Имеет светоотражающие полосы. Соответствует 3-му классу по ГОСТ Р 12.4.219-99 «Одежда специальная сигнальная повышенной видимости». Удобная конструкция: плащ с застежкой на молнии, клапаном против ветра, капюшоном, двумя карманами с клапанами. Ткань: плащ изготовлен из прочной плащевой ткани с ПВХ покрытием. Вес ткани — 225 гр./метр.кв. Водоупорность ткани не менее 5000 мм водяного столба. Ткань экологична и соответствует европейскому стандарту по содержанию вредных веществ EN 71 PART3. Проклеенные швы: все швы костюма загерметизированы специальной лентой. Изготовлен в полном соответствии с техническим регламентом таможенного союза ТР ТС 019/2011 О безопасности средств индивидуальной защиты. Декларация/сертификат предоставляется.";s:4:"dpic";s:14:"/a8b/10238.jpg";s:11:"preview_pic";s:14:"/b42/10238.jpg";s:4:"bxid";s:6:"201890";s:5:"alias";s:43:"plashch-vlagozashchitnyy-extra-vision-limon";s:7:"section";s:5:"11691";s:5:"title";s:0:"";s:11:"description";s:0:"";s:8:"keywords";s:0:"";s:5:"price";s:1:"0";s:9:"old-price";s:1:"0";}i:14;a:20:{s:2:"id";s:4:"1083";s:3:"act";s:1:"N";s:9:"prod_type";s:0:"";s:4:"name";s:48:"Плащ влагозащитный Membrane WPL";s:3:"art";s:9:"Пла906";s:4:"sort";s:3:"100";s:6:"search";s:1010:"ПЛАЩ ВЛАГОЗАЩИТНЫЙ MEMBRANE WPL

ОПИСАНИЕ ИЗДЕЛИЯ: ЛЕГКИЙ И ПРОЧНЫЙ МЕМБРАННЫЙ ПЛАЩ С ВОДОСТОЙКОЙ ЗАСТЕЖКОЙ ОСОБЕННОСТИ: РЕГУЛИРУЕМЫЙ КАПЮШОН ВЕНТИЛЯЦИОННЫЕ ОТВЕРСТИЯ ПОД РУКАВАМИ ВЕНТИЛЯЦИОННЫЕ ОТВЕРСТИЯ НА СПИНЕ ЦЕНТРАЛЬНАЯ ДВУХХОДОВАЯ МОЛНИЯ DRY ZIPP ДВА ВРЕЗНЫХ КАРМАНА НА МОЛНИЯХ DRY ZIPP ОПИСАНИЕ ТКАНИ: СПЕЦИАЛЬНАЯ ПРОЧНАЯ МЕМБРАННАЯ ПЛАЩЕВАЯ ТКАНЬ MEMBRANE- WPL: ВОДОУПОРНОСТЬ ПО ISO811:1981: БОЛЕЕ 5000 ММ. ВОДЯНОГО СТОЛБА ПАРОПРОНИЦАЕМОСТЬ ПО ASTM E96:1995: БОЛЕЕ 6000 ГРАММ / КВ.М. / 24 ЧАСА ПАРОПРОНИЦАЕМОСТЬ ПО ГОСТ 22900-78: 3,21 МГ/КВ.СМ./ЧАС ЦВЕТ: ТЕМНО-СТАЛЬНОЙ (ТЕМНО-СЕРЫЙ) .";s:6:"parent";s:2:"40";s:4:"durl";s:84:"zashchitnaya-odezhda/vlagozashchitnaya-odezhda/plashch-vlagozashchitnyy-membrane-wpl";s:4:"dtxt";s:966:"Описание изделия: Легкий и прочный мембранный плащ с водостойкой застежкой Особенности: регулируемый капюшон вентиляционные отверстия под рукавами вентиляционные отверстия на спине центральная двухходовая молния DRY ZIPP два врезных кармана на молниях DRY ZIPP Описание ткани: Специальная прочная мембранная плащевая ткань Membrane- WPL: водоупорность по ISO811:1981: более 5000 мм. водяного столба паропроницаемость по ASTM E96:1995: более 6000 грамм / кв.м. / 24 часа паропроницаемость по ГОСТ 22900-78: 3,21 мг/кв.см./час цвет: темно-стальной &#40;темно-серый&#41; .";s:4:"dpic";s:14:"/f6c/16395.jpg";s:11:"preview_pic";s:14:"/2f9/16395.jpg";s:4:"bxid";s:6:"201909";s:5:"alias";s:37:"plashch-vlagozashchitnyy-membrane-wpl";s:7:"section";s:5:"11691";s:5:"title";s:0:"";s:11:"description";s:0:"";s:8:"keywords";s:0:"";s:5:"price";s:1:"0";s:9:"old-price";s:1:"0";}i:15;a:20:{s:2:"id";s:4:"1084";s:3:"act";s:1:"N";s:9:"prod_type";s:0:"";s:4:"name";s:59:"Плащ-пончо влагозащитный Membrane WPL";s:3:"art";s:9:"Пла907";s:4:"sort";s:3:"100";s:6:"search";s:1104:"ПЛАЩ-ПОНЧО ВЛАГОЗАЩИТНЫЙ MEMBRANE WPL
ОПИСАНИЕ ИЗДЕЛИЯ: УЛЬТРАКОМПАКТНЫЙ МНОГОФУНКЦИОНАЛЬНЫЙ ПЛАЩ-ПОНЧО «MEMBRANE WPL» ОСОБЕННОСТИ: ОСОБЕННОСТИ РЕГУЛИРУЕМЫЙ КАПЮШОН ПРОКЛЕЕННЫЕ ШВЫ ЛЮВЕРСЫ И КНОПКИ ПО ПЕРИМЕТРУ ПЛАЩА ПОЗВОЛЯЮТ ИСПОЛЬЗОВАТЬ ЕГО В КАЧЕСТВЕ ТЕНТА РАЗМЕРОМ 1470ММ * 2200ММ КОМПЛЕКТУЕТСЯ СУМКОЙ ДЛЯ УДОБНОЙ ТРАНСПОРТИРОВКИ И ХРАНЕНИЯ ОПИСАНИЕ ТКАНИ: СПЕЦИАЛЬНАЯ ПРОЧНАЯ МЕМБРАННАЯ ПЛАЩЕВАЯ ТКАНЬ MEMBRANE- WPL: ВОДОУПОРНОСТЬ ПО ISO811:1981: БОЛЕЕ 5000 ММ. ВОДЯНОГО СТОЛБА ПАРОПРОНИЦАЕМОСТЬ ПО ASTM E96:1995: БОЛЕЕ 6000 ГРАММ / КВ.М. / 24 ЧАСА ПАРОПРОНИЦАЕМОСТЬ ПО ГОСТ 22900-78 : 3,21 МГ/КВ.СМ./ЧАС ЦВЕТ: ТЕМНО-СТАЛЬНОЙ (ТЕМНО-СЕРЫЙ) .";s:6:"parent";s:2:"40";s:4:"durl";s:91:"zashchitnaya-odezhda/vlagozashchitnaya-odezhda/plashch-poncho-vlagozashchitnyy-membrane-wpl";s:4:"dtxt";s:1051:"Описание изделия: Ультракомпактный многофункциональный плащ-пончо «MEMBRANE WPL» Особенности: Особенности регулируемый капюшон проклеенные швы люверсы и кнопки по периметру плаща позволяют использовать его в качестве тента размером 1470мм * 2200мм комплектуется сумкой для удобной транспортировки и хранения Описание ткани: Специальная прочная мембранная плащевая ткань Membrane- WPL: водоупорность по ISO811:1981: более 5000 мм. водяного столба паропроницаемость по ASTM E96:1995: более 6000 грамм / кв.м. / 24 часа паропроницаемость по ГОСТ 22900-78 : 3,21 мг/кв.см./час цвет: темно-стальной &#40;темно-серый&#41; .";s:4:"dpic";s:14:"/60b/16396.jpg";s:11:"preview_pic";s:14:"/083/16396.jpg";s:4:"bxid";s:6:"201910";s:5:"alias";s:44:"plashch-poncho-vlagozashchitnyy-membrane-wpl";s:7:"section";s:5:"11691";s:5:"title";s:0:"";s:11:"description";s:0:"";s:8:"keywords";s:0:"";s:5:"price";s:1:"0";s:9:"old-price";s:1:"0";}i:16;a:20:{s:2:"id";s:4:"1085";s:3:"act";s:1:"N";s:9:"prod_type";s:0:"";s:4:"name";s:52:"Костюм влагозащитный Membrane WPL";s:3:"art";s:9:"Кос915";s:4:"sort";s:3:"100";s:6:"search";s:998:"КОСТЮМ ВЛАГОЗАЩИТНЫЙ MEMBRANE WPL
ОПИСАНИЕ ИЗДЕЛИЯ: ЛЕГКИЙ И ПРОЧНЫЙ МЕМБРАННЫЙ КОСТЮМ С ВОДОСТОЙКОЙ ЗАСТЕЖКОЙ ОСОБЕННОСТИ: КУРТКА И БРЮКИ РЕГУЛИРУЕМЫЙ КАПЮШОН ВЕНТИЛЯЦИОННЫЕ ОТВЕРСТИЯ ПОД РУКАВАМИ ВЕНТИЛЯЦИОННЫЕ ОТВЕРСТИЯ НА СПИНЕ ЦЕНТРАЛЬНАЯ МОЛНИЯ DRY ZIP ДВА КАРМАНА С КЛАПАНАМИ ОПИСАНИЕ ТКАНИ: СПЕЦИАЛЬНАЯ ПРОЧНАЯ МЕМБРАННАЯ ПЛАЩЕВАЯ ТКАНЬ MEMBRANE- WPL: ВОДОУПОРНОСТЬ ПО ISO811:1981: БОЛЕЕ 5000 ММ. ВОДЯНОГО СТОЛБА ПАРОПРОНИЦАЕМОСТЬ ПО ASTM E96:1995: БОЛЕЕ 6000 ГРАММ / КВ.М. / 24 ЧАСА ПАРОПРОНИЦАЕМОСТЬ ПО ГОСТ 22900-78 : 3,21 МГ/КВ.СМ./ЧАС ЦВЕТ: ТЕМНО-СТАЛЬНОЙ (ТЕМНО-СЕРЫЙ) .";s:6:"parent";s:2:"40";s:4:"durl";s:84:"zashchitnaya-odezhda/vlagozashchitnaya-odezhda/kostyum-vlagozashchitnyy-membrane-wpl";s:4:"dtxt";s:952:"Описание изделия: Легкий и прочный мембранный костюм с водостойкой застежкой Особенности: куртка и брюки регулируемый капюшон вентиляционные отверстия под рукавами вентиляционные отверстия на спине центральная молния DRY ZIP два кармана с клапанами Описание ткани: Специальная прочная мембранная плащевая ткань Membrane- WPL: водоупорность по ISO811:1981: более 5000 мм. водяного столба паропроницаемость по ASTM E96:1995: более 6000 грамм / кв.м. / 24 часа паропроницаемость по ГОСТ 22900-78 : 3,21 мг/кв.см./час цвет: темно-стальной &#40;темно-серый&#41; .";s:4:"dpic";s:14:"/4ec/16397.jpg";s:11:"preview_pic";s:14:"/02a/16397.jpg";s:4:"bxid";s:6:"201911";s:5:"alias";s:37:"kostyum-vlagozashchitnyy-membrane-wpl";s:7:"section";s:5:"11691";s:5:"title";s:0:"";s:11:"description";s:0:"";s:8:"keywords";s:0:"";s:5:"price";s:1:"0";s:9:"old-price";s:1:"0";}i:17;a:20:{s:2:"id";s:4:"1086";s:3:"act";s:1:"N";s:9:"prod_type";s:0:"";s:4:"name";s:46:"Плащ влагозащитный Hunter WPL";s:3:"art";s:9:"Пла900";s:4:"sort";s:3:"100";s:6:"search";s:1201:"ПЛАЩ ВЛАГОЗАЩИТНЫЙ HUNTER WPL

УДОБНАЯ КОНСТРУКЦИЯ: ПЛАЩ С ЗАСТЕЖКОЙ НА МОЛНИИ, КЛАПАНОМ ПРОТИВ ВЕТРА, КАПЮШОНОМ, ДВУМЯ КАРМАНАМИ С КЛАПАНАМИ, МАНЖЕТАМИ НА РУКАВАХ. ТКАНЬ: ПЛАЩ ИЗГОТОВЛЕН ИЗ ПРОЧНОЙ ПЛАЩЕВОЙ ТКАНИ С ПВХ ПОКРЫТИЕМ. ВЕС ТКАНИ — 225 ГР./МЕТР.КВ. ВОДОУПОРНОСТЬ ТКАНИ НЕ МЕНЕЕ 5000 ММ ВОДЯНОГО СТОЛБА. ТКАНЬ ЭКОЛОГИЧНА И СООТВЕТСТВУЕТ ЕВРОПЕЙСКИМ СТАНДАРТАМ ПО СОДЕРЖАНИЮ ВРЕДНЫХ ВЕЩЕСТВ EN 71 PART3. ПРОКЛЕЕННЫЕ ШВЫ: ВСЕ ШВЫ ПЛАЩА ЗАГЕРМЕТИЗИРОВАНЫ СПЕЦИАЛЬНОЙ ЛЕНТОЙ. ПЛАЩ ВЫПУСКАЕТСЯ В ЗЕЛЕНОМ КАМУФЛИРОВАННОМ ЦВЕТЕ. ИЗГОТОВЛЕН В ПОЛНОМ СООТВЕТСТВИИ С ТЕХНИЧЕСКИМ РЕГЛАМЕНТОМ ТАМОЖЕННОГО СОЮЗА ТР ТС 019/2011 О БЕЗОПАСНОСТИ СРЕДСТВ ИНДИВИДУАЛЬНОЙ ЗАЩИТЫ.";s:6:"parent";s:2:"40";s:4:"durl";s:82:"zashchitnaya-odezhda/vlagozashchitnaya-odezhda/plashch-vlagozashchitnyy-hunter-wpl";s:4:"dtxt";s:1151:"Удобная конструкция: плащ с застежкой на молнии, клапаном против ветра, капюшоном, двумя карманами с клапанами, манжетами на рукавах. Ткань: плащ изготовлен из прочной плащевой ткани с ПВХ покрытием. Вес ткани — 225 гр./метр.кв. Водоупорность ткани не менее 5000 мм водяного столба. Ткань экологична и соответствует европейским стандартам по содержанию вредных веществ EN 71 PART3. Проклеенные швы: все швы плаща загерметизированы специальной лентой. Плащ выпускается в зеленом камуфлированном цвете. Изготовлен в полном соответствии с техническим регламентом таможенного союза ТР ТС 019/2011 О безопасности средств индивидуальной защиты.";s:4:"dpic";s:14:"/4a6/16306.jpg";s:11:"preview_pic";s:14:"/f51/16306.jpg";s:4:"bxid";s:6:"202026";s:5:"alias";s:35:"plashch-vlagozashchitnyy-hunter-wpl";s:7:"section";s:5:"11691";s:5:"title";s:0:"";s:11:"description";s:0:"";s:8:"keywords";s:0:"";s:5:"price";s:1:"0";s:9:"old-price";s:1:"0";}i:18;a:20:{s:2:"id";s:4:"1087";s:3:"act";s:1:"N";s:9:"prod_type";s:0:"";s:4:"name";s:78:"Плащ влагозащитный Exstra -Vision WPL цв.оранжевый";s:3:"art";s:9:"Пла905";s:4:"sort";s:3:"100";s:6:"search";s:1510:"ПЛАЩ ВЛАГОЗАЩИТНЫЙ EXSTRA -VISION WPL ЦВ.ОРАНЖЕВЫЙ

ПЛАЩ ИЗГОТАВЛИВАЕТСЯ ИЗ ТКАНИ ЯРКО-ОРАНЖЕВОГО ЦВЕТА. ИМЕЕТ СВЕТООТРАЖАЮЩИЕ ПОЛОСЫ. СООТВЕТСТВУЕТ 3-МУ КЛАССУ ПО ГОСТ Р 12.4.219-99 «ОДЕЖДА СПЕЦИАЛЬНАЯ СИГНАЛЬНАЯ ПОВЫШЕННОЙ ВИДИМОСТИ». УДОБНАЯ КОНСТРУКЦИЯ: ПЛАЩ С ЗАСТЕЖКОЙ НА МОЛНИИ, КЛАПАНОМ ПРОТИВ ВЕТРА, КАПЮШОНОМ, ДВУМЯ КАРМАНАМИ С КЛАПАНАМИ. ТКАНЬ: ПЛАЩ ИЗГОТОВЛЕН ИЗ ПРОЧНОЙ ПЛАЩЕВОЙ ТКАНИ С ПВХ ПОКРЫТИЕМ. ВЕС ТКАНИ — 225 ГР./МЕТР.КВ. ВОДОУПОРНОСТЬ ТКАНИ НЕ МЕНЕЕ 5000 ММ ВОДЯНОГО СТОЛБА. ТКАНЬ ЭКОЛОГИЧНА И СООТВЕТСТВУЕТ ЕВРОПЕЙСКОМУ СТАНДАРТУ ПО СОДЕРЖАНИЮ ВРЕДНЫХ ВЕЩЕСТВ EN 71 PART3. ПРОКЛЕЕННЫЕ ШВЫ: ВСЕ ШВЫ КОСТЮМА ЗАГЕРМЕТИЗИРОВАНЫ СПЕЦИАЛЬНОЙ ЛЕНТОЙ. ИЗГОТОВЛЕН В ПОЛНОМ СООТВЕТСТВИИ С ТЕХНИЧЕСКИМ РЕГЛАМЕНТОМ ТАМОЖЕННОГО СОЮЗА ТР ТС 019/2011 О БЕЗОПАСНОСТИ СРЕДСТВ ИНДИВИДУАЛЬНОЙ ЗАЩИТЫ. ДЕКЛАРАЦИЯ/СЕРТИФИКАТ ПРЕДОСТАВЛЯЕТСЯ.";s:6:"parent";s:2:"40";s:4:"durl";s:104:"zashchitnaya-odezhda/vlagozashchitnaya-odezhda/plashch-vlagozashchitnyy-exstra-vision-wpl-tsv-oranzhevyy";s:4:"dtxt";s:1428:"Плащ изготавливается из ткани ярко-оранжевого цвета. Имеет светоотражающие полосы. Соответствует 3-му классу по ГОСТ Р 12.4.219-99 «Одежда специальная сигнальная повышенной видимости». Удобная конструкция: плащ с застежкой на молнии, клапаном против ветра, капюшоном, двумя карманами с клапанами. Ткань: плащ изготовлен из прочной плащевой ткани с ПВХ покрытием. Вес ткани — 225 гр./метр.кв. Водоупорность ткани не менее 5000 мм водяного столба. Ткань экологична и соответствует европейскому стандарту по содержанию вредных веществ EN 71 PART3. Проклеенные швы: все швы костюма загерметизированы специальной лентой. Изготовлен в полном соответствии с техническим регламентом таможенного союза ТР ТС 019/2011 О безопасности средств индивидуальной защиты. Декларация/сертификат предоставляется.";s:4:"dpic";s:14:"/665/16311.jpg";s:11:"preview_pic";s:14:"/fd4/16311.jpg";s:4:"bxid";s:6:"202154";s:5:"alias";s:57:"plashch-vlagozashchitnyy-exstra-vision-wpl-tsv-oranzhevyy";s:7:"section";s:5:"11691";s:5:"title";s:0:"";s:11:"description";s:0:"";s:8:"keywords";s:0:"";s:5:"price";s:1:"0";s:9:"old-price";s:1:"0";}i:19;a:20:{s:2:"id";s:4:"1088";s:3:"act";s:1:"N";s:9:"prod_type";s:0:"";s:4:"name";s:60:"Плащ влагозащитный Еxtra vision оранж";s:3:"art";s:9:"Пла905";s:4:"sort";s:3:"100";s:6:"search";s:64:"ПЛАЩ ВЛАГОЗАЩИТНЫЙ ЕXTRA VISION ОРАНЖ

";s:6:"parent";s:2:"40";s:4:"durl";s:91:"zashchitnaya-odezhda/vlagozashchitnaya-odezhda/plashch-vlagozashchitnyy-extra-vision-oranzh";s:4:"dtxt";s:0:"";s:4:"dpic";s:14:"/510/15467.jpg";s:11:"preview_pic";s:14:"/aef/15467.jpg";s:4:"bxid";s:6:"202157";s:5:"alias";s:44:"plashch-vlagozashchitnyy-extra-vision-oranzh";s:7:"section";s:5:"11691";s:5:"title";s:0:"";s:11:"description";s:0:"";s:8:"keywords";s:0:"";s:5:"price";s:1:"0";s:9:"old-price";s:1:"0";}i:20;a:20:{s:2:"id";s:4:"1089";s:3:"act";s:1:"N";s:9:"prod_type";s:0:"";s:4:"name";s:49:"Костюм влагозащитный Miner WPL";s:3:"art";s:9:"Кос918";s:4:"sort";s:3:"100";s:6:"search";s:1229:"КОСТЮМ ВЛАГОЗАЩИТНЫЙ MINER WPL

УДОБНАЯ КОНСТРУКЦИЯ. ТКАНЬ: КОСТЮМ ИЗГОТОВЛЕН ИЗ СПЕЦИАЛЬНОЙ ПРОЧНОЙ ТКАНИ С ПВХ ПОКРЫТИЕМ, ВЕС ТКАНИ 500 ГР. / КВ. М. ВОДОУПОРНОСТЬ — НЕ МЕНЕЕ 10.000 ММ. ВОД. СТОЛБА. ПОВЫШЕННЫЕ ПРОЧНОСТНЫЕ ХАРАКТЕРИСТИКИ. ОЧЕНЬ ВЫСОКИЕ ПОКАЗАТЕЛИ ИЗНОСОСТОЙКОСТИ. ЦВЕТ: ЗЕЛЕНЫЙ. ТКАНЬ ЭКОЛОГИЧНА И СООТВЕТСТВУЕТ ЕВРОПЕЙСКОМУ СТАНДАРТУ EN 71 PART3 КОСТЮМ СНАБЖЕН СВЕТООТРАЖАЮЩИМИ ЭЛЕМЕНТАМИ. ВСЕ ШВЫ КОСТЮМА НАДЕЖНО ЗАГЕРМЕТИЗИРОВАНЫ СПЕЦИАЛЬНОЙ ЛЕНТОЙ. ИЗГОТОВЛЕН В ПОЛНОМ СООТВЕТСТВИИ С ТЕХНИЧЕСКИМ РЕГЛАМЕНТОМ ТАМОЖЕННОГО СОЮЗА ТР ТС 019/2011 О БЕЗОПАСНОСТИ СРЕДСТВ ИНДИВИДУАЛЬНОЙ ЗАЩИТЫ. ДЕКЛАРАЦИЯ/СЕРТИФИКАТ ПРЕДОСТАВЛЯЕТСЯ. МОЖЕТ ИЗГОТАВЛИВАТЬСЯ С КАПЮШОНОМ .";s:6:"parent";s:2:"40";s:4:"durl";s:81:"zashchitnaya-odezhda/vlagozashchitnaya-odezhda/kostyum-vlagozashchitnyy-miner-wpl";s:4:"dtxt";s:1176:"Удобная конструкция. Ткань: костюм изготовлен из специальной прочной ткани с ПВХ покрытием, вес ткани 500 гр. / кв. м. Водоупорность — не менее 10.000 мм. вод. столба. Повышенные прочностные характеристики. Очень высокие показатели износостойкости. Цвет: зеленый. Ткань экологична и соответствует Европейскому стандарту EN 71 PART3 Костюм снабжен светоотражающими элементами. Все швы костюма надежно загерметизированы специальной лентой. Изготовлен в полном соответствии с техническим регламентом таможенного союза ТР ТС 019/2011 О безопасности средств индивидуальной защиты. Декларация/сертификат предоставляется. Может изготавливаться с капюшоном .";s:4:"dpic";s:14:"/de3/16651.jpg";s:11:"preview_pic";s:14:"/eb4/16651.jpg";s:4:"bxid";s:6:"202163";s:5:"alias";s:34:"kostyum-vlagozashchitnyy-miner-wpl";s:7:"section";s:5:"11691";s:5:"title";s:0:"";s:11:"description";s:0:"";s:8:"keywords";s:0:"";s:5:"price";s:1:"0";s:9:"old-price";s:1:"0";}i:21;a:20:{s:2:"id";s:4:"1090";s:3:"act";s:1:"Y";s:9:"prod_type";s:0:"";s:4:"name";s:58:"Фартук-передник голубой 8mil 127 см";s:3:"art";s:9:"Фар071";s:4:"sort";s:3:"100";s:6:"search";s:714:"ФАРТУК-ПЕРЕДНИК ГОЛУБОЙ 8MIL 127 СМ

ПЕРЕДНИК ИЗ ПОЛИУРЕТАНА. ОТКРЫТАЯ СПИНА ПОЗВОЛЯЕТ ИСПОЛЬЗОВАТЬ ПЕРЕДНИК В ТОМ ЧИСЛЕ И ПРИ ВЫСОКИХ ТЕМПЕРАТУРАХ НА ПРОИЗВОДСТВЕ. ВЫПУСКАЕТСЯ В ТРЕХ МОДИФИКАЦИЯХ: - ПЕРЕДНИК ЦЕЛЬНОКРОЙНЫЙ РАЗМЕРЫ: 92СМ Х 114СМ ИЛИ 92СМ Х 127СМ - ПЕРЕДНИК С ЗАВЯЗКАМИ РАЗМЕРЫ: 92СМ Х 122СМ - ПЕРЕДНИК С ПРЯЖКОЙ (РЕГУЛИРУЕМАЯ ШЕЙНАЯ ЛЯМКА) РАЗМЕРЫ: 92 СМ Х 122 СМ ПРОИЗВОДИТЕЛЬ: TOP DOG (КАНАДА)";s:6:"parent";s:2:"40";s:4:"durl";s:82:"zashchitnaya-odezhda/vlagozashchitnaya-odezhda/fartuk-perednik-goluboy-8mil-127-sm";s:4:"dtxt";s:668:"Передник из полиуретана. Открытая спина позволяет использовать передник в том числе и при высоких температурах на производстве. Выпускается в трех модификациях: - Передник цельнокройный Размеры: 92см х 114см или 92см х 127см - Передник с завязками Размеры: 92см х 122см - Передник с пряжкой &#40;регулируемая шейная лямка&#41; РАЗМЕРЫ: 92 см х 122 см ПРОИЗВОДИТЕЛЬ: Top Dog &#40;Канада&#41;";s:4:"dpic";s:14:"/918/16685.jpg";s:11:"preview_pic";s:14:"/548/16685.jpg";s:4:"bxid";s:6:"202209";s:5:"alias";s:35:"fartuk-perednik-goluboy-8mil-127-sm";s:7:"section";s:5:"11691";s:5:"title";s:0:"";s:11:"description";s:0:"";s:8:"keywords";s:0:"";s:5:"price";s:1:"0";s:9:"old-price";s:1:"0";}i:22;a:20:{s:2:"id";s:4:"1091";s:3:"act";s:1:"N";s:9:"prod_type";s:0:"";s:4:"name";s:48:"Полукомбинезон голубой р.L";s:3:"art";s:9:"Пол013";s:4:"sort";s:3:"100";s:6:"search";s:857:"ПОЛУКОМБИНЕЗОН ГОЛУБОЙ Р.L

КОМБИНЕЗОНЫ ИЗ ПОЛИУРЕТАНА - ЗАЩИТНЫЕ БРЮКИ С НАГРУДНИКОМ И РЕГУЛИРУЕМЫМИ ЛЯМКАМИ СОЧЕТАЮТ В СЕБЕ ВЫСОКУЮ СТЕПЕНЬ ЗАЩИТЫ С УДОБСТВОМ И ЭСТЕТИЧНЫМ ВНЕШНИМ ВИДОМ ОБЫЧНОЙ ОДЕЖДЫ. БЛАГОДАРЯ УНИКАЛЬНЫМ СВОЙСТВАМ МАТЕРИАЛА, ОБЕСПЕЧИВАЮТ СВЕРХДОЛГИЙ СРОК СЛУЖБЫ И ВЫСОЧАЙШУЮ СТЕПЕНЬ ЗАЩИТЫ. ЕСТЬ ВОЗМОЖНОСТЬ ИСПОЛНЕНИЯ С ЛЮМИНЕСЦЕНТНЫМИ ПОЛОСАМИ. ТОЛЩИНА МАТЕРИАЛА: 0,2 ММ РАЗМЕРЫ: S (SMALL) M (MEDIUM) L (LARGE) XL (EXTRA LARGE) XXL (XX-LARGE) ПРОИЗВОДИТЕЛЬ: TOP DOG (КАНАДА)";s:6:"parent";s:2:"40";s:4:"durl";s:73:"zashchitnaya-odezhda/vlagozashchitnaya-odezhda/polukombinezon-goluboy-r-l";s:4:"dtxt";s:853:"Комбинезоны из полиуретана - защитные брюки с нагрудником и регулируемыми лямками сочетают в себе высокую степень защиты с удобством и эстетичным внешним видом обычной одежды. Благодаря уникальным свойствам материала, обеспечивают сверхдолгий срок службы и высочайшую степень защиты. Есть возможность исполнения с люминесцентными полосами. ТОЛЩИНА МАТЕРИАЛА: 0,2 мм РАЗМЕРЫ: S &#40;small&#41; M &#40;medium&#41; L &#40;large&#41; XL &#40;extra large&#41; XXL &#40;XX-large&#41; ПРОИЗВОДИТЕЛЬ: Top Dog &#40;Канада&#41;";s:4:"dpic";s:14:"/f4a/16686.jpg";s:11:"preview_pic";s:14:"/1e4/16686.jpg";s:4:"bxid";s:6:"202210";s:5:"alias";s:26:"polukombinezon-goluboy-r-l";s:7:"section";s:5:"11691";s:5:"title";s:0:"";s:11:"description";s:0:"";s:8:"keywords";s:0:"";s:5:"price";s:1:"0";s:9:"old-price";s:1:"0";}}}}s:8:"end_time";i:1565659060;}