a:2:{s:4:"data";a:8:{s:2:"id";s:2:"39";s:5:"title";s:0:"";s:4:"prop";s:0:"";s:4:"name";s:27:"zashchita-organov-dykhaniya";s:5:"alias";s:42:"защита органов дыхания";s:6:"parent";s:1:"3";s:7:"parents";a:1:{i:0;a:6:{s:2:"id";s:1:"3";s:5:"title";s:0:"";s:4:"prop";s:0:"";s:4:"name";s:32:"sredstva-individualnoy-zashchity";s:5:"alias";s:56:"средства индивидуалноы защиты";s:6:"parent";s:1:"0";}}s:8:"children";a:2:{s:10:"categories";a:0:{}s:8:"products";a:71:{i:0;a:14:{s:2:"id";s:3:"998";s:3:"act";s:1:"Y";s:9:"prod_type";s:0:"";s:4:"name";s:58:"Держатель предфильтра 3М 501 (уп.2)";s:3:"art";s:9:"Рес025";s:6:"search";s:324:"ДЕРЖАТЕЛЬ ПРЕДФИЛЬТРА 3М 501 (УП.2)

ДЕРЖАТЕЛЬ ПРЕДФИЛЬТРОВ СЕРИИ 5000. ПРИМЕНЕНИЕ ПРЕДФИЛЬТРОВ С ПРОТИВОГАЗОВЫМИ ФИЛЬТРАМИ ПРОДЛЯЕТ СРОК СЛУЖБЫ ПРОТИВОГАЗОВЫХ ФИЛЬТРОВ ДО 10 РАЗ. .";s:6:"parent";s:2:"39";s:4:"durl";s:93:"sredstva-individualnoy-zashchity/zashchita-organov-dykhaniya/derzhatel-predfiltra-3m-501-up-2";s:4:"dtxt";s:262:"Держатель предфильтров серии 5000. Применение предфильтров с противогазовыми фильтрами продляет срок службы противогазовых фильтров до 10 раз. .";s:4:"dpic";s:27:"/upload/iblock/409/3637.jpg";s:11:"preview_pic";s:27:"/upload/iblock/769/3637.jpg";s:4:"bxid";s:6:"200346";s:5:"alias";s:0:"";s:7:"section";s:5:"11690";}i:1;a:14:{s:2:"id";s:3:"999";s:3:"act";s:1:"N";s:9:"prod_type";s:0:"";s:4:"name";s:64:"Коробка к ПГ7 металл фильтр В2К2 бм/г";s:3:"art";s:9:"Про025";s:6:"search";s:656:"КОРОБКА К ПГ7 МЕТАЛЛ ФИЛЬТР В2К2 БМ/Г

ПРОТИВОГАЗОВЫЙ ФИЛЬТР В2К2 ПРЕДНАЗНАЧЕН ДЛЯ ОЧИСТКИ ЗАГРЯЗНЁННОГО ВОЗДУХА ОТ: - ГАЗОВ И ПАРОВ НЕОРГАНИЧЕСКИХ ВЕЩЕСТВ; - АММИАКА И АМИНОВ. КОРПУС ФИЛЬТРА ИЗГОТОВЛЕН ИЗ СПЕЦИАЛЬНОЙ ПЛАСТМАССЫ И СНАРЯЖЁН ПОГЛОЩАЮЩИМ СЛОЕМ (ШИХТОЙ) ИЗ СОРБЕНТА. ФИЛЬТРИСПОЛЬЗУЕТСЯ В СОСТАВЕ ФИЛЬТРУЮЩЕГО ПРОТИВОГАЗА (С ПОЛНОЛИЦЕВОЙ МАСКОЙ). .";s:6:"parent";s:2:"39";s:4:"durl";s:97:"sredstva-individualnoy-zashchity/zashchita-organov-dykhaniya/korobka-k-pg7-metall-filtr-v2k2-bm-g";s:4:"dtxt";s:604:"Противогазовый фильтр В2К2 предназначен для очистки загрязнённого воздуха от: - газов и паров неорганических веществ; - аммиака и аминов. Корпус фильтра изготовлен из специальной пластмассы и снаряжён поглощающим слоем &#40;шихтой&#41; из сорбента. Фильтриспользуется в составе фильтрующего противогаза &#40;с полнолицевой маской&#41;. .";s:4:"dpic";s:27:"/upload/iblock/c52/7139.jpg";s:11:"preview_pic";s:27:"/upload/iblock/805/7139.jpg";s:4:"bxid";s:6:"200461";s:5:"alias";s:0:"";s:7:"section";s:5:"11690";}i:2;a:14:{s:2:"id";s:4:"1000";s:3:"act";s:1:"N";s:9:"prod_type";s:0:"";s:4:"name";s:68:"Коробка к ПГ7 металл фильтр ФГ-5Б В3 б/г";s:3:"art";s:9:"Про022";s:6:"search";s:742:"КОРОБКА К ПГ7 МЕТАЛЛ ФИЛЬТР ФГ-5Б В3 Б/Г

ПРОТИВОГАЗОВЫЙ ФИЛЬТР ФГ-5Б БОЛЬШОГО ГАБАРИТА ПРЕДНАЗНАЧЕН ДЛЯ ОЧИСТКИ ВДЫХАЕМОГО ЧЕЛОВЕКОМ ВОЗДУХА ОТ ПАРО- И ГАЗООБРАЗНЫХ ВРЕДНЫХ ВЕЩЕСТВ. ФИЛЬТР ФГ-5Б МАРКИ В3 ИСПОЛЬЗУЕТСЯ В СОСТАВЕ ФИЛЬТРУЮЩЕГО ПРОТИВОГАЗА ППФ-5Б, ЗАЩИЩАЕТ ОТ НЕСКОЛЬКИХ ВИДОВ ВРЕДНЫХ ВЕЩЕСТВ РАЗЛИЧНЫХ ПО КОНЦЕНТРАЦИИ И СОСТАВАМ: - НЕОРГАНИЧЕСКИХ ГАЗОВ И ПАРОВ ЗА ИСКЛЮЧЕНИЕМ ОКСИДА УГЛЕРОДА .";s:6:"parent";s:2:"39";s:4:"durl";s:100:"sredstva-individualnoy-zashchity/zashchita-organov-dykhaniya/korobka-k-pg7-metall-filtr-fg-5b-v3-b-g";s:4:"dtxt";s:670:"Противогазовый фильтр ФГ-5Б большого габарита предназначен для очистки вдыхаемого человеком воздуха от паро- и газообразных вредных веществ. Фильтр ФГ-5Б марки В3 используется в составе фильтрующего противогаза ППФ-5Б, защищает от нескольких видов вредных веществ различных по концентрации и составам: - неорганических газов и паров за исключением оксида углерода .";s:4:"dpic";s:27:"/upload/iblock/71d/7138.jpg";s:11:"preview_pic";s:27:"/upload/iblock/473/7138.jpg";s:4:"bxid";s:6:"200462";s:5:"alias";s:0:"";s:7:"section";s:5:"11690";}i:3;a:14:{s:2:"id";s:4:"1001";s:3:"act";s:1:"N";s:9:"prod_type";s:0:"";s:4:"name";s:75:"Коробка к ПГ7 пластик фильтр А1Р1 бм/г Бриз";s:3:"art";s:9:"Про037";s:6:"search";s:1567:"КОРОБКА К ПГ7 ПЛАСТИК ФИЛЬТР А1Р1 БМ/Г БРИЗ

КОМБИНИРОВАННЫЙ ФИЛЬТР БРИЗ-3001 А1Р1 ПРЕДНАЗНАЧЕН ДЛЯ ОЧИСТКИ ЗАГРЯЗНЁННОГО ВОЗДУХА ОТ АЭРОЗОЛЬНЫХ ЧАСТИЦ МАЛОТОКСИЧНЫХ ВЕЩЕСТВ, СОДЕРЖАЩИХСЯ В ПЫЛИ, ДЫМЕ ИЛИ ТУМАНЕ, А ТАКЖЕ ОТ ПАРОВ ОРГАНИЧЕСКИХ ВЕЩЕСТВ С ТЕМПЕРАТУРОЙ КИПЕНИЯ ВЫШЕ +65°С (НАПРИМЕР, БЕНЗОЛ, КСИЛОЛ, ТОЛУОЛ, БЕНЗИН, КЕРОСИН, ГАЛОИДОРГАНИЧЕСКИЕ СОЕДИНЕНИЯ, НИТРОСОЕДИНЕНИЯ БЕНЗОЛА И ЕГО ГОМОЛОГОВ, ЭФИРЫ, СПИРТЫ, КЕТОНЫ, АНИЛИН, ТЕТРАЭТИЛСВИНЕЦ, ФОСФОР- И ХЛОРОРГАНИЧЕСКИЕ ЯДОХИМИКАТЫ). КОРПУС ФИЛЬТРА ИЗГОТОВЛЕН ИЗ СПЕЦИАЛЬНОЙ ПЛАСТМАССЫ И СНАРЯЖЁН ПРОТИВОАЭРОЗОЛЬНЫМ ФИЛЬТРОМ ИЗ ФИЛЬТРУЮЩЕГО МАТЕРИАЛА И ПОГЛОЩАЮЩИМ СЛОЕМ (ШИХТОЙ) ИЗ СОРБЕНТА КОМБИНИРОВАННЫЙ ФИЛЬТР БРИЗ-3001 А1Р1 ИСПОЛЬЗУЕТСЯ В СОСТАВЕ ФИЛЬТРУЮЩЕГО ПРОТИВОГАЗА (С ПОЛНОЛИЦЕВОЙ МАСКОЙ). ФИЛЬТР A1P1 МОЖЕТ ПОДСОЕДИНЯТЬСЯ НЕПОСРЕДСТВЕННО К МАСКЕ ИЛИ С ПОМОЩЬЮ СОЕДИНИТЕЛЬНОЙ ТРУБКИ.";s:6:"parent";s:2:"39";s:4:"durl";s:103:"sredstva-individualnoy-zashchity/zashchita-organov-dykhaniya/korobka-k-pg7-plastik-filtr-a1r1-bm-g-briz";s:4:"dtxt";s:1516:"Комбинированный фильтр Бриз-3001 А1Р1 предназначен для очистки загрязнённого воздуха от аэрозольных частиц малотоксичных веществ, содержащихся в пыли, дыме или тумане, а также от паров органических веществ с температурой кипения выше &#43;65°С &#40;например, бензол, ксилол, толуол, бензин, керосин, галоидорганические соединения, нитросоединения бензола и его гомологов, эфиры, спирты, кетоны, анилин, тетраэтилсвинец, фосфор- и хлорорганические ядохимикаты&#41;. Корпус фильтра изготовлен из специальной пластмассы и снаряжён противоаэрозольным фильтром из фильтрующего материала и поглощающим слоем &#40;шихтой&#41; из сорбента Комбинированный фильтр Бриз-3001 А1Р1 используется в составе фильтрующего противогаза &#40;с полнолицевой маской&#41;. Фильтр A1P1 может подсоединяться непосредственно к маске или с помощью соединительной трубки.";s:4:"dpic";s:27:"/upload/iblock/ebd/7140.jpg";s:11:"preview_pic";s:27:"/upload/iblock/5e3/7140.jpg";s:4:"bxid";s:6:"200463";s:5:"alias";s:0:"";s:7:"section";s:5:"11690";}i:4;a:14:{s:2:"id";s:4:"1002";s:3:"act";s:1:"N";s:9:"prod_type";s:0:"";s:4:"name";s:32:"Лицевая часть ШМП";s:3:"art";s:9:"Про020";s:6:"search";s:693:"ЛИЦЕВАЯ ЧАСТЬ ШМП
ЛИЦЕВАЯ ЧАСТЬ ШМП ПРЕДНАЗНАЧЕНА ДЛЯ КОМПЛЕКТОВАНИЯ ПРОМЫШЛЕННЫХ ПРОТИВОГАЗОВ И СЛУЖИТ ДЛЯ ЗАЩИТЫ ЛИЦА, ГЛАЗ И ОРГАНОВ ДЫХАНИЯ ОТ ВОЗДЕЙСТВИЯ ВЫСОКОТОКСИЧНЫХ ХИМИЧЕСКИХ ВЕЩЕСТВ, БИОЛОГИЧЕСКИ ПОРАЖАЮЩИХ АГЕНТОВ, РАДИОАКТИВНОЙ ПЫЛИ, ПОДВОДА ОЧИЩЕННОГО И СБРОСА В АТМОСФЕРУ ВЫДЫХАЕМОГО ВОЗДУХА. ОБЕСПЕЧИВАЕТ ВОЗМОЖНОСТЬ НЕПРЕРЫВНОЙ РАБОТЫ В ТЕЧЕНИЕ 6 ЧАСОВ. .";s:6:"parent";s:2:"39";s:4:"durl";s:81:"sredstva-individualnoy-zashchity/zashchita-organov-dykhaniya/litsevaya-chast-shmp";s:4:"dtxt";s:659:"Лицевая часть ШМП предназначена для комплектования промышленных противогазов и служит для защиты лица, глаз и органов дыхания от воздействия высокотоксичных химических веществ, биологически поражающих агентов, радиоактивной пыли, подвода очищенного и сброса в атмосферу выдыхаемого воздуха. Обеспечивает возможность непрерывной работы в течение 6 часов. .";s:4:"dpic";s:27:"/upload/iblock/1cf/5139.jpg";s:11:"preview_pic";s:27:"/upload/iblock/63d/5139.jpg";s:4:"bxid";s:6:"200811";s:5:"alias";s:0:"";s:7:"section";s:5:"11690";}i:5;a:14:{s:2:"id";s:4:"1003";s:3:"act";s:1:"N";s:9:"prod_type";s:0:"";s:4:"name";s:61:"Маска защитная полнолицевая 3М 6000";s:3:"art";s:10:"Мас6000";s:6:"search";s:2872:"МАСКА ЗАЩИТНАЯ ПОЛНОЛИЦЕВАЯ 3М 6000
РЕСПИРАТОР МАСКА 3М 6000 СТАНЕТ ИДЕАЛЬНЫМ РЕШЕНИЕМ, ПРИ ВЫБОРЕ СРЕДСТВ ИНДИВИДУАЛЬНОЙ ЗАЩИТЫ ДЛЯ ТЕХ, КТО ИМЕЕТ ДЕЛО С НЕГАТИВНЫМ ВОЗДЕЙСТВИЕМ ОПАСНЫХ АЭРОЗОЛЕЙ, ГАЗОВ И ПАРОВ, И ЖЕЛАЕТ ОБЕЗОПАСИТЬ НЕ ТОЛЬКО СВОИ ОРГАНЫ ДЫХАНИЯ, НО И ОРГАНЫ ЗРЕНИЯ. ПОЛНОЛИЦЕВОЙ МНОГОРАЗОВЫЙ РЕСПИРАТОР 3М™ 6800 — РАЗМЕРНАЯ МОДЕЛЬ СЕРИИ 6000. ПОЛНОЛИЦЕВАЯ МАСКА 3М 6000 ОСНАЩЕНА ПОЛИКАРБОНАТНОЙ УДАРОПРОЧНОЙ ЛИНЗОЙ, КОТОРАЯ ОБЕСПЕЧИВАЕТ ПАНОРАМНЫЙ, КОМФОРТНЫЙ ОБЗОР ПОЛЬЗОВАТЕЛЮ. ЛИНЗА УСТОЙЧИВА К ЦАРАПИНАМ И НЕ ИСКАЖАЕТ ВИДИМОСТЬ, ПОЗВОЛЯЯ ПОЛНОСТЬЮ ОРИЕНТИРОВАТЬСЯ В ПРОСТРАНСТВЕ. САМА МАСКА ПРОИЗВЕДЕНА ИЗ ТЕРМОПЛАСТИКА, МЯГКАЯ ЧАСТЬ ВЫПОЛНЕНА ИЗ ГИПОАЛЛЕРГЕННОГО ЭЛАСТОМЕРА, РЕСПИРАТОР ОСНАЩЕН СПЕЦИАЛЬНЫМИ КЛАПАНАМИ ВДОХА И ВЫДОХА. ЭРГОНОМИЧНАЯ СИСТЕМА КРЕПЛЕНИЯ МАСКИ, СОСТОЯЩАЯ ИЗ ЧЕТЫРЕХ РЕГУЛИРУЕМЫХ РЕМНЕЙ И ОГОЛОВЬЯ, ХОРОШО СБАЛАНСИРОВАНА, УМЕНЬШАЕТ ДАВЛЕНИЕ НА ГОЛОВУ И ШЕЮ, ОБЕСПЕЧИВАЕТ ПЛОТНОЕ ПРИЛЕГАНИЕ. КОНСТРУКЦИЯ РЕСПИРАТОРОВ 3М 6000 И 3М 6800 ПРЕДПОЛАГАЕТ БАЙОНЕТНОЕ КРЕПЛЕНИЕ ФИЛЬТРОВ. СМЕННЫЕ ПАТРОНЫ И ПРЕДФИЛЬТРЫ ПОСТАВЛЯЮТСЯ ОТДЕЛЬНО. БОЛЬШОЙ СПЕКТР ФИЛЬТРОВ ОБЕСПЕЧИВАЕТ ВОЗМОЖНОСТЬ ВЫБРАТЬ НЕОБХОДИМУЮ СТЕПЕНЬ ЗАЩИТЫ. МАСКА ВЕСИТ 400 Г, ПРОСТА В ИСПОЛЬЗОВАНИИ И ИМЕЕТ НИЗКУЮ СОПРОТИВЛЯЕМОСТЬ ДЫХАНИЮ. БЛАГОДАРЯ ЗАПАТЕНТОВАННОЙ КОНСТРУКЦИИ КЛАПАНА ВЫДОХА COOL FLOW, ПРОИЗВОДИТСЯ ОТВОД ВЛАГИ И ТЕПЛА. РЕСПИРАТОР МАСКА 3М 6000, КАК И 3М 6800, НЕ ЗАТРУДНЯЕТ РЕЧЬ, ПОЗВОЛЯЯ ПОЛЬЗОВАТЕЛЮ ПО МЕРЕ НЕОБХОДИМОСТИ ОБЩАТЬСЯ С КОЛЛЕГАМИ. ПОЛУМАСКА 3М СЕРИИ 6000 ОЧЕНЬ ЭКОНОМИЧНА И ЭФФЕКТИВНА, ИМЕЕТ ДЛИТЕЛЬНЫЙ СРОК СЛУЖБЫ, НЕ ТРЕБУЕТ ОСОБОГО УХОДА.";s:6:"parent";s:2:"39";s:4:"durl";s:102:"sredstva-individualnoy-zashchity/zashchita-organov-dykhaniya/maska-zashchitnaya-polnolitsevaya-3m-6000";s:4:"dtxt";s:2809:"Респиратор маска 3М 6000 станет идеальным решением, при выборе средств индивидуальной защиты для тех, кто имеет дело с негативным воздействием опасных аэрозолей, газов и паров, и желает обезопасить не только свои органы дыхания, но и органы зрения. Полнолицевой многоразовый респиратор 3М™ 6800 — размерная модель серии 6000. Полнолицевая маска 3М 6000 оснащена поликарбонатной ударопрочной линзой, которая обеспечивает панорамный, комфортный обзор пользователю. Линза устойчива к царапинам и не искажает видимость, позволяя полностью ориентироваться в пространстве. Сама маска произведена из термопластика, мягкая часть выполнена из гипоаллергенного эластомера, респиратор оснащен специальными клапанами вдоха и выдоха. Эргономичная система крепления маски, состоящая из четырех регулируемых ремней и оголовья, хорошо сбалансирована, уменьшает давление на голову и шею, обеспечивает плотное прилегание. Конструкция респираторов 3М 6000 и 3М 6800 предполагает байонетное крепление фильтров. Сменные патроны и предфильтры поставляются отдельно. Большой спектр фильтров обеспечивает возможность выбрать необходимую степень защиты. Маска весит 400 г, проста в использовании и имеет низкую сопротивляемость дыханию. Благодаря запатентованной конструкции клапана выдоха Cool Flow, производится отвод влаги и тепла. Респиратор маска 3М 6000, как и 3М 6800, не затрудняет речь, позволяя пользователю по мере необходимости общаться с коллегами. Полумаска 3М серии 6000 очень экономична и эффективна, имеет длительный срок службы, не требует особого ухода.";s:4:"dpic";s:27:"/upload/iblock/81a/3657.jpg";s:11:"preview_pic";s:27:"/upload/iblock/b69/3657.jpg";s:4:"bxid";s:6:"200827";s:5:"alias";s:0:"";s:7:"section";s:5:"11690";}i:6;a:14:{s:2:"id";s:4:"1004";s:3:"act";s:1:"N";s:9:"prod_type";s:0:"";s:4:"name";s:70:"Маска панорамная  МПГ-ИЗОД для ГП и ППФ";s:3:"art";s:9:"Мас001";s:6:"search";s:1010:"МАСКА ПАНОРАМНАЯ  МПГ-ИЗОД ДЛЯ ГП И ППФ
МАСКА ПРЕДНАЗНАЧЕНА ДЛЯ ЗАЩИТЫ ОТ ВЫСОКОТОКСИЧНЫХ ХИМИЧЕСКИХ ВЕЩЕСТВ, БИОЛОГИЧЕСКИ ПОРАЖАЮЩИХ АГЕНТОВ, РАДИОАКТИВНОЙ ПЫЛИ, ПОДВОДА ОЧИЩЕННОГО И СБРОСА В АТМОСФЕРУ ВЫДЫХАЕМОГО ВОЗДУХА. ИМЕЕТ ПЕРЕГОВОРНОЕ УСТРОЙСТВО. ОБЛАСТЬ ПРИМЕНЕНИЯ: ПРЕДНАЗНАЧЕНА ДЛЯ КОМПЛЕКТАЦИИ ГРАЖДАНСКИХ И ПРОМЫШЛЕННЫХ ПРОТИВОГАЗОВ. МАТЕРИАЛ: РЕЗИНА, ЛАТЕКС. ХАРАКТЕРИСТИКИ: ХОРОШИЙ ОБЗОР (ПОЛЕ ЗРЕНИЯ НЕ МЕНЕЕ 70%), СМОТРОВОЕ СТЕКЛО И МАСКА, УСТОЙЧИВЫЕ К МЕХАНИЧЕСКИМ, ТЕПЛОВЫМ ВОЗДЕЙСТВИЯМ И ВОЗДЕЙСТВИЯМ АГРЕССИВНЫХ СРЕД. ВЕС: 560 ГР.";s:6:"parent";s:2:"39";s:4:"durl";s:101:"sredstva-individualnoy-zashchity/zashchita-organov-dykhaniya/maska-panoramnaya-mpg-izod-dlya-gp-i-ppf";s:4:"dtxt";s:950:"Маска предназначена для защиты от высокотоксичных химических веществ, биологически поражающих агентов, радиоактивной пыли, подвода очищенного и сброса в атмосферу выдыхаемого воздуха. Имеет переговорное устройство. Область применения: предназначена для комплектации гражданских и промышленных противогазов. Материал: резина, латекс. Характеристики: хороший обзор &#40;поле зрения не менее 70&#37;&#41;, смотровое стекло и маска, устойчивые к механическим, тепловым воздействиям и воздействиям агрессивных сред. Вес: 560 гр.";s:4:"dpic";s:27:"/upload/iblock/90f/9255.jpg";s:11:"preview_pic";s:27:"/upload/iblock/fc0/9255.jpg";s:4:"bxid";s:6:"200830";s:5:"alias";s:0:"";s:7:"section";s:5:"11690";}i:7;a:14:{s:2:"id";s:4:"1005";s:3:"act";s:1:"N";s:9:"prod_type";s:0:"";s:4:"name";s:42:"Маска полнолицевая ППМ";s:3:"art";s:9:"Мас002";s:6:"search";s:715:"МАСКА ПОЛНОЛИЦЕВАЯ ППМ
МАСКА ПРЕДНАЗНАЧЕНА ДЛЯ ЗАЩИТЫ ЛИЦА, ГЛАЗ И ОРГАНОВ ДЫХАНИЯ ОТ ВЫСОКОТОКСИЧНЫХ ХИМИЧЕСКИХ ВЕЩЕСТВ, БИОЛОГИЧЕСКИ ПОРАЖАЮЩИХ АГЕНТОВ, РАДИОАКТИВНОЙ ПЫЛИ, ПОДВОДА ОЧИЩЕННОГО И СБРОСА В АТМОСФЕРУ ВЫДЫХАЕМОГО ВОЗДУХА. ОБЛАСТЬ ПРИМЕНЕНИЯ: ПРЕДНАЗНАЧЕНА ДЛЯ КОМПЛЕКТОВАНИЯ ГРАЖДАНСКИХ И ПРОМЫШЛЕННЫХ ПРОТИВОГАЗОВ. МАТЕРИАЛ: РЕЗИНА, ПРОЧНОЕ СМОТРОВОЕ СТЕКЛО. ВЕС: 450 ГР. .";s:6:"parent";s:2:"39";s:4:"durl";s:85:"sredstva-individualnoy-zashchity/zashchita-organov-dykhaniya/maska-polnolitsevaya-ppm";s:4:"dtxt";s:671:"Маска предназначена для защиты лица, глаз и органов дыхания от высокотоксичных химических веществ, биологически поражающих агентов, радиоактивной пыли, подвода очищенного и сброса в атмосферу выдыхаемого воздуха. Область применения: предназначена для комплектования гражданских и промышленных противогазов. Материал: резина, прочное смотровое стекло. Вес: 450 гр. .";s:4:"dpic";s:27:"/upload/iblock/6c8/7399.jpg";s:11:"preview_pic";s:27:"/upload/iblock/e59/7399.jpg";s:4:"bxid";s:6:"200831";s:5:"alias";s:0:"";s:7:"section";s:5:"11690";}i:8;a:14:{s:2:"id";s:4:"1006";s:3:"act";s:1:"N";s:9:"prod_type";s:0:"";s:4:"name";s:26:"Патрон РПГ-67 А1";s:3:"art";s:10:"Пат67А";s:6:"search";s:235:"ПАТРОН РПГ-67 А1

ВРЕДНОЕ ВЕЩЕСТВО: БЕНЗОЛ КЛАСС ЗАЩИТЫ: 5 ПДК ВРЕМЯ ЗАЩИТНОГО ДЕЙСТВИЯ (В ЗАВИСИМОСТИ ОТ КОНЦЕНТРАЦИИ): 77-144 ЧАСОВ .";s:6:"parent";s:2:"39";s:4:"durl";s:77:"sredstva-individualnoy-zashchity/zashchita-organov-dykhaniya/patron-rpg-67-a1";s:4:"dtxt";s:213:"Вредное вещество: бензол Класс защиты: 5 ПДК Время защитного действия &#40;в зависимости от концентрации&#41;: 77-144 часов .";s:4:"dpic";s:27:"/upload/iblock/e6b/3693.jpg";s:11:"preview_pic";s:27:"/upload/iblock/014/3693.jpg";s:4:"bxid";s:6:"201029";s:5:"alias";s:0:"";s:7:"section";s:5:"11690";}i:9;a:14:{s:2:"id";s:4:"1007";s:3:"act";s:1:"N";s:9:"prod_type";s:0:"";s:4:"name";s:26:"Патрон РПГ-67 В1";s:3:"art";s:10:"Пат67В";s:6:"search";s:247:"ПАТРОН РПГ-67 В1

ВРЕДНОЕ ВЕЩЕСТВО: ДИОКСИД СЕРЫ КЛАСС ЗАЩИТЫ: 10 ПДК. ВРЕМЯ ЗАЩИТНОГО ДЕЙСТВИЯ (В ЗАВИСИМОСТИ ОТ КОНЦЕНТРАЦИИ): 22-56 ЧАСОВ .";s:6:"parent";s:2:"39";s:4:"durl";s:77:"sredstva-individualnoy-zashchity/zashchita-organov-dykhaniya/patron-rpg-67-v1";s:4:"dtxt";s:225:"Вредное вещество: диоксид серы Класс защиты: 10 ПДК. Время защитного действия &#40;в зависимости от концентрации&#41;: 22-56 часов .";s:4:"dpic";s:27:"/upload/iblock/de9/5726.jpg";s:11:"preview_pic";s:27:"/upload/iblock/da6/5726.jpg";s:4:"bxid";s:6:"201030";s:5:"alias";s:0:"";s:7:"section";s:5:"11690";}i:10;a:14:{s:2:"id";s:4:"1008";s:3:"act";s:1:"N";s:9:"prod_type";s:0:"";s:4:"name";s:28:"Патрон РУ-60М А1Р";s:3:"art";s:14:"Пат60А1Р1";s:6:"search";s:235:"ПАТРОН РУ-60М А1Р

ВРЕДНОЕ ВЕЩЕСТВО: БЕНЗОЛ КЛАСС ЗАЩИТЫ: 5ПДК ВРЕМЯ ЗАЩИТНОГО ДЕЙСТВИЯ (В ЗАВИСИМОСТИ ОТ КОНЦЕНТРАЦИИ): 48-90 ЧАСОВ .";s:6:"parent";s:2:"39";s:4:"durl";s:78:"sredstva-individualnoy-zashchity/zashchita-organov-dykhaniya/patron-ru-60m-a1r";s:4:"dtxt";s:211:"Вредное вещество: бензол Класс защиты: 5ПДК Время защитного действия &#40;в зависимости от концентрации&#41;: 48-90 часов .";s:4:"dpic";s:27:"/upload/iblock/7c1/7031.jpg";s:11:"preview_pic";s:27:"/upload/iblock/81a/7031.jpg";s:4:"bxid";s:6:"201031";s:5:"alias";s:0:"";s:7:"section";s:5:"11690";}i:11;a:14:{s:2:"id";s:4:"1009";s:3:"act";s:1:"N";s:9:"prod_type";s:0:"";s:4:"name";s:34:"Патрон РУ-60М В (В1Р1)";s:3:"art";s:10:"Пат60В";s:6:"search";s:254:"ПАТРОН РУ-60М В (В1Р1)

ВРЕДНОЕ ВЕЩЕСТВО: ДИОКСИД СЕРЫ КЛАСС ЗАЩИТЫ: 10 ПДК ВРЕМЯ ЗАЩИТНОГО ДЕЙСТВИЯ (В ЗАВИСИМОСТИ ОТ КОНЦЕНТРАЦИИ): 10-26 ЧАСОВ .";s:6:"parent";s:2:"39";s:4:"durl";s:81:"sredstva-individualnoy-zashchity/zashchita-organov-dykhaniya/patron-ru-60m-v-v1r1";s:4:"dtxt";s:224:"Вредное вещество: диоксид серы Класс защиты: 10 ПДК Время защитного действия &#40;в зависимости от концентрации&#41;: 10-26 часов .";s:4:"dpic";s:27:"/upload/iblock/d7e/3692.jpg";s:11:"preview_pic";s:27:"/upload/iblock/db7/3692.jpg";s:4:"bxid";s:6:"201032";s:5:"alias";s:0:"";s:7:"section";s:5:"11690";}i:12;a:14:{s:2:"id";s:4:"1010";s:3:"act";s:1:"N";s:9:"prod_type";s:0:"";s:4:"name";s:28:"Полумаска ЗМ 6000";s:3:"art";s:10:"Рес6200";s:6:"search";s:1040:"ПОЛУМАСКА ЗМ 6000
ПОЛУМАСКА СЕРИИ 3М 6000. ПОЛУМАСКА УНИВЕРСАЛЬНОГО ПРИМЕНЕНИЯ. ОБЕСПЕЧИВАЕТ ВЫСОКУЮ СТЕПЕНЬ ЗАЩИТЫ ОТ ГАЗОВ, ПАРОВ И ВОЗДЕЙСТВИЯ РАЗНОГО ВИДА АЭРОЗОЛЕЙ. ОТЛИЧАЕТСЯ НЗКИМ СОПРОТИВЛЕНИЕМ ДЫХАНИЮ И ХОРОШИМ ОБЗОРОМ. ИМЕЕТ НЕБОЛЬШОЙ ВЕС. ИСПОЛЬЗУЕТСЯ СО СМЕННЫМИ ФИЛЬТРАМИ И ПРЕДФИЛЬТРАМИ. СТЕПЕНЬ ЗАЩИТЫ ДО 50 ПДК ПРИ ИСПОЛЬЗОВАНИИ ПРОТИВО АЭРОЗОЛЬНЫХ ФИЛЬТРОВ ВЫСОКОЙ ЭФФЕКТИВНОСТИ. ЛИЦЕВАЯ ЧАСТЬ МАСКИ ИЗГОТОВЛЕНА ИЗ МЯГКОГО, НЕ ВЫЗЫВАЮЩЕГО РАЗДРАЖЕНИЯ ЭЛАСТОМЕРА. ПОЛУМАСКА 6100 - МАЛЫЙ РАЗМЕР. ПОЛУМАСКА 6200 - СРЕДНИЙ РАЗМЕР. ПОЛУМАСКА 6300 - БОЛЬШОЙ РАЗМЕР.";s:6:"parent";s:2:"39";s:4:"durl";s:78:"sredstva-individualnoy-zashchity/zashchita-organov-dykhaniya/polumaska-zm-6000";s:4:"dtxt";s:1010:"Полумаска серии 3М 6000. Полумаска универсального применения. Обеспечивает высокую степень защиты от газов, паров и воздействия разного вида аэрозолей. отличается нзким сопротивлением дыханию и хорошим обзором. имеет небольшой вес. Используется со сменными фильтрами и предфильтрами. Степень защиты до 50 ПДК при использовании противо аэрозольных фильтров высокой эффективности. Лицевая часть маски изготовлена из мягкого, не вызывающего раздражения эластомера. Полумаска 6100 - малый размер. Полумаска 6200 - средний размер. Полумаска 6300 - большой размер.";s:4:"dpic";N;s:11:"preview_pic";N;s:4:"bxid";s:6:"201203";s:5:"alias";s:0:"";s:7:"section";s:5:"11690";}i:13;a:14:{s:2:"id";s:4:"1011";s:3:"act";s:1:"N";s:9:"prod_type";s:0:"";s:4:"name";s:28:"Полумаска ЗМ 7500";s:3:"art";s:10:"Рес7502";s:6:"search";s:1454:"ПОЛУМАСКА ЗМ 7500
ПОЛУМАСКА СЕРИИ 3М 7500. ПОЛУМАСКА УНИВЕРСАЛЬНОГО ПРИМЕНЕНИЯ. ОБЕСПЕЧИВАЕТ ВЫСОКУЮ СТЕПЕНЬ ЗАЩИТЫ ОТ ГАЗОВ, ПАРОВ И ВОЗДЕЙСТВИЯ РАЗНОГО РОДА АЭРОЗОЛЕЙ. СИСТЕМА КРЕПЛЕНИЯ ТИПА DROP DOWN ПОЗВОЛЯЕТ ВО ВРЕМЯ ПЕРЕРЫВОВ В РАБОТЕ НЕ СНИМАТЬМАСКУ. А НОСИТЬ ЕЕ НА ГРУДИ. БАЙОНЕТНОЕ УСТРОЙСТВО КРЕПЛЕНИЯ ФИЛЬТРА ПОЗВОЛЯЕТ ПРОИЗВЕСТИ ЗАМЕНУ ФИЛЬТРАБЫСТРО И БЕЗОПАСНО. ВСЕ ЧАСТИ ПОЛУМАСКИ СМЕННЫЕ (РЕМНИ, КЛАПАНЫ ВДОХА И ВЫДОХА), ЧТО СУЩЕСТВЕННО ПРОДЛЕВАЕТ СРОК ЕЕ ЭКСПЛУАТАЦИИ. ИСПОЛЬЗУЕТСЯ СО СМЕННЫМИ ФИЛЬТРАМИ СЕРИЙ 2000, 6000 И ПРЕДФИЛЬТРАМИ 5911. СТЕПЕНЬ ЗАЩИТЫ ДО 50 ПДК ПРИ ИСПОЛЬЗОВАНИИ ПРОТИВОАЭРОЗОЛЬНЫХ ФИЛЬТРОВ ВЫСОКОЙ ЭФФЕКТИВНОСТИ. ЛИЦЕВАЯ ЧАСТЬ ИЗГОТОВЛЕНА ИЗ СИЛИКОНОСОДЕРЖАЩЕГО МАТЕРИАЛА. ПОЛУМАСКА 7501 - МАЛЫЙ РАЗМЕР S. ПОЛУМАСКА 7502 - СРЕДНИЙ РАЗМЕР M. ПОЛУМАСКА 7503 - БОЛЬШОЙ РАЗМЕР L.";s:6:"parent";s:2:"39";s:4:"durl";s:78:"sredstva-individualnoy-zashchity/zashchita-organov-dykhaniya/polumaska-zm-7500";s:4:"dtxt";s:1432:"Полумаска серии 3М 7500. Полумаска универсального применения. обеспечивает высокую степень защиты от газов, паров и воздействия разного рода аэрозолей. Система крепления типа Drop Down позволяет во время перерывов в работе не сниматьмаску. а носить ее на груди. байонетное устройство крепления фильтра позволяет произвести замену фильтрабыстро и безопасно. Все части полумаски сменные &#40;ремни, клапаны вдоха и выдоха&#41;, что существенно продлевает срок ее эксплуатации. Используется со сменными фильтрами серий 2000, 6000 и предфильтрами 5911. Степень защиты до 50 ПДК при использовании противоаэрозольных фильтров высокой эффективности. Лицевая часть изготовлена из силиконосодержащего материала. Полумаска 7501 - малый размер S. Полумаска 7502 - средний размер M. Полумаска 7503 - большой размер L.";s:4:"dpic";N;s:11:"preview_pic";N;s:4:"bxid";s:6:"201204";s:5:"alias";s:0:"";s:7:"section";s:5:"11690";}i:14;a:14:{s:2:"id";s:4:"1012";s:3:"act";s:1:"Y";s:9:"prod_type";s:0:"";s:4:"name";s:56:"Предфильтр для полумасок ЗМ 5911";s:3:"art";s:10:"ФЛТ5911";s:6:"search";s:897:"ПРЕДФИЛЬТР ДЛЯ ПОЛУМАСОК ЗМ 5911
ПРОТИВОАЭРОЗОЛЬНЫЙ ПРЕДФИЛЬТР. СТЕПЕНЬ ЗАЩИТЫ P1R. ЗАЩИЩАЕТ ОТ ТВЕРДЫХ И ЖИДКИХ ЧАСТИЦ. ПОДХОДИТ ДЛЯ ПОЛУМАСОК СЕРИЙ 6000 И 7500, А ТАКЖЕ ПОЛНОЛИЦЕВЫХ МАСОК СЕРИЙ 6000 И FF-400. ПРИМЕНЕНИЕ ПРЕДФИЛЬТРОВ С ПРОТИВОГАЗОВЫМИ ФИЛЬТРАМИ ПРОДЛЯЕТ СРОК СЛУЖБЫ ПРОТИВОГАЗОВЫХ ФИЛЬТРОВ ДО 10 РАЗ. ТИПИЧНЫЕ ОБЛАСТИ ПРИМЕНЕНИЯ ДЛЯ ЭТИХ ФИЛЬТРОВ: ФАРМАЦЕВТИЧЕСКОЕ ПРОИЗВОДСТВО, СТРОИТЕЛЬСТВО, ОГНЕУПОРНЫЕ МАТЕРИАЛЫ, ЛИТЕЙНЫЙ ЦЕХ, ДЕРЕВООБРАБОТКА, ПРОИЗВОДСТВО ПРОДУКТОВ ПИТАНИЯ. .";s:6:"parent";s:2:"39";s:4:"durl";s:93:"sredstva-individualnoy-zashchity/zashchita-organov-dykhaniya/predfiltr-dlya-polumasok-zm-5911";s:4:"dtxt";s:839:"Противоаэрозольный предфильтр. Степень защиты P1R. Защищает от твердых и жидких частиц. Подходит для полумасок серий 6000 и 7500, а также полнолицевых масок серий 6000 и FF-400. Применение предфильтров с противогазовыми фильтрами продляет срок службы противогазовых фильтров до 10 раз. Типичные области применения для этих фильтров: фармацевтическое производство, строительство, огнеупорные материалы, литейный цех, деревообработка, производство продуктов питания. .";s:4:"dpic";s:27:"/upload/iblock/f29/3702.jpg";s:11:"preview_pic";s:27:"/upload/iblock/e44/3702.jpg";s:4:"bxid";s:6:"201239";s:5:"alias";s:0:"";s:7:"section";s:5:"11690";}i:15;a:14:{s:2:"id";s:4:"1013";s:3:"act";s:1:"N";s:9:"prod_type";s:0:"";s:4:"name";s:29:"Респиратор КАМА";s:3:"art";s:9:"Рес002";s:6:"search";s:883:"РЕСПИРАТОР КАМА
СТЕПЕНЬ ЗАЩИТЫ: FFP1 (4 ПДК) МАТЕРИАЛ: ПОЛИПРОПИЛЕН, ФП КЛАПАН ВЫДОХА: НЕТ ЗАЩИТНЫЕ СВОЙСТВА: ПРЕДНАЗНАЧЕН ДЛЯ ЗАЩИТЫ ОРГАНОВ ДЫХАНИЯ ОТ РАЗЛИЧНЫХ ВИДОВ АЭРОЗОЛЕЙ - РАСТИТЕЛЬНЫХ, ЖИВОТНЫХ, МЕТАЛЛУРГИЧЕСКИХ, МИНЕРАЛЬНЫХ, ПЫЛИ СИНТЕТИЧЕСКИХ МОЮЩИХ ВЕЩЕСТВ, НАХОДЯЩИХСЯ В ВОЗДУХЕ ПРИ КОНЦЕНТРАЦИИ НЕ БОЛЕЕ 200 МГ/М3. ОСОБЕННОСТИ МОДЕЛИ: ВРЕМЯ ЭКСПЛУАТАЦИИ ОТ ОДНОЙ ДО НЕСКОЛЬКИХ СМЕН В ЗАВИСИМОСТИ ОТ КОНЦЕНТАЦИИ ПЫЛИ, ВЛАЖНОСТИ, ТЕМПЕРАТУРЫ ВОЗДУХА, И ФИЗИЧЕСКОЙ НАГРУЗКИ.";s:6:"parent";s:2:"39";s:4:"durl";s:76:"sredstva-individualnoy-zashchity/zashchita-organov-dykhaniya/respirator-kama";s:4:"dtxt";s:860:"Степень защиты: FFP1 &#40;4 ПДК&#41; Материал: полипропилен, ФП Клапан выдоха: нет Защитные свойства: Предназначен для защиты органов дыхания от различных видов аэрозолей - растительных, животных, металлургических, минеральных, пыли синтетических моющих веществ, находящихся в воздухе при концентрации не более 200 мг/м3. Особенности модели: Время эксплуатации от одной до нескольких смен в зависимости от концентации пыли, влажности, температуры воздуха, и физической нагрузки.";s:4:"dpic";s:27:"/upload/iblock/f25/3710.jpg";s:11:"preview_pic";s:27:"/upload/iblock/29b/3710.jpg";s:4:"bxid";s:6:"201241";s:5:"alias";s:0:"";s:7:"section";s:5:"11690";}i:16;a:14:{s:2:"id";s:4:"1014";s:3:"act";s:1:"Y";s:9:"prod_type";s:0:"";s:4:"name";s:41:"Респиратор Лепесток 200";s:3:"art";s:9:"Рес760";s:6:"search";s:1125:"РЕСПИРАТОР ЛЕПЕСТОК 200
МАТЕРИАЛ: МАРЛЯ, ФП КЛАПАН ВЫДОХА: НЕТ ЗАЩИТНЫЕ СВОЙСТВА: ПРЕДНАЗНАЧЕН ДЛЯ ЗАЩИТЫ ОРГАНОВ ДЫХАНИЯ ОТ РАЗЛИЧНЫХ ВИДОВ НЕТОКСИЧНОЙ ПЫЛИ, ПЫЛИ РАСТИТЕЛЬНОГО И ЖИВОТНОГО ПРОИСХОЖДЕНИЯ. РЕКОМЕНДУЕТСЯ ИСПОЛЬЗОВАТЬ ПРИ ОБЪЕМНОМ СОДЕРЖАНИИ КИСЛОРОДА НЕ МЕНЕЕ 17%. ОСОБЕННОСТИ МОДЕЛИ: ВРЕМЯ ЭКСПЛУАТАЦИИ ОТ ОДНОЙ ДО НЕСКОЛЬКИХ СМЕН В ЗАВИСИМОСТИ ОТ КОНЦЕНТАЦИИ ПЫЛИ, ВЛАЖНОСТИ, ТЕМПЕРАТУРЫ ВОЗДУХА, А ТАК ЖЕ ФИЗИЧЕСКОЙ НАГРУЗКИ. ДЛЯ ЗАЩИТЫ ОРГАНОВ ДЫХАНИЯ ОТ РАЗЛИЧНЫХ ВИДОВ ПРОМЫШЛЕННОЙ НЕТОКСИЧНОЙ ПЫЛИ: СИЛИКАТНОЙ, МЕТАЛЛУРГИЧЕСКОЙ, ГОРНОРУДНОЙ, УГОЛЬНОЙ, ТЕКСТИЛЬНОЙ, ТАБАЧНОЙ, МОЮЩИХ СРЕДСТВ.";s:6:"parent";s:2:"39";s:4:"durl";s:84:"sredstva-individualnoy-zashchity/zashchita-organov-dykhaniya/respirator-lepestok-200";s:4:"dtxt";s:1086:"Материал: марля, ФП Клапан выдоха: нет Защитные свойства: Предназначен для защиты органов дыхания от различных видов нетоксичной пыли, пыли растительного и животного происхождения. Рекомендуется использовать при объемном содержании кислорода не менее 17&#37;. Особенности модели: Время эксплуатации от одной до нескольких смен в зависимости от концентации пыли, влажности, температуры воздуха, а так же физической нагрузки. Для защиты органов дыхания от различных видов промышленной нетоксичной пыли: силикатной, металлургической, горнорудной, угольной, текстильной, табачной, моющих средств.";s:4:"dpic";s:27:"/upload/iblock/efc/3711.jpg";s:11:"preview_pic";s:27:"/upload/iblock/a23/3711.jpg";s:4:"bxid";s:6:"201242";s:5:"alias";s:0:"";s:7:"section";s:5:"11690";}i:17;a:14:{s:2:"id";s:4:"1015";s:3:"act";s:1:"Y";s:9:"prod_type";s:0:"";s:4:"name";s:63:"Респиратор 3м 8101 (б/клапана) до 4 ПДК";s:3:"art";s:10:"Рес8101";s:6:"search";s:727:"РЕСПИРАТОР 3М 8101 (Б/КЛАПАНА) ДО 4 ПДК
РЕСПИРАТОР ФОРМОВАНЫЙ 3М 8101 БЕЗ КЛАПАНА ВЫДОХА. CТЕПЕНЬ ЗАЩИТЫ ДО 4 ПДК (FFP1). ОБЕСПЕЧИВАЕТ НАДЕЖНУЮ ЗАЩИТУ ОРГАНОВ ДЫХАНИЯ ОТ ПЫЛЕЙ И ТУМАНОВ. МОЖЕТ ИСПОЛЬЗОВАТЬСЯ В УСЛОВИЯХ ПОВЫШЕННЫХ И ПОНИЖЕННЫХ ТЕМПЕРАТУР И ПРИ ПОВЫШЕННОЙ ВЛАЖНОСТИ ВОЗДУХА. МЯГКАЯ ПРОКЛАДКА ПОД НОСОВЫМ ЗАЖИМОМ, ВНУТРЕННИЙ СЛОЙ ИЗ ГИППОАЛЕРГЕННОГО МАТЕРИАЛА, КРЕПЛЕНИЕ РЕЗИНОК В 4Х ТОЧКАХ. .";s:6:"parent";s:2:"39";s:4:"durl";s:98:"sredstva-individualnoy-zashchity/zashchita-organov-dykhaniya/respirator-3m-8101-b-klapana-do-4-pdk";s:4:"dtxt";s:670:"Респиратор формованый 3М 8101 без клапана выдоха. Cтепень защиты до 4 ПДК &#40;FFP1&#41;. Обеспечивает надежную защиту органов дыхания от пылей и туманов. Может использоваться в условиях повышенных и пониженных температур и при повышенной влажности воздуха. Мягкая прокладка под носовым зажимом, внутренний слой из гиппоалергенного материала, крепление резинок в 4х точках. .";s:4:"dpic";s:27:"/upload/iblock/a9a/5399.jpg";s:11:"preview_pic";s:27:"/upload/iblock/aee/5399.jpg";s:4:"bxid";s:6:"201243";s:5:"alias";s:0:"";s:7:"section";s:5:"11690";}i:18;a:14:{s:2:"id";s:4:"1016";s:3:"act";s:1:"N";s:9:"prod_type";s:0:"";s:4:"name";s:64:"Респиратор 3М 8102 (б/клапана) до 12 ПДК";s:3:"art";s:10:"Рес8102";s:6:"search";s:727:"РЕСПИРАТОР 3М 8102 (Б/КЛАПАНА) ДО 12 ПДК
РЕСПИРАТОР ФОРМОВАНЫЙ 3М 8102 С КЛАПАНОМ ВЫДОХА. СТЕПЕНЬ ЗАЩИТЫ ДО 12 ПДК (FFP2). ОБЕСПЕЧИВАЕТ НАДЕЖНУЮ ЗАЩИТЫ ОРГАНОВ ДЫХАНИЯ ОТ ПЫЛЕЙ И ТУМАНОВ. МОЖЕТ ИСПОЛЬЗОВАТЬСЯ В УСЛОВИЯХ ПОВЫШЕНЫХ И ПОНИЖЕННЫХ ТЕМПЕРАТУР И ПРИ ПОВЫШЕННОЙ ВЛАЖНОСТИ ВОЗДУХА. МЯГКАЯ ПРОКЛАДКА ПОД НОСОВЫМ ЗАЖИМОМ. ВНУТРЕННИЙ СЛОЙ ИЗ ГИПОАЛЛЕРГЕННОГО МАТЕРИАЛА. КРЕПЛЕНИЕ РЕЗИНОК В 4-Х ТОЧКАХ. .";s:6:"parent";s:2:"39";s:4:"durl";s:99:"sredstva-individualnoy-zashchity/zashchita-organov-dykhaniya/respirator-3m-8102-b-klapana-do-12-pdk";s:4:"dtxt";s:669:"Респиратор формованый 3М 8102 с клапаном выдоха. Степень защиты до 12 ПДК &#40;FFP2&#41;. Обеспечивает надежную защиты органов дыхания от пылей и туманов. Может использоваться в условиях повышеных и пониженных температур и при повышенной влажности воздуха. Мягкая прокладка под носовым зажимом. Внутренний слой из гипоаллергенного материала. Крепление резинок в 4-х точках. .";s:4:"dpic";s:27:"/upload/iblock/b68/3712.jpg";s:11:"preview_pic";s:27:"/upload/iblock/9e6/3712.jpg";s:4:"bxid";s:6:"201244";s:5:"alias";s:0:"";s:7:"section";s:5:"11690";}i:19;a:14:{s:2:"id";s:4:"1017";s:3:"act";s:1:"Y";s:9:"prod_type";s:0:"";s:4:"name";s:58:"Респиратор 3М 8112 (клапан) до 4 ПДК";s:3:"art";s:10:"Рес8112";s:6:"search";s:903:"РЕСПИРАТОР 3М 8112 (КЛАПАН) ДО 4 ПДК
РЕСПИРАТОР ФОРМОВАНЫЙ ЗМ 8112 С КЛАПАНОМ ВЫДОХА. СТЕПЕНЬ ЗАЩИТЫ ДО 4 ПДК (FFP1). ОБЕСПЕЧИВАЕТ НАДЕЖНУЮ ЗАЩИТУ ОТ ПЫЛЕЙ, АЭРОЗОЛЕЙ И ТУМАНОВ. МОЖЕТ ИСПОЛЬЗОВАТЬСЯ В УСЛОВИЯХ ПОВЫШЕНЫХ И ПОНИЖЕНЫХ ТЕМПРАТУР И ПРИ ПОВЫШЕННОЙ ВЛАЖНОСТИ ВОЗДУХА. МЯГКАЯ ПРОКЛАДКА ПОД НОСОВЫМ ЗАЖИМОМ. ВНУТРЕННИЙ СЛОЙ ИЗ ГИПОАЛЛЕРГЕННОГО МАТЕРИАЛА. КРЕПЛЕНИЕ РЕЗИНОК В 4-Х ТОЧКАХ. ПАРАБОЛИЧЕСКИЙ КЛАПАН ВЫДОХА 3M™ COOL FLOW™ ЭФФЕКТИВНО ОТВОДИТ ТЕПЛО И ВЛАГУ И ОБЕСПЕЧИВАЕТ ЛЕГКОСТЬ ДЫХАНИЯ. .";s:6:"parent";s:2:"39";s:4:"durl";s:95:"sredstva-individualnoy-zashchity/zashchita-organov-dykhaniya/respirator-3m-8112-klapan-do-4-pdk";s:4:"dtxt";s:851:"Респиратор формованый ЗМ 8112 с клапаном выдоха. Степень защиты до 4 ПДК &#40;FFP1&#41;. Обеспечивает надежную защиту от пылей, аэрозолей и туманов. Может использоваться в условиях повышеных и пониженых темпратур и при повышенной влажности воздуха. Мягкая прокладка под носовым зажимом. Внутренний слой из гипоаллергенного материала. Крепление резинок в 4-х точках. Параболический клапан выдоха 3M™ Cool Flow™ эффективно отводит тепло и влагу и обеспечивает легкость дыхания. .";s:4:"dpic";s:27:"/upload/iblock/5ba/5673.jpg";s:11:"preview_pic";s:27:"/upload/iblock/696/5673.jpg";s:4:"bxid";s:6:"201245";s:5:"alias";s:0:"";s:7:"section";s:5:"11690";}i:20;a:14:{s:2:"id";s:4:"1018";s:3:"act";s:1:"Y";s:9:"prod_type";s:0:"";s:4:"name";s:59:"Респиратор 3М 8122 (клапан) до 12 ПДК";s:3:"art";s:10:"Рес8122";s:6:"search";s:893:"РЕСПИРАТОР 3М 8122 (КЛАПАН) ДО 12 ПДК
РЕСПИРАТОР ФОРМОВАНЫЙ ЗМ 8122 С КЛАПАНОМ ВЫДОХА. СТЕПЕНЬ ЗАЩИТЫ ДО 12 ПДК (FFP2). ОБЕСПЕЧИВАЕТ НАДЕЖНУЮ ЗАЩИТЫ ОРГАНОВ ДЫХАНИЯ ОТ ПЫЛЕЙ И ТУМАНОВ. МОЖЕТ ИСПОЛЬЗОВАТЬСЯ В УСЛОВИЯХ ПОВЫШЕНЫХ И ПОНИЖЕННЫХ ТЕМПЕРАТУР И ПРИ ПОВЫШЕННОЙ ВЛАЖНОСТИ ВОЗДУХА. МЯГКАЯ ПРОКЛАДКА ПОД НОСОВЫМ ЗАЖИМОМ. ВНУТРЕННИЙ СЛОЙ ИЗ ГИПОАЛЛЕРГЕННОГО МАТЕРИАЛА. КРЕПЛЕНИЕ РЕЗИНОК В 4-Х ТОЧКАХ. ПАРАБОЛИЧЕСКИЙ КЛАПАН БОЛЕЕ ЭФФЕКТИВНО ОТВОДИТ ТЕПЛО И ВЛАГУ ОБЕСПЕЧИВАЯ ЛЕГКОСТЬ ДЫХАНИЯ. .";s:6:"parent";s:2:"39";s:4:"durl";s:96:"sredstva-individualnoy-zashchity/zashchita-organov-dykhaniya/respirator-3m-8122-klapan-do-12-pdk";s:4:"dtxt";s:840:"Респиратор формованый ЗМ 8122 с клапаном выдоха. Степень защиты до 12 ПДК &#40;FFP2&#41;. Обеспечивает надежную защиты органов дыхания от пылей и туманов. Может использоваться в условиях повышеных и пониженных температур и при повышенной влажности воздуха. Мягкая прокладка под носовым зажимом. Внутренний слой из гипоаллергенного материала. Крепление резинок в 4-х точках. Параболический клапан более эффективно отводит тепло и влагу обеспечивая легкость дыхания. .";s:4:"dpic";s:27:"/upload/iblock/be6/5674.jpg";s:11:"preview_pic";s:27:"/upload/iblock/01a/5674.jpg";s:4:"bxid";s:6:"201246";s:5:"alias";s:0:"";s:7:"section";s:5:"11690";}i:21;a:14:{s:2:"id";s:4:"1019";s:3:"act";s:1:"N";s:9:"prod_type";s:0:"";s:4:"name";s:63:"Респиратор 3М 8710 (б/клапана) до 4 ПДК";s:3:"art";s:10:"Рес8710";s:6:"search";s:707:"РЕСПИРАТОР 3М 8710 (Б/КЛАПАНА) ДО 4 ПДК
РЕСПИРАТОР ФОРМОВАННЫЙ ЗМ 8710 БЕЗ КЛАПАНА ВЫДОХА. СТЕПЕНЬ ЗАЩИТЫ ДО 4 ПДК (FFP2). ОБЕСПЕЧИВАЕТ НАДЕЖНУЮ ЗАЩИТУ ОТ МЕЛКОДИСПЕРСНЫХ ПЫЛЕЙ И АЭРОЗОЛЕЙ. МОЖЕТ ИСПОЛЬЗОВАТЬСЯ В УСЛОВИЯХ ПОНИЖЕННЫХ И ПОВЫШЕНЫХ ТЕМПЕРАТУР И ПРИ ПОВЫШЕНОЙ ВЛАЖНОСТИ ВОЗДУХА. МЯГКАЯ ПОДКЛАДКА ПОД НОСОВЫМ ЗАЖИМОМ. КРЕПЛЕНИЕ РЕЗИНОК В 4 ТОЧКАХ. ЦВЕТОВАЯ МАРКИРОВКА КЛАССА ЗАЩИТЫ. .";s:6:"parent";s:2:"39";s:4:"durl";s:98:"sredstva-individualnoy-zashchity/zashchita-organov-dykhaniya/respirator-3m-8710-b-klapana-do-4-pdk";s:4:"dtxt";s:650:"Респиратор формованный ЗМ 8710 без клапана выдоха. Степень защиты до 4 ПДК &#40;FFP2&#41;. Обеспечивает надежную защиту от мелкодисперсных пылей и аэрозолей. Может использоваться в условиях пониженных и повышеных температур и при повышеной влажности воздуха. Мягкая подкладка под носовым зажимом. Крепление резинок в 4 точках. Цветовая маркировка класса защиты. .";s:4:"dpic";s:27:"/upload/iblock/736/5664.jpg";s:11:"preview_pic";s:27:"/upload/iblock/db2/5664.jpg";s:4:"bxid";s:6:"201247";s:5:"alias";s:0:"";s:7:"section";s:5:"11690";}i:22;a:14:{s:2:"id";s:4:"1020";s:3:"act";s:1:"N";s:9:"prod_type";s:0:"";s:4:"name";s:63:"Респиратор 3М 9310 (б/клапана) до 4 ПДК";s:3:"art";s:10:"Рес9310";s:6:"search";s:558:"РЕСПИРАТОР 3М 9310 (Б/КЛАПАНА) ДО 4 ПДК
РЕСПИРАТОР СКЛАДНОЙ 3М 9310. СТЕПЕНЬ ЗАЩИТЫ ДО 4 ПДК (FFP1). ОБЕСПЕЧИВАЕТ НАДЕЖНУЮ ЗАЩИТУ ОРГАНОВ ДЫХАНИЯ ОТ МЕЛКОДИСПЕРСНОЙ ПЫЛИ. ШИРОКОМАСШТАБНАЯ ОПЫТНАЯ ЭКСПЛУАТАЦИЯ В СТРАНАХ ЕВРОПЫ ПОДТВЕРДИЛА ПРЕИМУЩЕСТВА ЭТОГО ТИПА РЕСПИРАТОРОВ ПЕРЕД ТРАДИЦИОННЫМИ РЕСПИРАТОРАМИ. .";s:6:"parent";s:2:"39";s:4:"durl";s:98:"sredstva-individualnoy-zashchity/zashchita-organov-dykhaniya/respirator-3m-9310-b-klapana-do-4-pdk";s:4:"dtxt";s:501:"Респиратор складной 3М 9310. Степень защиты до 4 ПДК &#40;FFP1&#41;. Обеспечивает надежную защиту органов дыхания от мелкодисперсной пыли. Широкомасштабная опытная эксплуатация в странах Европы подтвердила преимущества этого типа респираторов перед традиционными респираторами. .";s:4:"dpic";s:27:"/upload/iblock/c80/5675.jpg";s:11:"preview_pic";s:27:"/upload/iblock/67f/5675.jpg";s:4:"bxid";s:6:"201248";s:5:"alias";s:0:"";s:7:"section";s:5:"11690";}i:23;a:14:{s:2:"id";s:4:"1021";s:3:"act";s:1:"N";s:9:"prod_type";s:0:"";s:4:"name";s:58:"Респиратор 3М 9312 (клапан) до 4 ПДК";s:3:"art";s:10:"Рес9312";s:6:"search";s:446:"РЕСПИРАТОР 3М 9312 (КЛАПАН) ДО 4 ПДК
РЕСПИРАТОР ФОРМОВАНЫЙ ЗМ 9312 С КЛАПАНОМ ВЫДОХА. СТЕПЕНЬ ЗАЩИТЫ ДО 4 ПДК (FFP1). ОБЕСПЕЧИВАЕТ НАДЕЖНУЮ ЗАЩИТУ ОТ ИСПАРЕНИЙ И МЕЛКОДИСПЕРСНОЙ ПЫЛИ. МЯГКАЯ ПОДКЛАДКА ПОД НОСОВЫМ ЗАЖИМОМ. КРЕПЛЕНИЕ РЕЗИНОК В 4-Х ТОЧКАХ. .";s:6:"parent";s:2:"39";s:4:"durl";s:95:"sredstva-individualnoy-zashchity/zashchita-organov-dykhaniya/respirator-3m-9312-klapan-do-4-pdk";s:4:"dtxt";s:394:"Респиратор формованый ЗМ 9312 с клапаном выдоха. Степень защиты до 4 ПДК &#40;FFP1&#41;. Обеспечивает надежную защиту от испарений и мелкодисперсной пыли. Мягкая подкладка под носовым зажимом. Крепление резинок в 4-х точках. .";s:4:"dpic";s:27:"/upload/iblock/98a/5476.jpg";s:11:"preview_pic";s:27:"/upload/iblock/180/5476.jpg";s:4:"bxid";s:6:"201249";s:5:"alias";s:0:"";s:7:"section";s:5:"11690";}i:24;a:14:{s:2:"id";s:4:"1022";s:3:"act";s:1:"Y";s:9:"prod_type";s:0:"";s:4:"name";s:64:"Респиратор 3М 9320 (б/клапана) до 12 ПДК";s:3:"art";s:10:"Рес9320";s:6:"search";s:571:"РЕСПИРАТОР 3М 9320 (Б/КЛАПАНА) ДО 12 ПДК
РЕСПИРАТОР СКЛАДНОЙ 3М 9320 БЕЗ КЛАПАНА ВЫДОХА. СТЕПЕНЬ ЗАЩИТЫ ДО 12 ПДК (FFP2). НАДЕЖНО ЗАЩИЩАЕТ ОРГАНЫ ДЫХАНИЯ ОТ МЕЛКОДИСПЕРСНОЙ ПЫЛИ, МАСЛЯНЫХ И ВОДНЫХ ТУМАНОВ, СМОГА. ПРИГОДЕН ДЛЯ ИСПОЛЬЗОВАНИЯ В УСЛОВИЯХ ПОНИЖЕННЫХ И ПОВЫШЕННЫХ ТЕМПЕРАТУР И ПРИ ПОВЫШЕННОЙ ВЛАЖНОСТИ ВОЗДУХА. .";s:6:"parent";s:2:"39";s:4:"durl";s:99:"sredstva-individualnoy-zashchity/zashchita-organov-dykhaniya/respirator-3m-9320-b-klapana-do-12-pdk";s:4:"dtxt";s:513:"Респиратор складной 3М 9320 без клапана выдоха. Степень защиты до 12 ПДК &#40;FFP2&#41;. Надежно защищает органы дыхания от мелкодисперсной пыли, масляных и водных туманов, смога. Пригоден для использования в условиях пониженных и повышенных температур и при повышенной влажности воздуха. .";s:4:"dpic";s:27:"/upload/iblock/044/3713.jpg";s:11:"preview_pic";s:27:"/upload/iblock/eaa/3713.jpg";s:4:"bxid";s:6:"201250";s:5:"alias";s:0:"";s:7:"section";s:5:"11690";}i:25;a:14:{s:2:"id";s:4:"1023";s:3:"act";s:1:"N";s:9:"prod_type";s:0:"";s:4:"name";s:59:"Респиратор 3М 9322 (клапан) до 12 ПДК";s:3:"art";s:10:"Рес9322";s:6:"search";s:660:"РЕСПИРАТОР 3М 9322 (КЛАПАН) ДО 12 ПДК
РЕСПИРАТОР ФОРМОВАННЫЙ ЗМ 9322 С КЛАПАНОМ ВЫДОХА. СТЕПЕНЬ ЗАЩИТЫ ДО 12 ПДК (FFP2). ЭФФЕКТИВЕН ОТ МЕЛКОДИСПЕРСНОЙ ПЫЛИ, МАСЛЯНЫХ И ВОДЯНЫХ ТУМАНОВ. ПРЕДНАЗНАЧЕН ДЛЯ ЗАЩИТЫ ОРГАНОВ ДЫХАНИЯ ПРИ РАБОТАХ, СВЯЗАННЫХ С МЕТАЛЛУРГИЧЕСКИМ И ЛИТЕЙНЫМ ПРОИЗВОДСТВОМ, В ХИМИЧЕСКОЙ ПРОМЫШЛЕННОСТИ И МАШИНОСТРОЕНИИ. КРЕПЛЕНИЕ РЗИНОК В 4-Х ТОЧКАХ. .";s:6:"parent";s:2:"39";s:4:"durl";s:96:"sredstva-individualnoy-zashchity/zashchita-organov-dykhaniya/respirator-3m-9322-klapan-do-12-pdk";s:4:"dtxt";s:607:"Респиратор формованный ЗМ 9322 с клапаном выдоха. Степень защиты до 12 ПДК &#40;FFP2&#41;. Эффективен от мелкодисперсной пыли, масляных и водяных туманов. Предназначен для защиты органов дыхания при работах, связанных с металлургическим и литейным производством, в химической промышленности и машиностроении. Крепление рзинок в 4-х точках. .";s:4:"dpic";s:27:"/upload/iblock/89c/3714.jpg";s:11:"preview_pic";s:27:"/upload/iblock/cb4/3714.jpg";s:4:"bxid";s:6:"201251";s:5:"alias";s:0:"";s:7:"section";s:5:"11690";}i:26;a:14:{s:2:"id";s:4:"1024";s:3:"act";s:1:"N";s:9:"prod_type";s:0:"";s:4:"name";s:59:"Респиратор 3М 9332 (клапан) до 50 ПДК";s:3:"art";s:10:"Рес9332";s:6:"search";s:894:"РЕСПИРАТОР 3М 9332 (КЛАПАН) ДО 50 ПДК
СКЛАДНОЙ РЕСПИРАТОР 3М 9332 С КЛАПАНОМ. СТЕПЕНЬ ЗАЩИТЫ ДО 50 ПДК (FFP3). ЗАЩИЩАЕТ ОТ ПЫЛИ, ТУМАНОВ, КАНЦЕРОГЕННЫХ ЭРОЗОЛЕЙ ( В ТОМ ЧИСЛЕ АСБЕСТА), КОНДЕНСАЦИОННЫХ АЭРОЗОЛЕЙ МЕТАЛЛОВ, ОБРАЗУЮЩИХСЯ ПРИ ПРОВЕДЕНИИ СВАРОЧНЫХ РАБОТ, ЛИТЬЕВЫХ РАБОТ И ДРУГИХ ОПЕРАЦИЙ, СВЯЗАННЫХ С НАГРЕВОВ МЕТАЛЛОВ, РАДИОАКТИВНЫХ АЭРОЗОЛЕЙ (В ТОМ ЧИСЛЕ ОТ ПРОДУКТОВ РАСПАДА РАДОНА). ДОПУСКАЕТСЯ ИСПОЛЬЗОВАНИЕ В УСЛОВИЯХ НИЗКИХ И ВЫСОКИХ ТЕМПЕРАТУР И ПРИ ПОВЫШЕННОЙ ВЛАЖНОСТИ ВОЗДУХА. .";s:6:"parent";s:2:"39";s:4:"durl";s:96:"sredstva-individualnoy-zashchity/zashchita-organov-dykhaniya/respirator-3m-9332-klapan-do-50-pdk";s:4:"dtxt";s:857:"Складной респиратор 3М 9332 с клапаном. Степень защиты до 50 ПДК &#40;FFP3&#41;. Защищает от пыли, туманов, канцерогенных эрозолей &#40; в том числе асбеста&#41;, конденсационных аэрозолей металлов, образующихся при проведении сварочных работ, литьевых работ и других операций, связанных с нагревов металлов, радиоактивных аэрозолей &#40;в том числе от продуктов распада радона&#41;. Допускается использование в условиях низких и высоких температур и при повышенной влажности воздуха. .";s:4:"dpic";s:27:"/upload/iblock/e25/5475.jpg";s:11:"preview_pic";s:27:"/upload/iblock/cbe/5475.jpg";s:4:"bxid";s:6:"201252";s:5:"alias";s:0:"";s:7:"section";s:5:"11690";}i:27;a:14:{s:2:"id";s:4:"1025";s:3:"act";s:1:"N";s:9:"prod_type";s:0:"";s:4:"name";s:63:"Респиратор 3М 9913 (б/клапана) до 4 ПДК";s:3:"art";s:10:"Рес9913";s:6:"search";s:744:"РЕСПИРАТОР 3М 9913 (Б/КЛАПАНА) ДО 4 ПДК
РЕСПИРАТОР ФОРМОВАНЫЙ 3М 9913. СТЕПЕНЬ ЗАЩИТЫ ДО 4 ПДК (FFP1). ИМЕЕТ ФИЛЬТРУЮЩИЙ СЛОЙ ИЗ АКТИВИРОВАННОГО УГЛЯ. НАДЕЖНО ЗАЩИЩАЕТ ОРГАНЫ ДЫХАНИЯ ОТ ПЫЛИ, ПАРОВ ОРГАНИЧЕСКИХ СОЕДИНЕНИЙ, СМОГА, ТУМАНОВ, МЕЛКОДИСПЕРСНЫХ АЭРОЗОЛЕЙ, ОТ РАЗДРАЖЕНИЯ СПЕЦИФИЧЕСКИМИ ГАЗАМИ И ПАРАМИ В НЕЗНАЧИТЕЛЬНЫХ КОНЦЕНТРАЦИЯХ. ФИЛЬТР ЭЛЕКТРОСТАТИЧЕСКОГО ДЕЙСТВИЯ С ДОПОЛНИТЕЛЬНЫМ ЗАЩИТНЫМ СЛОЕМ .";s:6:"parent";s:2:"39";s:4:"durl";s:98:"sredstva-individualnoy-zashchity/zashchita-organov-dykhaniya/respirator-3m-9913-b-klapana-do-4-pdk";s:4:"dtxt";s:687:"Респиратор формованый 3М 9913. Степень защиты до 4 ПДК &#40;FFP1&#41;. Имеет фильтрующий слой из активированного угля. Надежно защищает органы дыхания от пыли, паров органических соединений, смога, туманов, мелкодисперсных аэрозолей, от раздражения специфическими газами и парами в незначительных концентрациях. Фильтр электростатического действия с дополнительным защитным слоем .";s:4:"dpic";s:27:"/upload/iblock/e7c/5776.jpg";s:11:"preview_pic";s:27:"/upload/iblock/367/5776.jpg";s:4:"bxid";s:6:"201253";s:5:"alias";s:0:"";s:7:"section";s:5:"11690";}i:28;a:14:{s:2:"id";s:4:"1026";s:3:"act";s:1:"N";s:9:"prod_type";s:0:"";s:4:"name";s:63:"Респиратор 3М 9915 (б/клапана) до 4 ПДК";s:3:"art";s:10:"Рес9915";s:6:"search";s:667:"РЕСПИРАТОР 3М 9915 (Б/КЛАПАНА) ДО 4 ПДК
РЕСПИРАТОР ФОРМОВАНЫЙ 3М 9915 БЕЗ КЛАПАНА. СТЕПЕНЬ ЗАЩИТЫ ДО 4 ПДК (FFP1). РЕСПИРАТОР С КОМБИНИРОВАННОЙ ЗАЩИТОЙ. ЗАЩИЩАЕТ ОТ ПЫЛИ, ТУМАНОВ, КИСЛЫХ ГАЗОВ И ПАРОВ. В ТОМ ЧИСЛЕ ДВУОКИСИ СЕРЫ И ФТОРОВОДОРОДА ПРИ ИХ КОНЦЕНТРАЦИИ, НЕ ПРЕВЫШАЮЩЕЙ ПДК. СЛОЙ АКТИВИРОВАННОГО УГЛЯ ЗАЩИЩАЕТ ОРГАНЫ ДЫХАНИЯ ОТ ГАЗОВ И ПАРОВ В НИЗКИХ КОНЦЕНТРАЦИЯХ. .";s:6:"parent";s:2:"39";s:4:"durl";s:98:"sredstva-individualnoy-zashchity/zashchita-organov-dykhaniya/respirator-3m-9915-b-klapana-do-4-pdk";s:4:"dtxt";s:610:"Респиратор формованый 3М 9915 без клапана. Степень защиты до 4 ПДК &#40;FFP1&#41;. Респиратор с комбинированной защитой. Защищает от пыли, туманов, кислых газов и паров. В том числе двуокиси серы и фтороводорода при их концентрации, не превышающей ПДК. Слой активированного угля защищает органы дыхания от газов и паров в низких концентрациях. .";s:4:"dpic";s:27:"/upload/iblock/729/5777.jpg";s:11:"preview_pic";s:27:"/upload/iblock/201/5777.jpg";s:4:"bxid";s:6:"201254";s:5:"alias";s:0:"";s:7:"section";s:5:"11690";}i:29;a:14:{s:2:"id";s:4:"1027";s:3:"act";s:1:"N";s:9:"prod_type";s:0:"";s:4:"name";s:59:"Респиратор 3М 9925 (клапан) до 12 ПДК";s:3:"art";s:10:"Рес9925";s:6:"search";s:782:"РЕСПИРАТОР 3М 9925 (КЛАПАН) ДО 12 ПДК
РЕСПИРАТОР ЗМ 9925 ФОРМОВАНЫЙ КЛАССА PREMIUM С КЛАПАНОМ. СТЕПЕНЬ ЗАЩИТЫ ДО 12 ПДК (FFP2). ЗАЩИЩАЕТ ОТ СВАРОЧНЫХ АЭРОЗОЛЕЙ, ДЫМОВ МЕТАЛЛА, ПЫЛИ И ТУМАНОВ. ДОПОЛНИТЕЛЬНАЯ ЗАЩИТА ОТ ОРГАНИЧЕСКИХ ПАРОВ И ОЗОНА. НИЗКОПРОФИЛЬНАЯ ФОРМА ПОЗВОЛЯЕТ ИСПОЛЬЗОВАТЬ РЕСПИРАТОР ДОД ЩИТКОМ СВАРЩИКА. УСТОЙЧИВЫЙ К ВОЗГОРАНИЮ НАРУЖНИЙ СЛОЙ. ВНУТРЕННИЙ СЛОЙ ИЗ ГИПОАЛЛЕРГЕННОГО МАТЕРИАЛА. КРЕПЛЕНИЕ РЕЗИНОК В 4-Х ТОЧКАХ. .";s:6:"parent";s:2:"39";s:4:"durl";s:96:"sredstva-individualnoy-zashchity/zashchita-organov-dykhaniya/respirator-3m-9925-klapan-do-12-pdk";s:4:"dtxt";s:729:"Респиратор ЗМ 9925 формованый класса Premium с клапаном. Степень защиты до 12 ПДК &#40;FFP2&#41;. Защищает от сварочных аэрозолей, дымов металла, пыли и туманов. Дополнительная защита от органических паров и озона. Низкопрофильная форма позволяет использовать респиратор дод щитком сварщика. Устойчивый к возгоранию наружний слой. Внутренний слой из гипоаллергенного материала. Крепление резинок в 4-х точках. .";s:4:"dpic";s:27:"/upload/iblock/025/5665.jpg";s:11:"preview_pic";s:27:"/upload/iblock/e9a/5665.jpg";s:4:"bxid";s:6:"201255";s:5:"alias";s:0:"";s:7:"section";s:5:"11690";}i:30;a:14:{s:2:"id";s:4:"1028";s:3:"act";s:1:"N";s:9:"prod_type";s:0:"";s:4:"name";s:59:"Респиратор 3М 9926 (клапан) до 12 ПДК";s:3:"art";s:10:"Рес9926";s:6:"search";s:757:"РЕСПИРАТОР 3М 9926 (КЛАПАН) ДО 12 ПДК
РЕСПИРАТОР 3М 9926 С КЛАПАНОМ. СТЕПЕНЬ ЗАЩИТЫ ДО 12 ПДК (FFP2). ОБЕСПЕЧИВАЕТ ЗАЩИТУ ОТ ПЫЛИ И ТУМАНОВ. ИМЕЕТ ПРОСЛОЙКУ ИЗ АКТИВИРОВАННОГО УГЛЯ, БЛАГОДАРЯ ЧЕМУ НЕЙТРАЛИЗУЮТСЯ ЗАПАХИ, КИСЛЫЕ ГАЗЫ И ДРУГИЕ ПРОИЗВОДСТВЕННЫЕ ЗАГРЯЗНЕНИЯ ВОЗДУХА. ОТЛИЧАЕТСЯ ВЫСОКИМ УРОВНЕМ КОМФОРТА И ЭФФЕКТИВНОСТЬЮ ПРИ РАБОТЕ В УСЛОВИЯХ ПОВЫШЕННЫХ И ПОНИЖЕННЫХ ТЕМПЕРАТУР И ПОВЫШЕННОЙ ВЛАЖНОСТИ ВОЗДУХА. .";s:6:"parent";s:2:"39";s:4:"durl";s:96:"sredstva-individualnoy-zashchity/zashchita-organov-dykhaniya/respirator-3m-9926-klapan-do-12-pdk";s:4:"dtxt";s:704:"Респиратор 3М 9926 с клапаном. Степень защиты до 12 ПДК &#40;FFP2&#41;. Обеспечивает защиту от пыли и туманов. Имеет прослойку из активированного угля, благодаря чему нейтрализуются запахи, кислые газы и другие производственные загрязнения воздуха. Отличается высоким уровнем комфорта и эффективностью при работе в условиях повышенных и пониженных температур и повышенной влажности воздуха. .";s:4:"dpic";s:27:"/upload/iblock/192/3715.jpg";s:11:"preview_pic";s:27:"/upload/iblock/a01/3715.jpg";s:4:"bxid";s:6:"201256";s:5:"alias";s:0:"";s:7:"section";s:5:"11690";}i:31;a:14:{s:2:"id";s:4:"1029";s:3:"act";s:1:"N";s:9:"prod_type";s:0:"";s:4:"name";s:69:"Респиратор Алина-100 (б/клапана) до 4 ПДК";s:3:"art";s:11:"Рес100А";s:6:"search";s:1023:"РЕСПИРАТОР АЛИНА-100 (Б/КЛАПАНА) ДО 4 ПДК
ОБЛАСТЬ ПРИМЕНЕНИЯ: ПРОМЫШЛЕННОСТЬ КЛАСС ЗАЩИТЫ: FFP 1 NR D С КЛАПАНОМ ВЫДОХА: НЕТ ЗАЩИТА: ПЫЛЬ, ДЫМ, ТУМАН. ОСОБЕННОСТИ: - ТЕХНОЛОГИЯ 3D FLEX-TO-FIT - УВЕЛИЧЕННАЯ ПЛОЩАДЬ ФИЛЬТРУЮЩЕЙ ПОВЕРХНОСТИ - УНИВЕРСАЛЬНЫЙ РАЗМЕР - РЕГУЛИРУЕМЫЕ ЛЕНТЫ ОГОЛОВЬЯ ПРИМЕНЕНИЕ: РЕСПИРАТОР ПРЕДНАЗНАЧЕН ДЛЯ ЗАЩИТЫ ОРГАНОВ ДЫХАНИЯ ОТ ВЫСОКО- И СРЕДНЕДИСПЕРСНЫХ АЭРОЗОЛЕЙ ВСЕХ КЛАССОВ ОПАСНОСТИ С СОДЕРЖАНИЕМ ДО 4 ПДК. ОБЛАСТЬ ПРИМЕНЕНИЯ: МАШИНОСТРОЕНИЕ, СТРОИТЕЛЬСТВО, МЕТАЛЛУРГИЯ, ОБЩЕПРОИЗВОДСТВЕННЫЕ РАБОТЫ, ФАРМАЦЕВТИКА, ПИЩЕВАЯ ПРОМЫШЛЕННОСТЬ.";s:6:"parent";s:2:"39";s:4:"durl";s:100:"sredstva-individualnoy-zashchity/zashchita-organov-dykhaniya/respirator-alina-100-b-klapana-do-4-pdk";s:4:"dtxt";s:952:"Область применения: Промышленность Класс защиты: FFP 1 NR D С клапаном выдоха: нет Защита: Пыль, дым, туман. Особенности: - Технология 3D FLEX-TO-FIT - Увеличенная площадь фильтрующей поверхности - Универсальный размер - Регулируемые ленты оголовья Применение: Респиратор предназначен для защиты органов дыхания от высоко- и среднедисперсных аэрозолей всех классов опасности с содержанием до 4 ПДК. Область применения: машиностроение, строительство, металлургия, общепроизводственные работы, фармацевтика, пищевая промышленность.";s:4:"dpic";s:28:"/upload/iblock/628/12996.jpg";s:11:"preview_pic";s:28:"/upload/iblock/044/12996.jpg";s:4:"bxid";s:6:"201257";s:5:"alias";s:0:"";s:7:"section";s:5:"11690";}i:32;a:14:{s:2:"id";s:4:"1030";s:3:"act";s:1:"N";s:9:"prod_type";s:0:"";s:4:"name";s:64:"Респиратор Алина-110 (клапан) до 4 ПДК";s:3:"art";s:11:"Рес110А";s:6:"search";s:1016:"РЕСПИРАТОР АЛИНА-110 (КЛАПАН) ДО 4 ПДК
ОБЛАСТЬ ПРИМЕНЕНИЯ: ПРОМЫШЛЕННОСТЬ КЛАСС ЗАЩИТЫ: FFP 1 NR D С КЛАПАНОМ ВЫДОХА: ДА ЗАЩИТА: ПЫЛЬ, ДЫМ, ТУМАН. ОСОБЕННОСТИ: - ТЕХНОЛОГИЯ 3D FLEX-TO-FIT - УВЕЛИЧЕННАЯ ПЛОЩАДЬ ФИЛЬТРУЮЩЕЙ ПОВЕРХНОСТИ - УНИВЕРСАЛЬНЫЙ РАЗМЕР - РЕГУЛИРУЕМЫЕ ЛЕНТЫ ОГОЛОВЬЯ ПРИМЕНЕНИЕ: РЕСПИРАТОР ПРЕДНАЗНАЧЕН ДЛЯ ЗАЩИТЫ ОРГАНОВ ДЫХАНИЯ ОТ ВЫСОКО- И СРЕДНЕДИСПЕРСНЫХ АЭРОЗОЛЕЙ ВСЕХ КЛАССОВ ОПАСНОСТИ С СОДЕРЖАНИЕМ ДО 4 ПДК. ОБЛАСТЬ ПРИМЕНЕНИЯ: МАШИНОСТРОЕНИЕ, СТРОИТЕЛЬСТВО, МЕТАЛЛУРГИЯ, ОБЩЕПРОИЗВОДСТВЕННЫЕ РАБОТЫ, ФАРМАЦЕВТИКА, ПИЩЕВАЯ ПРОМЫШЛЕННОСТЬ.";s:6:"parent";s:2:"39";s:4:"durl";s:97:"sredstva-individualnoy-zashchity/zashchita-organov-dykhaniya/respirator-alina-110-klapan-do-4-pdk";s:4:"dtxt";s:950:"Область применения: Промышленность Класс защиты: FFP 1 NR D С клапаном выдоха: да Защита: Пыль, дым, туман. Особенности: - Технология 3D FLEX-TO-FIT - Увеличенная площадь фильтрующей поверхности - Универсальный размер - Регулируемые ленты оголовья Применение: Респиратор предназначен для защиты органов дыхания от высоко- и среднедисперсных аэрозолей всех классов опасности с содержанием до 4 ПДК. Область применения: машиностроение, строительство, металлургия, общепроизводственные работы, фармацевтика, пищевая промышленность.";s:4:"dpic";s:28:"/upload/iblock/d2d/15009.jpg";s:11:"preview_pic";s:28:"/upload/iblock/e8d/15009.jpg";s:4:"bxid";s:6:"201258";s:5:"alias";s:0:"";s:7:"section";s:5:"11690";}i:33;a:14:{s:2:"id";s:4:"1031";s:3:"act";s:1:"N";s:9:"prod_type";s:0:"";s:4:"name";s:70:"Респиратор Алина-200 (б/клапана) до 12 ПДК";s:3:"art";s:11:"Рес200А";s:6:"search";s:1067:"РЕСПИРАТОР АЛИНА-200 (Б/КЛАПАНА) ДО 12 ПДК
ОБЛАСТЬ ПРИМЕНЕНИЯ: ПРОМЫШЛЕННОСТЬ КЛАСС ЗАЩИТЫ: FFP 2 NR D С КЛАПАНОМ ВЫДОХА: НЕТ ЗАЩИТА: ПЫЛЬ, ДЫМ, ТУМАН. ОСОБЕННОСТИ: - ТЕХНОЛОГИЯ 3D FLEX-TO-FIT - УВЕЛИЧЕННАЯ ПЛОЩАДЬ ФИЛЬТРУЮЩЕЙ ПОВЕРХНОСТИ - УНИВЕРСАЛЬНЫЙ РАЗМЕР - РЕГУЛИРУЕМЫЕ ЛЕНТЫ ОГОЛОВЬЯ ПРИМЕНЕНИЕ: РЕСПИРАТОР ПРЕДНАЗНАЧЕН ДЛЯ ЗАЩИТЫ ОРГАНОВ ДЫХАНИЯ ОТ ВЫСОКО- И СРЕДНЕДИСПЕРСНЫХ АЭРОЗОЛЕЙ ВСЕХ КЛАССОВ ОПАСНОСТИ С СОДЕРЖАНИЕМ ДО 12 ПДК. ОБЛАСТЬ ПРИМЕНЕНИЯ: МАШИНОСТРОЕНИЕ, МЕТАЛЛУРГИЯ, СТРОИТЕЛЬСТВО, СУДОСТРОЕНИЕ, ЛИТЕЙНЫЕ ПРОИЗВОДСТВА, РАБОТЫ В КАРЬЕРАХ И ОТКРЫТЫХ РАЗРЕЗАХ, СТРОИТЕЛЬСТВО.";s:6:"parent";s:2:"39";s:4:"durl";s:101:"sredstva-individualnoy-zashchity/zashchita-organov-dykhaniya/respirator-alina-200-b-klapana-do-12-pdk";s:4:"dtxt";s:995:"Область применения: Промышленность Класс защиты: FFP 2 NR D С клапаном выдоха: нет Защита: Пыль, дым, туман. Особенности: - Технология 3D FLEX-TO-FIT - Увеличенная площадь фильтрующей поверхности - Универсальный размер - Регулируемые ленты оголовья Применение: Респиратор предназначен для защиты органов дыхания от высоко- и среднедисперсных аэрозолей всех классов опасности с содержанием до 12 ПДК. Область применения: машиностроение, металлургия, строительство, судостроение, литейные производства, работы в карьерах и открытых разрезах, строительство.";s:4:"dpic";s:28:"/upload/iblock/8ee/12962.jpg";s:11:"preview_pic";s:28:"/upload/iblock/5d0/12962.jpg";s:4:"bxid";s:6:"201259";s:5:"alias";s:0:"";s:7:"section";s:5:"11690";}i:34;a:14:{s:2:"id";s:4:"1032";s:3:"act";s:1:"N";s:9:"prod_type";s:0:"";s:4:"name";s:65:"Респиратор Алина-210 (клапан) до 12 ПДК";s:3:"art";s:11:"Рес210А";s:6:"search";s:989:"РЕСПИРАТОР АЛИНА-210 (КЛАПАН) ДО 12 ПДК
ОБЛАСТЬ ПРИМЕНЕНИЯ: ПРОМЫШЛЕННОСТЬ КЛАСС ЗАЩИТЫ: FFP 2 NR D С КЛАПАНОМ ВЫДОХА: ДА ЗАЩИТА: ПЫЛЬ, ДЫМ, ТУМАН. ОСОБЕННОСТИ: - ТЕХНОЛОГИЯ 3D FLEX-TO-FIT - УВЕЛИЧЕННАЯ ПЛОЩАДЬ ФИЛЬТРУЮЩЕЙ ПОВЕРХНОСТИ - УНИВЕРСАЛЬНЫЙ РАЗМЕР - РЕГУЛИРУЕМЫЕ ЛЕНТЫ ОГОЛОВЬЯ ПРИМЕНЕНИЕ: РЕСПИРАТОР ПРЕДНАЗНАЧЕН ДЛЯ ЗАЩИТЫ ОРГАНОВ ДЫХАНИЯ ОТ ВЫСОКО- И СРЕДНЕДИСПЕРСНЫХ АЭРОЗОЛЕЙ С СОДЕРЖАНИЕМ ДО 12 ПДК. ОБЛАСТЬ ПРИМЕНЕНИЯ: МАШИНОСТРОЕНИЕ, МЕТАЛЛУРГИЯ, СУДОСТРОЕНИЕ, ЛИТЕЙНОЕ ПРОИЗВОДСТВО, РАБОТЫ В КАРЬЕРАХ И ОТКРЫТЫХ РАЗРЕЗАХ, СТРОИТЕЛЬСТВО.";s:6:"parent";s:2:"39";s:4:"durl";s:98:"sredstva-individualnoy-zashchity/zashchita-organov-dykhaniya/respirator-alina-210-klapan-do-12-pdk";s:4:"dtxt";s:922:"Область применения: Промышленность Класс защиты: FFP 2 NR D С клапаном выдоха: да Защита: Пыль, дым, туман. Особенности: - Технология 3D FLEX-TO-FIT - Увеличенная площадь фильтрующей поверхности - Универсальный размер - Регулируемые ленты оголовья Применение: Респиратор предназначен для защиты органов дыхания от высоко- и среднедисперсных аэрозолей с содержанием до 12 ПДК. Область применения: машиностроение, металлургия, судостроение, литейное производство, работы в карьерах и открытых разрезах, строительство.";s:4:"dpic";s:28:"/upload/iblock/3e8/12963.jpg";s:11:"preview_pic";s:28:"/upload/iblock/34a/12963.jpg";s:4:"bxid";s:6:"201260";s:5:"alias";s:0:"";s:7:"section";s:5:"11690";}i:35;a:14:{s:2:"id";s:4:"1033";s:3:"act";s:1:"N";s:9:"prod_type";s:0:"";s:4:"name";s:65:"Респиратор Алина-216 (клапан) до 12 ПДК";s:3:"art";s:11:"Рес216А";s:6:"search";s:1077:"РЕСПИРАТОР АЛИНА-216 (КЛАПАН) ДО 12 ПДК
ОБЛАСТЬ ПРИМЕНЕНИЯ: МЕДИЦИНА КЛАСС ЗАЩИТЫ: FFP 2 R D С КЛАПАНОМ ВЫДОХА: ДА ЗАЩИТА:  ПЫЛЬ, ДЫМ, ТУМАН;  ВИРУСЫ И БАКТЕРИИ;  АЛЛЕРГЕНЫ. ОСОБЕННОСТИ: - ТЕХНОЛОГИЯ 3D FLEX-TO-FIT - УВЕЛИЧЕННАЯ ПЛОЩАДЬ ФИЛЬТРУЮЩЕЙ ПОВЕРХНОСТИ - УНИВЕРСАЛЬНЫЙ РАЗМЕР - РЕГУЛИРУЕМЫЕ ЛЕНТЫ ОГОЛОВЬЯ - ДОПОЛНИТЕЛЬНЫЙ ВЛАГООТВОДЯЩИЙ СЛОЙ ПРИМЕНЕНИЕ: РЕСПИРАТОР ПРЕДНАЗНАЧЕН ДЛЯ ИСПОЛЬЗОВАНИЯ МЕДИЦИНСКИМ ПЕРСОНАЛОМ В КАЧЕСТВЕ ЗАЩИТЫ ОТ АЭРОЗОЛЕЙ И ИНФЕКЦИЙ В ЗОНАХ СРЕДНЕГО РИСКА. ЗАЩИТА ОТ АЛЛЕРГЕНОВ. РЕКОМЕНДАЦИИ К ИСПОЛЬЗОВАНИЮ: ДЛЯ ИНТЕНСИВНОГО ИСПОЛЬЗОВАНИЯ ПРИ КОНТАКТАХ С БОЛЬНЫМИ.";s:6:"parent";s:2:"39";s:4:"durl";s:98:"sredstva-individualnoy-zashchity/zashchita-organov-dykhaniya/respirator-alina-216-klapan-do-12-pdk";s:4:"dtxt";s:1040:"Область применения: Медицина Класс защиты: FFP 2 R D С клапаном выдоха: да Защита:&nbsp;&nbsp;Пыль, дым, туман;&nbsp;&nbsp;Вирусы и бактерии;&nbsp;&nbsp;Аллергены. Особенности: - Технология 3D FLEX-TO-FIT - Увеличенная площадь фильтрующей поверхности - Универсальный размер - Регулируемые ленты оголовья - Дополнительный влагоотводящий слой Применение: Респиратор предназначен для использования медицинским персоналом в качестве защиты от аэрозолей и инфекций в зонах среднего риска. Защита от аллергенов. Рекомендации к использованию: для интенсивного использования при контактах с больными.";s:4:"dpic";s:28:"/upload/iblock/844/15588.jpg";s:11:"preview_pic";s:28:"/upload/iblock/559/15588.jpg";s:4:"bxid";s:6:"201261";s:5:"alias";s:0:"";s:7:"section";s:5:"11690";}i:36;a:14:{s:2:"id";s:4:"1034";s:3:"act";s:1:"N";s:9:"prod_type";s:0:"";s:4:"name";s:65:"Респиратор Алина-316 (клапан) до 50 ПДК";s:3:"art";s:11:"Рес316А";s:6:"search";s:1027:"РЕСПИРАТОР АЛИНА-316 (КЛАПАН) ДО 50 ПДК
ОБЛАСТЬ ПРИМЕНЕНИЯ: МЕДИЦИНА КЛАСС ЗАЩИТЫ: FFP 3 R D С КЛАПАНОМ ВЫДОХА: ДА ЗАЩИТА:  ПЫЛЬ, ДЫМ, ТУМАН;  ВИРУСЫ И БАКТЕРИИ. ОСОБЕННОСТИ: - ТЕХНОЛОГИЯ 3D FLEX-TO-FIT - УВЕЛИЧЕННАЯ ПЛОЩАДЬ ФИЛЬТРУЮЩЕЙ ПОВЕРХНОСТИ - УНИВЕРСАЛЬНЫЙ РАЗМЕР - РЕГУЛИРУЕМЫЕ ЛЕНТЫ ОГОЛОВЬЯ - ДОПОЛНИТЕЛЬНЫЙ ВЛАГООТВОДЯЩИЙ СЛОЙ ПРИМЕНЕНИЕ: РЕСПИРАТОР ПРЕДНАЗНАЧЕН ДЛЯ ИНТЕНСИВНОЙ ЗАЩИТЫ МЕДИЦИНСКОГО ПЕРСОНАЛА В ЗОНАХ ВЫСОКОГО РИСКА. РЕКОМЕНДАЦИИ К ИСПОЛЬЗОВАНИЮ: КОНТАКТИРОВАНИЕ С БАЦИЛЛЯРНЫМИ БОЛЬНЫМИ ИЛИ ВЫСОКООПАСНЫМИ БИОЛОГИЧЕСКИМИ И ВИРУСНЫМИ ИНФЕКЦИЯМИ.";s:6:"parent";s:2:"39";s:4:"durl";s:98:"sredstva-individualnoy-zashchity/zashchita-organov-dykhaniya/respirator-alina-316-klapan-do-50-pdk";s:4:"dtxt";s:980:"Область применения: Медицина Класс защиты: FFP 3 R D С клапаном выдоха: да Защита:&nbsp;&nbsp;Пыль, дым, туман;&nbsp;&nbsp;Вирусы и бактерии. Особенности: - Технология 3D FLEX-TO-FIT - Увеличенная площадь фильтрующей поверхности - Универсальный размер - Регулируемые ленты оголовья - Дополнительный влагоотводящий слой Применение: Респиратор предназначен для интенсивной защиты медицинского персонала в зонах высокого риска. Рекомендации к использованию: контактирование с бациллярными больными или высокоопасными биологическими и вирусными инфекциями.";s:4:"dpic";s:28:"/upload/iblock/b3f/12960.jpg";s:11:"preview_pic";s:28:"/upload/iblock/a40/12960.jpg";s:4:"bxid";s:6:"201262";s:5:"alias";s:0:"";s:7:"section";s:5:"11690";}i:37;a:14:{s:2:"id";s:4:"1035";s:3:"act";s:1:"N";s:9:"prod_type";s:0:"";s:4:"name";s:69:"Респиратор Алина-А (б/клапана) до 12 ПДК";s:3:"art";s:8:"РесА";s:6:"search";s:1108:"РЕСПИРАТОР АЛИНА-А (Б/КЛАПАНА) ДО 12 ПДК
ОБЛАСТЬ ПРИМЕНЕНИЯ: ПРОМЫШЛЕННОСТЬ КЛАСС ЗАЩИТЫ: FFP 2 NR D С КЛАПАНОМ ВЫДОХА: НЕТ ПРОТИВОГАЗОАЭРОЗОЛЬНЫЙ: ДА ЗАЩИТА:  ПЫЛЬ, ДЫМ, ТУМАН;  ОРГАНИЧЕСКИЕ ПАРЫ И ГАЗЫ. ОСОБЕННОСТИ: - УНИВЕРСАЛЬНЫЙ РАЗМЕР - ИНДИВИДУАЛЬНАЯ УПАКОВКА ПРИМЕНЕНИЕ: РЕСПИРАТОР ПРЕДНАЗНАЧЕН ДЛЯ ЗАЩИТЫ ОРГАНОВ ДЫХАНИЯ ОТ ВЫСОКО- И СРЕДНЕДИСПЕРСНЫХ АЭРОЗОЛЕЙ ВЫСОКО ОПАСНЫХ И УМЕРЕННО ОПАСНЫХ ВРЕДНЫХ ВЕЩЕСТВ С СОДЕРЖАНИЕМ ДО 12 ПДК Р.З., ПАРОВ И ГАЗОВ ОРГАНИЧЕСКОГО ПРОИСХОЖДЕНИЯ ДО 5 ПДК Р.З.. ОБЛАСТЬ ПРИМЕНЕНИЯ: ЛАКОКРАСОЧНЫЕ РАБОТЫ, ОПЕРАЦИИ СВЯЗАННЫЕ С НАГРЕВОМ МЕТАЛЛОВ, РАБОТА С ХИМКОНЦЕНТРАТАМИ.";s:6:"parent";s:2:"39";s:4:"durl";s:99:"sredstva-individualnoy-zashchity/zashchita-organov-dykhaniya/respirator-alina-a-b-klapana-do-12-pdk";s:4:"dtxt";s:1057:"Область применения: Промышленность Класс защиты: FFP 2 NR D С клапаном выдоха: нет Противогазоаэрозольный: да Защита:&nbsp;&nbsp;Пыль, дым, туман;&nbsp;&nbsp;Органические пары и газы. Особенности: - Универсальный размер - Индивидуальная упаковка Применение: Респиратор предназначен для защиты органов дыхания от высоко- и среднедисперсных аэрозолей высоко опасных и умеренно опасных вредных веществ с содержанием до 12 ПДК р.з., паров и газов органического происхождения до 5 ПДК р.з.. Область применения: лакокрасочные работы, операции связанные с нагревом металлов, работа с химконцентратами.";s:4:"dpic";s:28:"/upload/iblock/829/12995.jpg";s:11:"preview_pic";s:28:"/upload/iblock/5e8/12995.jpg";s:4:"bxid";s:6:"201263";s:5:"alias";s:0:"";s:7:"section";s:5:"11690";}i:38;a:14:{s:2:"id";s:4:"1036";s:3:"act";s:1:"N";s:9:"prod_type";s:0:"";s:4:"name";s:73:"Респиратор Алина-АВ (клапан) от 5 до 12 ПДК";s:3:"art";s:10:"РесАВ";s:6:"search";s:1364:"РЕСПИРАТОР АЛИНА-АВ (КЛАПАН) ОТ 5 ДО 12 ПДК
ОБЛАСТЬ ПРИМЕНЕНИЯ: ПРОМЫШЛЕННОСТЬ КЛАСС ЗАЩИТЫ: FFP 2 NR D С КЛАПАНОМ ВЫДОХА: ДА ПРОТИВОГАЗОАЭРОЗОЛЬНЫЙ: ДА ЗАЩИТА:  ПЫЛЬ, ДЫМ, ТУМАН;  НЕОРГАНИЧЕСКИЕ ПАРЫ И ГАЗЫ;  ОРГАНИЧЕСКИЕ ПАРЫ И ГАЗЫ;  ПАРЫ И ГАЗЫ ОТ НАГРЕВА МЕТАЛЛОВ. ОСОБЕННОСТИ: - УГОЛЬНЫЙ ФИЛЬТР - УНИВЕРСАЛЬНЫЙ РАЗМЕР - РЕГУЛИРУЕМЫЕ ЛЕНТЫ ОГОЛОВЬЯ - ИНДИВИДУАЛЬНАЯ УПАКОВКА ПРИМЕНЕНИЕ: РЕСПИРАТОР ПРЕДНАЗНАЧЕН ДЛЯ ЗАЩИТЫ ОРГАНОВ ДЫХАНИЯ ОТ ВЫСОКО- И СРЕДНЕДИСПЕРСНЫХ АЭРОЗОЛЕЙ С СОДЕРЖАНИЕМ ДО 12 ПДК, А ТАКЖЕ ПАРОВ И ГАЗОВ ОРГАНИЧЕСКОГО И НЕОРГАНИЧЕСКОГО ПРОИСХОЖДЕНИЯ ДО 5 ПДК Р.З.. ОБЛАСТЬ ПРИМЕНЕНИЯ: СВАРОЧНЫЕ ПРОИЗВОДСТВА, ЧЕРНАЯ И ЦВЕТНАЯ МЕТАЛЛУРГИЯ, СУДОСТРОЕНИЕ, МАШИНОСТРОЕНИЕ, ЛИТЕЙНЫЕ ПРОИЗВОДСТВА, ЛАКОКРАСОЧНЫЕ И ГАЛЬВАНИЧЕСКИЕ РАБОТЫ.";s:6:"parent";s:2:"39";s:4:"durl";s:102:"sredstva-individualnoy-zashchity/zashchita-organov-dykhaniya/respirator-alina-av-klapan-ot-5-do-12-pdk";s:4:"dtxt";s:1329:"Область применения: Промышленность Класс защиты: FFP 2 NR D С клапаном выдоха: да Противогазоаэрозольный: да Защита:&nbsp;&nbsp;Пыль, дым, туман;&nbsp;&nbsp;Неорганические пары и газы;&nbsp;&nbsp;Органические пары и газы;&nbsp;&nbsp;Пары и газы от нагрева металлов. Особенности: - Угольный фильтр - Универсальный размер - Регулируемые ленты оголовья - Индивидуальная упаковка Применение: Респиратор предназначен для защиты органов дыхания от высоко- и среднедисперсных аэрозолей с содержанием до 12 ПДК, а также паров и газов органического и неорганического происхождения до 5 ПДК р.з.. Область применения: сварочные производства, черная и цветная металлургия, судостроение, машиностроение, литейные производства, лакокрасочные и гальванические работы.";s:4:"dpic";s:27:"/upload/iblock/52c/7697.jpg";s:11:"preview_pic";s:27:"/upload/iblock/dd7/7697.jpg";s:4:"bxid";s:6:"201264";s:5:"alias";s:0:"";s:7:"section";s:5:"11690";}i:39;a:14:{s:2:"id";s:4:"1037";s:3:"act";s:1:"N";s:9:"prod_type";s:0:"";s:4:"name";s:67:"Респиратор Нева-100 (б/клапана) до 4 ПДК";s:3:"art";s:11:"Рес100Н";s:6:"search";s:660:"РЕСПИРАТОР НЕВА-100 (Б/КЛАПАНА) ДО 4 ПДК

ОБЛАСТЬ ПРИМЕНЕНИЯ: ПРОМЫШЛЕННОСТЬ КЛАСС ЗАЩИТЫ: FFP 1 NR D С КЛАПАНОМ ВЫДОХА: НЕТ ЗАЩИТА: ПЫЛЬ, ДЫМ, ТУМАН. РЕСПИРАТОР ПРЕДНАЗНАЧЕН ДЛЯ ЗАЩИТЫ ОРГАНОВ ДЫХАНИЯ ОТ АЭРОЗОЛЕЙ ПРИ ИХ КОНЦЕНТРАЦИИ ДО 4 ПДК Р.З.. ОБЛАСТЬ ПРИМЕНЕНИЯ: РЕКОМЕНДУЕТСЯ ДЛЯ ОБЩЕПРОИЗВОДСТВЕННЫХ И СТРОИТЕЛЬНЫХ РАБОТ ПРИ НЕВЫСОКОЙ КОНЦЕНТРАЦИИ АЭРОЗОЛЕЙ. .";s:6:"parent";s:2:"39";s:4:"durl";s:99:"sredstva-individualnoy-zashchity/zashchita-organov-dykhaniya/respirator-neva-100-b-klapana-do-4-pdk";s:4:"dtxt";s:589:"Область применения: Промышленность Класс защиты: FFP 1 NR D С клапаном выдоха: нет Защита: Пыль, дым, туман. Респиратор предназначен для защиты органов дыхания от аэрозолей при их концентрации до 4 ПДК р.з.. Область применения: рекомендуется для общепроизводственных и строительных работ при невысокой концентрации аэрозолей. .";s:4:"dpic";s:28:"/upload/iblock/9a5/12964.jpg";s:11:"preview_pic";s:28:"/upload/iblock/010/12964.jpg";s:4:"bxid";s:6:"201265";s:5:"alias";s:0:"";s:7:"section";s:5:"11690";}i:40;a:14:{s:2:"id";s:4:"1038";s:3:"act";s:1:"N";s:9:"prod_type";s:0:"";s:4:"name";s:62:"Респиратор Нева-110 (клапан) до 4 ПДК";s:3:"art";s:11:"Рес110Н";s:6:"search";s:916:"РЕСПИРАТОР НЕВА-110 (КЛАПАН) ДО 4 ПДК
ОБЛАСТЬ ПРИМЕНЕНИЯ: ПРОМЫШЛЕННОСТЬ КЛАСС ЗАЩИТЫ: FFP 1 NR D С КЛАПАНОМ ВЫДОХА: ДА ЗАЩИТА: ПЫЛЬ, ДЫМ, ТУМАН. РЕСПИРАТОР С КЛАПАНОМ ВЫДОХА ПРЕДНАЗНАЧЕН ДЛЯ ЗАЩИТЫ ОРГАНОВ ДЫХАНИЯ ОТ АЭРОЗОЛЕЙ ПРИ ИХ КОНЦЕНТРАЦИИ ДО 4 ПДК Р.З.. КЛАПАН ВЫДОХА ОБЕСПЕЧИВАЕТ ПОНИЖЕНИЕ ВЛАЖНОСТИ И ТЕМПЕРАТУРЫ В ПОДМАСОЧНОМ ПРОСТРАНСТВЕ, СОЗДАВАЯ КОМФОРТНЫЕ УСЛОВИЯ РАБОТЫ. ОБЛАСТЬ ПРИМЕНЕНИЯ: РЕКОМЕНДУЕТСЯ ДЛЯ ОБЩЕПРОИЗВОДСТВЕННЫХ И СТРОИТЕЛЬНЫХ РАБОТ ПРИ НЕВЫСОКОЙ КОНЦЕНТРАЦИИ АЭРОЗОЛЕЙ.";s:6:"parent";s:2:"39";s:4:"durl";s:96:"sredstva-individualnoy-zashchity/zashchita-organov-dykhaniya/respirator-neva-110-klapan-do-4-pdk";s:4:"dtxt";s:852:"Область применения: Промышленность Класс защиты: FFP 1 NR D С клапаном выдоха: да Защита: Пыль, дым, туман. Респиратор с клапаном выдоха предназначен для защиты органов дыхания от аэрозолей при их концентрации до 4 ПДК р.з.. Клапан выдоха обеспечивает понижение влажности и температуры в подмасочном пространстве, создавая комфортные условия работы. Область применения: рекомендуется для общепроизводственных и строительных работ при невысокой концентрации аэрозолей.";s:4:"dpic";s:28:"/upload/iblock/509/12965.jpg";s:11:"preview_pic";s:28:"/upload/iblock/0f6/12965.jpg";s:4:"bxid";s:6:"201266";s:5:"alias";s:0:"";s:7:"section";s:5:"11690";}i:41;a:14:{s:2:"id";s:4:"1039";s:3:"act";s:1:"N";s:9:"prod_type";s:0:"";s:4:"name";s:30:"Респиратор РПГ-67";s:3:"art";s:10:"Рес67А";s:6:"search";s:802:"РЕСПИРАТОР РПГ-67
ГОСТ 12.4.041-2001 СТЕПЕНЬ ЗАЩИТЫ: 10-15 ПДК МАТЕРИАЛ: РЕЗИНОВАЯ ПОЛУМАСКА КЛАПАН ВЫДОХА: ЕСТЬ ЗАЩИТНЫЕ СВОЙСТВА: ПРЕДНАЗНАЧЕН ДЛЯ ЗАЩИТЫ ОРГАНОВ ДЫХАНИЯ ОТ ПАРООБРАЗНЫХ И ГАЗООБРАЗНЫХ ВРЕДНЫХ ВЕЩЕСТВ, СРЕДНЕДИСПЕРСНЫХ И ВЫСОКОДИСПЕРСНЫХ АЭРОЗОЛЕЙ, ЗА ИСКЛЮЧЕНИЕМ ВЕЩЕСТВ ВЫСОКОТОКСИЧНЫХ И НЕУСТОЙЧИВЫХ В ВОЗДУХЕ, А ТАКЖЕ ВЕЩЕСТВ ПРОНИКАЮЩИХ ЧЕРЕЗ КОЖУ. ОСОБЕННОСТИ МОДЕЛИ: КОМПЛЕКТУЮТСЯ СМЕННЫМИ ФИЛЬТРАМИ МАРОК А1, В1, Е1, К1 .";s:6:"parent";s:2:"39";s:4:"durl";s:78:"sredstva-individualnoy-zashchity/zashchita-organov-dykhaniya/respirator-rpg-67";s:4:"dtxt";s:770:"ГОСТ 12.4.041-2001 Степень защиты: 10-15 ПДК Материал: резиновая полумаска Клапан выдоха: есть Защитные свойства: Предназначен для защиты органов дыхания от парообразных и газообразных вредных веществ, среднедисперсных и высокодисперсных аэрозолей, за исключением веществ высокотоксичных и неустойчивых в воздухе, а также веществ проникающих через кожу. Особенности модели: комплектуются сменными фильтрами марок А1, В1, Е1, К1 .";s:4:"dpic";s:27:"/upload/iblock/d24/5467.jpg";s:11:"preview_pic";s:27:"/upload/iblock/242/5467.jpg";s:4:"bxid";s:6:"201267";s:5:"alias";s:0:"";s:7:"section";s:5:"11690";}i:42;a:14:{s:2:"id";s:4:"1040";s:3:"act";s:1:"N";s:9:"prod_type";s:0:"";s:4:"name";s:74:"Респиратор РПГ-67 В1 (неорганические газы)";s:3:"art";s:10:"Рес67В";s:6:"search";s:846:"РЕСПИРАТОР РПГ-67 В1 (НЕОРГАНИЧЕСКИЕ ГАЗЫ)
ГОСТ 12.4.041-2001 СТЕПЕНЬ ЗАЩИТЫ: 10-15 ПДК МАТЕРИАЛ: РЕЗИНОВАЯ ПОЛУМАСКА КЛАПАН ВЫДОХА: ЕСТЬ ЗАЩИТНЫЕ СВОЙСТВА: ПРЕДНАЗНАЧЕН ДЛЯ ЗАЩИТЫ ОРГАНОВ ДЫХАНИЯ ОТ ПАРООБРАЗНЫХ И ГАЗООБРАЗНЫХ ВРЕДНЫХ ВЕЩЕСТВ, СРЕДНЕДИСПЕРСНЫХ И ВЫСОКОДИСПЕРСНЫХ АЭРОЗОЛЕЙ, ЗА ИСКЛЮЧЕНИЕМ ВЕЩЕСТВ ВЫСОКОТОКСИЧНЫХ И НЕУСТОЙЧИВЫХ В ВОЗДУХЕ, А ТАКЖЕ ВЕЩЕСТВ ПРОНИКАЮЩИХ ЧЕРЕЗ КОЖУ. ОСОБЕННОСТИ МОДЕЛИ: КОМПЛЕКТУЮТСЯ СМЕННЫМИ ФИЛЬТРАМИ МАРОК А1, В1, Е1, К1 .";s:6:"parent";s:2:"39";s:4:"durl";s:102:"sredstva-individualnoy-zashchity/zashchita-organov-dykhaniya/respirator-rpg-67-v1-neorganicheskie-gazy";s:4:"dtxt";s:770:"ГОСТ 12.4.041-2001 Степень защиты: 10-15 ПДК Материал: резиновая полумаска Клапан выдоха: есть Защитные свойства: Предназначен для защиты органов дыхания от парообразных и газообразных вредных веществ, среднедисперсных и высокодисперсных аэрозолей, за исключением веществ высокотоксичных и неустойчивых в воздухе, а также веществ проникающих через кожу. Особенности модели: комплектуются сменными фильтрами марок А1, В1, Е1, К1 .";s:4:"dpic";s:27:"/upload/iblock/fc7/3716.jpg";s:11:"preview_pic";s:27:"/upload/iblock/b61/3716.jpg";s:4:"bxid";s:6:"201268";s:5:"alias";s:0:"";s:7:"section";s:5:"11690";}i:43;a:14:{s:2:"id";s:4:"1041";s:3:"act";s:1:"N";s:9:"prod_type";s:0:"";s:4:"name";s:33:"Респиратор РПГ-67 К";s:3:"art";s:11:"Рес67К1";s:6:"search";s:805:"РЕСПИРАТОР РПГ-67 К
ГОСТ 12.4.041-2001 СТЕПЕНЬ ЗАЩИТЫ: 10-15 ПДК МАТЕРИАЛ: РЕЗИНОВАЯ ПОЛУМАСКА КЛАПАН ВЫДОХА: ЕСТЬ ЗАЩИТНЫЕ СВОЙСТВА: ПРЕДНАЗНАЧЕН ДЛЯ ЗАЩИТЫ ОРГАНОВ ДЫХАНИЯ ОТ ПАРООБРАЗНЫХ И ГАЗООБРАЗНЫХ ВРЕДНЫХ ВЕЩЕСТВ, СРЕДНЕДИСПЕРСНЫХ И ВЫСОКОДИСПЕРСНЫХ АЭРОЗОЛЕЙ, ЗА ИСКЛЮЧЕНИЕМ ВЕЩЕСТВ ВЫСОКОТОКСИЧНЫХ И НЕУСТОЙЧИВЫХ В ВОЗДУХЕ, А ТАКЖЕ ВЕЩЕСТВ ПРОНИКАЮЩИХ ЧЕРЕЗ КОЖУ. ОСОБЕННОСТИ МОДЕЛИ: КОМПЛЕКТУЮТСЯ СМЕННЫМИ ФИЛЬТРАМИ МАРОК А1, В1, Е1, К1 .";s:6:"parent";s:2:"39";s:4:"durl";s:80:"sredstva-individualnoy-zashchity/zashchita-organov-dykhaniya/respirator-rpg-67-k";s:4:"dtxt";s:770:"ГОСТ 12.4.041-2001 Степень защиты: 10-15 ПДК Материал: резиновая полумаска Клапан выдоха: есть Защитные свойства: Предназначен для защиты органов дыхания от парообразных и газообразных вредных веществ, среднедисперсных и высокодисперсных аэрозолей, за исключением веществ высокотоксичных и неустойчивых в воздухе, а также веществ проникающих через кожу. Особенности модели: комплектуются сменными фильтрами марок А1, В1, Е1, К1 .";s:4:"dpic";s:28:"/upload/iblock/d64/10717.jpg";s:11:"preview_pic";s:28:"/upload/iblock/e77/10717.jpg";s:4:"bxid";s:6:"201269";s:5:"alias";s:0:"";s:7:"section";s:5:"11690";}i:44;a:14:{s:2:"id";s:4:"1042";s:3:"act";s:1:"N";s:9:"prod_type";s:0:"";s:4:"name";s:30:"Респиратор РУ-60М";s:3:"art";s:12:"Рес60МА";s:6:"search";s:814:"РЕСПИРАТОР РУ-60М
ГОСТ 12.4.041-2001 СТЕПЕНЬ ЗАЩИТЫ: 10-15 ПДК МАТЕРИАЛ: РЕЗИНОВАЯ ПОЛУМАСКА КЛАПАН ВЫДОХА: ЕСТЬ ЗАЩИТНЫЕ СВОЙСТВА: ПРЕДНАЗНАЧЕН ДЛЯ ЗАЩИТЫ ОРГАНОВ ДЫХАНИЯ ОТ ПАРООБРАЗНЫХ И ГАЗООБРАЗНЫХ ВРЕДНЫХ ВЕЩЕСТВ, СРЕДНЕДИСПЕРСНЫХ И ВЫСОКОДИСПЕРСНЫХ АЭРОЗОЛЕЙ, ЗА ИСКЛЮЧЕНИЕМ ВЕЩЕСТВ ВЫСОКОТОКСИЧНЫХ И НЕУСТОЙЧИВЫХ В ВОЗДУХЕ, А ТАКЖЕ ВЕЩЕСТВ ПРОНИКАЮЩИХ ЧЕРЕЗ КОЖУ. ОСОБЕННОСТИ МОДЕЛИ: КОМПЛЕКТУЮТСЯ СМЕННЫМИ ФИЛЬТРАМИ МАРОК А1Р1, В1Р1, Е1Р1, К1Р1 .";s:6:"parent";s:2:"39";s:4:"durl";s:78:"sredstva-individualnoy-zashchity/zashchita-organov-dykhaniya/respirator-ru-60m";s:4:"dtxt";s:782:"ГОСТ 12.4.041-2001 Степень защиты: 10-15 ПДК Материал: резиновая полумаска Клапан выдоха: есть Защитные свойства: Предназначен для защиты органов дыхания от парообразных и газообразных вредных веществ, среднедисперсных и высокодисперсных аэрозолей, за исключением веществ высокотоксичных и неустойчивых в воздухе, а также веществ проникающих через кожу. Особенности модели: комплектуются сменными фильтрами марок А1Р1, В1Р1, Е1Р1, К1Р1 .";s:4:"dpic";s:27:"/upload/iblock/0e5/5725.jpg";s:11:"preview_pic";s:27:"/upload/iblock/f3f/5725.jpg";s:4:"bxid";s:6:"201270";s:5:"alias";s:0:"";s:7:"section";s:5:"11690";}i:45;a:14:{s:2:"id";s:4:"1043";s:3:"act";s:1:"N";s:9:"prod_type";s:0:"";s:4:"name";s:36:"Респиратор РУ-60М В1Р";s:3:"art";s:12:"Рес60МВ";s:6:"search";s:820:"РЕСПИРАТОР РУ-60М В1Р
ГОСТ 12.4.041-2001 СТЕПЕНЬ ЗАЩИТЫ: 10-15 ПДК МАТЕРИАЛ: РЕЗИНОВАЯ ПОЛУМАСКА КЛАПАН ВЫДОХА: ЕСТЬ ЗАЩИТНЫЕ СВОЙСТВА: ПРЕДНАЗНАЧЕН ДЛЯ ЗАЩИТЫ ОРГАНОВ ДЫХАНИЯ ОТ ПАРООБРАЗНЫХ И ГАЗООБРАЗНЫХ ВРЕДНЫХ ВЕЩЕСТВ, СРЕДНЕДИСПЕРСНЫХ И ВЫСОКОДИСПЕРСНЫХ АЭРОЗОЛЕЙ, ЗА ИСКЛЮЧЕНИЕМ ВЕЩЕСТВ ВЫСОКОТОКСИЧНЫХ И НЕУСТОЙЧИВЫХ В ВОЗДУХЕ, А ТАКЖЕ ВЕЩЕСТВ ПРОНИКАЮЩИХ ЧЕРЕЗ КОЖУ. ОСОБЕННОСТИ МОДЕЛИ: КОМПЛЕКТУЮТСЯ СМЕННЫМИ ФИЛЬТРАМИ МАРОК А1Р1, В1Р1, Е1Р1, К1Р1 .";s:6:"parent";s:2:"39";s:4:"durl";s:82:"sredstva-individualnoy-zashchity/zashchita-organov-dykhaniya/respirator-ru-60m-v1r";s:4:"dtxt";s:782:"ГОСТ 12.4.041-2001 Степень защиты: 10-15 ПДК Материал: резиновая полумаска Клапан выдоха: есть Защитные свойства: Предназначен для защиты органов дыхания от парообразных и газообразных вредных веществ, среднедисперсных и высокодисперсных аэрозолей, за исключением веществ высокотоксичных и неустойчивых в воздухе, а также веществ проникающих через кожу. Особенности модели: комплектуются сменными фильтрами марок А1Р1, В1Р1, Е1Р1, К1Р1 .";s:4:"dpic";s:27:"/upload/iblock/927/3708.jpg";s:11:"preview_pic";s:27:"/upload/iblock/8a8/3708.jpg";s:4:"bxid";s:6:"201271";s:5:"alias";s:0:"";s:7:"section";s:5:"11690";}i:46;a:14:{s:2:"id";s:4:"1044";s:3:"act";s:1:"N";s:9:"prod_type";s:0:"";s:4:"name";s:36:"Респиратор РУ-60М К1Р";s:3:"art";s:12:"Рес60МК";s:6:"search";s:820:"РЕСПИРАТОР РУ-60М К1Р
ГОСТ 12.4.041-2001 СТЕПЕНЬ ЗАЩИТЫ: 10-15 ПДК МАТЕРИАЛ: РЕЗИНОВАЯ ПОЛУМАСКА КЛАПАН ВЫДОХА: ЕСТЬ ЗАЩИТНЫЕ СВОЙСТВА: ПРЕДНАЗНАЧЕН ДЛЯ ЗАЩИТЫ ОРГАНОВ ДЫХАНИЯ ОТ ПАРООБРАЗНЫХ И ГАЗООБРАЗНЫХ ВРЕДНЫХ ВЕЩЕСТВ, СРЕДНЕДИСПЕРСНЫХ И ВЫСОКОДИСПЕРСНЫХ АЭРОЗОЛЕЙ, ЗА ИСКЛЮЧЕНИЕМ ВЕЩЕСТВ ВЫСОКОТОКСИЧНЫХ И НЕУСТОЙЧИВЫХ В ВОЗДУХЕ, А ТАКЖЕ ВЕЩЕСТВ ПРОНИКАЮЩИХ ЧЕРЕЗ КОЖУ. ОСОБЕННОСТИ МОДЕЛИ: КОМПЛЕКТУЮТСЯ СМЕННЫМИ ФИЛЬТРАМИ МАРОК А1Р1, В1Р1, Е1Р1, К1Р1 .";s:6:"parent";s:2:"39";s:4:"durl";s:82:"sredstva-individualnoy-zashchity/zashchita-organov-dykhaniya/respirator-ru-60m-k1r";s:4:"dtxt";s:782:"ГОСТ 12.4.041-2001 Степень защиты: 10-15 ПДК Материал: резиновая полумаска Клапан выдоха: есть Защитные свойства: Предназначен для защиты органов дыхания от парообразных и газообразных вредных веществ, среднедисперсных и высокодисперсных аэрозолей, за исключением веществ высокотоксичных и неустойчивых в воздухе, а также веществ проникающих через кожу. Особенности модели: комплектуются сменными фильтрами марок А1Р1, В1Р1, Е1Р1, К1Р1 .";s:4:"dpic";s:28:"/upload/iblock/efd/15823.jpg";s:11:"preview_pic";s:28:"/upload/iblock/a32/15823.jpg";s:4:"bxid";s:6:"201272";s:5:"alias";s:0:"";s:7:"section";s:5:"11690";}i:47;a:14:{s:2:"id";s:4:"1045";s:3:"act";s:1:"N";s:9:"prod_type";s:0:"";s:4:"name";s:26:"Респиратор У2К";s:3:"art";s:13:"РесУ2КП";s:6:"search";s:863:"РЕСПИРАТОР У2К
СТЕПЕНЬ ЗАЩИТЫ: FFP1 (4 ПДК) МАТЕРИАЛ: ПОРОЛОН, ФП КЛАПАН ВЫДОХА: ЕСТЬ ЗАЩИТНЫЕ СВОЙСТВА: ПРЕДНАЗНАЧЕН ДЛЯ ЗАЩИТЫ ОРГАНОВ ДЫХАНИЯ ОТ РАЗЛИЧНЫХ ВИДОВ АЭРОЗОЛЕЙ - РАСТИТЕЛЬНЫХ, ЖИВОТНЫХ, МЕТАЛЛУРГИЧЕСКИХ, МИНЕРАЛЬНЫХ, ПЫЛИ СИНТЕТИЧЕСКИХ МОЮЩИХ ВЕЩЕСТВ, НАХОДЯЩИХСЯ В ВОЗДУХЕ ПРИ КОНЦЕНТРАЦИИ НЕ БОЛЕЕ 200 МГ/М3. ОСОБЕННОСТИ МОДЕЛИ: СРОК ЭКСПЛУАТАЦИИ ДО 30 РАБОЧИХ СМЕН В ЗАВИСИМОСТИ ОТ КОНЦЕНТАЦИИ ПЫЛИ, ВЛАЖНОСТИ, ТЕМПЕРАТУРЫ ВОЗДУХА, А ТАК ЖЕ ФИЗИЧЕСКОЙ НАГРУЗКИ.";s:6:"parent";s:2:"39";s:4:"durl";s:75:"sredstva-individualnoy-zashchity/zashchita-organov-dykhaniya/respirator-u2k";s:4:"dtxt";s:843:"Степень защиты: FFP1 &#40;4 ПДК&#41; Материал: поролон, ФП Клапан выдоха: есть Защитные свойства: Предназначен для защиты органов дыхания от различных видов аэрозолей - растительных, животных, металлургических, минеральных, пыли синтетических моющих веществ, находящихся в воздухе при концентрации не более 200 мг/м3. Особенности модели: Срок эксплуатации до 30 рабочих смен в зависимости от концентации пыли, влажности, температуры воздуха, а так же физической нагрузки.";s:4:"dpic";s:27:"/upload/iblock/1ac/3717.jpg";s:11:"preview_pic";s:27:"/upload/iblock/bc1/3717.jpg";s:4:"bxid";s:6:"201273";s:5:"alias";s:0:"";s:7:"section";s:5:"11690";}i:48;a:14:{s:2:"id";s:4:"1046";s:3:"act";s:1:"N";s:9:"prod_type";s:0:"";s:4:"name";s:28:"Респиратор Ф-62Ш";s:3:"art";s:12:"РесФ62Ш";s:6:"search";s:887:"РЕСПИРАТОР Ф-62Ш
СТЕПЕНЬ ЗАЩИТЫ: 10-100 ПДК МАТЕРИАЛ: РЕЗИНОВАЯ ПОЛУМАСКА КЛАПАН ВЫДОХА: ЕСТЬ ЗАЩИТНЫЕ СВОЙСТВА: ПРЕДНАЗНАЧЕН ДЛЯ ЗАЩИТЫ ОРГАНОВ ДЫХАНИЯ ОТ СИЛИКАТНОЙ, МЕТАЛЛУРГИЧЕСКОЙ, ГОРНОРУДНОЙ, УГОЛЬНОЙ, ТАБАЧНОЙ ПЫЛИ, ПЫЛИ ПОРОШКООБРАЗНЫХ УДОБРЕНИЙ И ИНТОКСИЦИДОВ, А ТАКЖЕ ДРУГИХ ВИДОВ ПЫЛИ, НЕ ВЫДЕЛЯЮЩИХ ТОКСИЧЕСКИХ ГАЗОВ. ОСОБЕННОСТИ МОДЕЛИ: КОМПЛЕКТУЮТСЯ СМЕННЫМ ФИЛЬТРОМ. СРОК ЭКСПЛУАТАЦИИ ДО 10 РАБОЧИХ СМЕН В ЗАВИСИМОСТИ ОТ КОНЦЕНТАЦИИ ПЫЛИ, ВЛАЖНОСТИ, ТЕМПЕРАТУРЫ ВОЗДУХА.";s:6:"parent";s:2:"39";s:4:"durl";s:78:"sredstva-individualnoy-zashchity/zashchita-organov-dykhaniya/respirator-f-62sh";s:4:"dtxt";s:857:"Степень защиты: 10-100 ПДК Материал: резиновая полумаска Клапан выдоха: есть Защитные свойства: Предназначен для защиты органов дыхания от силикатной, металлургической, горнорудной, угольной, табачной пыли, пыли порошкообразных удобрений и интоксицидов, а также других видов пыли, не выделяющих токсических газов. Особенности модели: комплектуются сменным фильтром. Срок эксплуатации до 10 рабочих смен в зависимости от концентации пыли, влажности, температуры воздуха.";s:4:"dpic";s:27:"/upload/iblock/f0d/3709.jpg";s:11:"preview_pic";s:27:"/upload/iblock/1b7/3709.jpg";s:4:"bxid";s:6:"201274";s:5:"alias";s:0:"";s:7:"section";s:5:"11690";}i:49;a:14:{s:2:"id";s:4:"1047";s:3:"act";s:1:"N";s:9:"prod_type";s:0:"";s:4:"name";s:67:"Респиратор Юлия-100 (б/клапана) до 4 ПДК";s:3:"art";s:11:"Рес100Ю";s:6:"search";s:986:"РЕСПИРАТОР ЮЛИЯ-100 (Б/КЛАПАНА) ДО 4 ПДК
ОБЛАСТЬ ПРИМЕНЕНИЯ: ПРОМЫШЛЕННОСТЬ С КЛАПАНОМ ВЫДОХА: НЕТ ЗАЩИТА: ПЫЛЬ, ДЫМ, ТУМАН. РЕСПИРАТОР С КЛАПАНОМ ВЫДОХА ПРЕДНАЗНАЧЕН ДЛЯ ЗАЩИТЫ ОРГАНОВ ДЫХАНИЯ ОТ АЭРОЗОЛЕЙ ПРИ ИХ КОНЦЕНТРАЦИИ ДО 4 ПДК Р.З.. РЕСПИРАТОР ОСНАЩЕН МЯГКОЙ ПОДКЛАДКОЙ ПОД ПЕРЕНОСИЦУ. КЛАПАН ВЫДОХА ОБЕСПЕЧИВАЕТ ПОНИЖЕНИЕ ВЛАЖНОСТИ И ТЕМПЕРАТУРЫ В ПОДМАСОЧНОМ ПРОСТРАНСТВЕ, СОЗДАВАЯ КОМФОРТНЫЕ УСЛОВИЯ РАБОТЫ. ОБЛАСТЬ ПРИМЕНЕНИЯ: РЕКОМЕНДУЕТСЯ ДЛЯ ОБЩЕПРОИЗВОДСТВЕННЫХ И СТРОИТЕЛЬНЫХ РАБОТ ПРИ НЕВЫСОКОЙ КОНЦЕНТРАЦИИ АЭРОЗОЛЕЙ.";s:6:"parent";s:2:"39";s:4:"durl";s:101:"sredstva-individualnoy-zashchity/zashchita-organov-dykhaniya/respirator-yuliya-100-b-klapana-do-4-pdk";s:4:"dtxt";s:917:"Область применения: Промышленность С клапаном выдоха: нет Защита: Пыль, дым, туман. Респиратор с клапаном выдоха предназначен для защиты органов дыхания от аэрозолей при их концентрации до 4 ПДК р.з.. Респиратор оснащен мягкой подкладкой под переносицу. Клапан выдоха обеспечивает понижение влажности и температуры в подмасочном пространстве, создавая комфортные условия работы. Область применения: рекомендуется для общепроизводственных и строительных работ при невысокой концентрации аэрозолей.";s:4:"dpic";s:28:"/upload/iblock/8cb/12993.jpg";s:11:"preview_pic";s:28:"/upload/iblock/ddd/12993.jpg";s:4:"bxid";s:6:"201275";s:5:"alias";s:0:"";s:7:"section";s:5:"11690";}i:50;a:14:{s:2:"id";s:4:"1048";s:3:"act";s:1:"N";s:9:"prod_type";s:0:"";s:4:"name";s:67:"Респиратор Юлия-109 (б/клапана) до 4 ПДК";s:3:"art";s:11:"Рес109Ю";s:6:"search";s:676:"РЕСПИРАТОР ЮЛИЯ-109 (Б/КЛАПАНА) ДО 4 ПДК
ОБЛАСТЬ ПРИМЕНЕНИЯ: ПРОМЫШЛЕННОСТЬ КЛАСС ЗАЩИТЫ: FFP 1 R D С КЛАПАНОМ ВЫДОХА: НЕТ ЗАЩИТА: ПЫЛЬ, ДЫМ, ТУМАН. ОСОБЕННОСТИ: - ОБЛЕГЧЕННЫЙ КОРПУС ПОЛУМАСКИ - ГИПОАЛЛЕРГЕННЫЙ МАТЕРИАЛ - ШИРОКИЙ УГОЛ ОБЗОРА - ВОЗМОЖНОСТЬ МНОГОРАЗОВОГО ПРИМЕНЕНИЯ ПРИМЕНЕНИЕ: ЗАЩИТА ОРГАНОВ ДЫХАНИЯ ОТ ВЫСОКО- И СРЕДНЕДИСПЕРСНЫХ АЭРОЗОЛЕЙ С СОДЕРЖАНИЕМ ДО 4 ПДК";s:6:"parent";s:2:"39";s:4:"durl";s:101:"sredstva-individualnoy-zashchity/zashchita-organov-dykhaniya/respirator-yuliya-109-b-klapana-do-4-pdk";s:4:"dtxt";s:607:"Область применения: Промышленность Класс защиты: FFP 1 R D С клапаном выдоха: нет Защита: Пыль, дым, туман. Особенности: - Облегченный корпус полумаски - Гипоаллергенный материал - Широкий угол обзора - Возможность многоразового применения Применение: Защита органов дыхания от высоко- и среднедисперсных аэрозолей с содержанием до 4 ПДК";s:4:"dpic";s:28:"/upload/iblock/958/14564.jpg";s:11:"preview_pic";s:28:"/upload/iblock/340/14564.jpg";s:4:"bxid";s:6:"201276";s:5:"alias";s:0:"";s:7:"section";s:5:"11690";}i:51;a:14:{s:2:"id";s:4:"1049";s:3:"act";s:1:"N";s:9:"prod_type";s:0:"";s:4:"name";s:62:"Респиратор Юлия-119 (клапан) до 4 ПДК";s:3:"art";s:11:"Рес119Ю";s:6:"search";s:814:"РЕСПИРАТОР ЮЛИЯ-119 (КЛАПАН) ДО 4 ПДК
СТЕПЕНЬ ЗАЩИТЫ: FFP1 (4ПДК) МАТЕРИАЛ: ФОРМОВАННАЯ ПОЛУМАСКА С ОБТЮРАТОРОМ ИЗ ВСПЕНЕННОГО ПОЛИМЕРА КЛАПАН ВЫДОХА: ЕСТЬ ЗАЩИТНЫЕ СВОЙСТВА: ПРЕДНАЗНАЧЕН ДЛЯ ЗАЩИТЫ ОРГАНОВ ДЫХАНИЯ ОТ ПЫЛИ, ДЫМА, ПРИ РАБОТАХ, СВЯЗАННЫХ С БОЛЬШИМИ ФИЗИЧЕСКИМИ НАГРУЗКАМИ. ОСОБЕННОСТИ МОДЕЛИ: ОБЛЕГЧЕННЫЙ КОРПУС ПОЛУМАСКИ, ГИПОАЛЛЕРГЕННЫЙ МАТЕРИАЛ, ШИРОКИЙ УГОЛ ОБЗОРА, ВОЗМОЖНОСТЬ МНОГОРАЗОВОГО ПРИМЕНЕНИЯ. НЕ ПОДВЕРЖЕН ВОЗГОРАНИЮ.";s:6:"parent";s:2:"39";s:4:"durl";s:98:"sredstva-individualnoy-zashchity/zashchita-organov-dykhaniya/respirator-yuliya-119-klapan-do-4-pdk";s:4:"dtxt";s:758:"Степень защиты: FFP1 &#40;4ПДК&#41; Материал: формованная полумаска с обтюратором из вспененного полимера Клапан выдоха: есть Защитные свойства: Предназначен для защиты органов дыхания от пыли, дыма, при работах, связанных с большими физическими нагрузками. Особенности модели: Облегченный корпус полумаски, гипоаллергенный материал, широкий угол обзора, возможность многоразового применения. Не подвержен возгоранию.";s:4:"dpic";s:28:"/upload/iblock/504/14565.jpg";s:11:"preview_pic";s:28:"/upload/iblock/9a8/14565.jpg";s:4:"bxid";s:6:"201277";s:5:"alias";s:0:"";s:7:"section";s:5:"11690";}i:52;a:14:{s:2:"id";s:4:"1050";s:3:"act";s:1:"N";s:9:"prod_type";s:0:"";s:4:"name";s:78:"Респиратор Юлия-119 (клапан) до 4 ПДК (к-т 10шт.)";s:3:"art";s:9:"Рес119";s:6:"search";s:1335:"РЕСПИРАТОР ЮЛИЯ-119 (КЛАПАН) ДО 4 ПДК (К-Т 10ШТ.)
ОБЛАСТЬ ПРИМЕНЕНИЯ: ПРОМЫШЛЕННОСТЬ КЛАСС ЗАЩИТЫ: FFP 1 R D С КЛАПАНОМ ВЫДОХА: ДА ЗАЩИТА: ПЫЛЬ, ДЫМ, ТУМАН. РЕСПИРАТОР ПРЕДСТАВЛЯЕТ СОБОЙ КОНСТРУКЦИЮ, СОСТОЯЩУЮ ИЗ ЖЕСТКОГО КАРКАСА С РЕГУЛИРУЕМЫМИ ЛЕНТАМИ ОГОЛОВЬЯ СО СПЕЦИАЛЬНОЙ ЗАСТЕЖКОЙ, КОМПЛЕКТА СМЕННЫХ ФИЛЬТРОВ В ВИДЕ ОБЛЕГЧЕННЫХ ФИЛЬТРУЮЩИХ ФОРМОВАННЫХ ПОЛУМАСОК С МЯГКИМ ОБТЮРАТОРОМ И УНИВЕРСАЛЬНОГО КЛАПАНА ВЫДОХА, ПРЕДУСМАТРИВАЮЩЕГО ЛЕГКУЮ ЗАМЕНУ ОТРАБОТАННОГО ФИЛЬТРА. ПОСТАВЛЯЕТСЯ КОМПЛЕКТАМИ 1/10 (КАРКАС С КЛАПАНОМ ВЫДОХА/10 СМЕННЫХ ФИЛЬТРОВ) РЕКОМЕНДУЕМАЯ ОБЛАСТЬ ПРИМЕНЕНИЯ: ПРОИЗВОДСТВЕННЫЕ РАБОТЫ В УСЛОВИЯХ ВЫСОКОЙ ЗАПЫЛЕННОСТИ С ПОВЫШЕННОЙ ВЛАЖНОСТЬЮ И ТЕМПЕРАТУРОЙ, ТРЕБУЮЩИХ ЧАСТУЮ ЗАМЕНУ ФИЛЬТРУЮЩЕГО ЭЛЕМЕНТА.";s:6:"parent";s:2:"39";s:4:"durl";s:109:"sredstva-individualnoy-zashchity/zashchita-organov-dykhaniya/respirator-yuliya-119-klapan-do-4-pdk-k-t-10sht-";s:4:"dtxt";s:1263:"Область применения: Промышленность Класс защиты: FFP 1 R D С клапаном выдоха: да Защита: Пыль, дым, туман. Респиратор представляет собой конструкцию, состоящую из жесткого каркаса с регулируемыми лентами оголовья со специальной застежкой, комплекта сменных фильтров в виде облегченных фильтрующих формованных полумасок с мягким обтюратором и универсального клапана выдоха, предусматривающего легкую замену отработанного фильтра. Поставляется комплектами 1/10 &#40;каркас с клапаном выдоха/10 сменных фильтров&#41; Рекомендуемая область применения: производственные работы в условиях высокой запыленности с повышенной влажностью и температурой, требующих частую замену фильтрующего элемента.";s:4:"dpic";s:28:"/upload/iblock/724/15012.jpg";s:11:"preview_pic";s:28:"/upload/iblock/88b/15012.jpg";s:4:"bxid";s:6:"201278";s:5:"alias";s:0:"";s:7:"section";s:5:"11690";}i:53;a:14:{s:2:"id";s:4:"1051";s:3:"act";s:1:"N";s:9:"prod_type";s:0:"";s:4:"name";s:68:"Респиратор Юлия-200 (б/клапана) до 12 ПДК";s:3:"art";s:11:"Рес200Ю";s:6:"search";s:790:"РЕСПИРАТОР ЮЛИЯ-200 (Б/КЛАПАНА) ДО 12 ПДК
ОБЛАСТЬ ПРИМЕНЕНИЯ: ПРОМЫШЛЕННОСТЬ КЛАСС ЗАЩИТЫ: FFP 2 NR D С КЛАПАНОМ ВЫДОХА: НЕТ ЗАЩИТА: ПЫЛЬ, ДЫМ, ТУМАН. РЕСПИРАТОР ПРЕДНАЗНАЧЕН ДЛЯ ЗАЩИТЫ ОРГАНОВ ДЫХАНИЯ ОТ АЭРОЗОЛЕЙ ПРИ ИХ КОНЦЕНТРАЦИИ ДО 12 ПДК Р.З.. ОБТЮРАТОР ИЗ ВСПЕНЕННОГО ПОЛИМЕРА ПО ВСЕМУ ПЕРИМЕТРУ ПОЛУМАСКИ ОБЕСПЕЧИВАЕТ ПЛОТНОЕ ПРИЛЕГАНИЕ К ЛИЦУ. ОБЛАСТЬ ПРИМЕНЕНИЯ: РЕКОМЕНДУЕТСЯ ДЛЯ ШИРОКОГО ПРИМЕНЕНИЯ ПРИ ПОВЫШЕННОЙ ЗАПЫЛЕННОСТИ";s:6:"parent";s:2:"39";s:4:"durl";s:102:"sredstva-individualnoy-zashchity/zashchita-organov-dykhaniya/respirator-yuliya-200-b-klapana-do-12-pdk";s:4:"dtxt";s:720:"Область применения: Промышленность Класс защиты: FFP 2 NR D С клапаном выдоха: нет Защита: Пыль, дым, туман. Респиратор предназначен для защиты органов дыхания от аэрозолей при их концентрации до 12 ПДК р.з.. Обтюратор из вспененного полимера по всему периметру полумаски обеспечивает плотное прилегание к лицу. Область применения: рекомендуется для широкого применения при повышенной запыленности";s:4:"dpic";s:28:"/upload/iblock/8fc/12994.jpg";s:11:"preview_pic";s:28:"/upload/iblock/d57/12994.jpg";s:4:"bxid";s:6:"201279";s:5:"alias";s:0:"";s:7:"section";s:5:"11690";}i:54;a:14:{s:2:"id";s:4:"1052";s:3:"act";s:1:"N";s:9:"prod_type";s:0:"";s:4:"name";s:67:"Респиратор Юлия-209 (б/клапана) до 4 ПДК";s:3:"art";s:11:"Рес209Ю";s:6:"search";s:677:"РЕСПИРАТОР ЮЛИЯ-209 (Б/КЛАПАНА) ДО 4 ПДК
ОБЛАСТЬ ПРИМЕНЕНИЯ: ПРОМЫШЛЕННОСТЬ КЛАСС ЗАЩИТЫ: FFP 2 R D С КЛАПАНОМ ВЫДОХА: НЕТ ЗАЩИТА: ПЫЛЬ, ДЫМ, ТУМАН. ОСОБЕННОСТИ: - ОБЛЕГЧЕННЫЙ КОРПУС ПОЛУМАСКИ - ГИПОАЛЛЕРГЕННЫЙ МАТЕРИАЛ - ШИРОКИЙ УГОЛ ОБЗОРА - ВОЗМОЖНОСТЬ МНОГОРАЗОВОГО ПРИМЕНЕНИЯ ПРИМЕНЕНИЕ ЗАЩИТА ОРГАНОВ ДЫХАНИЯ ОТ ВЫСОКО- И СРЕДНЕДИСПЕРСНЫХ АЭРОЗОЛЕЙ С СОДЕРЖАНИЕМ ДО 12 ПДК.";s:6:"parent";s:2:"39";s:4:"durl";s:101:"sredstva-individualnoy-zashchity/zashchita-organov-dykhaniya/respirator-yuliya-209-b-klapana-do-4-pdk";s:4:"dtxt";s:608:"Область применения: Промышленность Класс защиты: FFP 2 R D С клапаном выдоха: нет Защита: Пыль, дым, туман. Особенности: - Облегченный корпус полумаски - Гипоаллергенный материал - Широкий угол обзора - Возможность многоразового применения Применение Защита органов дыхания от высоко- и среднедисперсных аэрозолей с содержанием до 12 ПДК.";s:4:"dpic";s:28:"/upload/iblock/ed9/14562.jpg";s:11:"preview_pic";s:28:"/upload/iblock/373/14562.jpg";s:4:"bxid";s:6:"201280";s:5:"alias";s:0:"";s:7:"section";s:5:"11690";}i:55;a:14:{s:2:"id";s:4:"1053";s:3:"act";s:1:"N";s:9:"prod_type";s:0:"";s:4:"name";s:63:"Респиратор Юлия-215 (клапан) до 12 ПДК";s:3:"art";s:11:"Рес215Ю";s:6:"search";s:972:"РЕСПИРАТОР ЮЛИЯ-215 (КЛАПАН) ДО 12 ПДК
ОБЛАСТЬ ПРИМЕНЕНИЯ: ПРОМЫШЛЕННОСТЬ КЛАСС ЗАЩИТЫ: FFP 2 R D С КЛАПАНОМ ВЫДОХА: ДА ПРОТИВОГАЗОАЭРОЗОЛЬНЫЙ: ДА ЗАЩИТА:  ПЫЛЬ, ДЫМ, ТУМАН;  ОРГАНИЧЕСКИЕ ПАРЫ И ГАЗЫ;  ПАРЫ И ГАЗЫ ОТ НАГРЕВА МЕТАЛЛОВ. ОСОБЕННОСТИ: - ОБЛЕГЧЕННЫЙ КОРПУС ПОЛУМАСКИ - ГИПОАЛЛЕРГЕННЫЙ МАТЕРИАЛ - УГОЛЬНЫЙ ФИЛЬТР - РЕГУЛИРУЕМЫЕ ЛЕНТЫ ОГОЛОВЬЯ - ВОЗМОЖНОСТЬ МНОГОРАЗОВОГО ПРИМЕНЕНИЯ ПРИМЕНЕНИЕ: ЗАЩИТА ОРГАНОВ ДЫХАНИЯ ОТ ВЫСОКО- И СРЕДНЕДИСПЕРСНЫХ АЭРОЗОЛЕЙ С СОДЕРЖАНИЕМ ДО 12 ПДК, А ТАКЖЕ ОЗОНА И ОРГАНИЧЕСКИХ ПАРОВ В ПРЕДЕЛАХ ПДК.";s:6:"parent";s:2:"39";s:4:"durl";s:99:"sredstva-individualnoy-zashchity/zashchita-organov-dykhaniya/respirator-yuliya-215-klapan-do-12-pdk";s:4:"dtxt";s:937:"Область применения: Промышленность Класс защиты: FFP 2 R D С клапаном выдоха: да Противогазоаэрозольный: да Защита:&nbsp;&nbsp;Пыль, дым, туман;&nbsp;&nbsp;Органические пары и газы;&nbsp;&nbsp;Пары и газы от нагрева металлов. Особенности: - Облегченный корпус полумаски - Гипоаллергенный материал - Угольный фильтр - Регулируемые ленты оголовья - Возможность многоразового применения Применение: Защита органов дыхания от высоко- и среднедисперсных аэрозолей с содержанием до 12 ПДК, а также озона и органических паров в пределах ПДК.";s:4:"dpic";s:28:"/upload/iblock/63b/15010.jpg";s:11:"preview_pic";s:28:"/upload/iblock/063/15010.jpg";s:4:"bxid";s:6:"201281";s:5:"alias";s:0:"";s:7:"section";s:5:"11690";}i:56;a:14:{s:2:"id";s:4:"1054";s:3:"act";s:1:"N";s:9:"prod_type";s:0:"";s:4:"name";s:63:"Респиратор Юлия-219 (клапан) до 12 ПДК";s:3:"art";s:11:"Рес219Ю";s:6:"search";s:672:"РЕСПИРАТОР ЮЛИЯ-219 (КЛАПАН) ДО 12 ПДК
ОБЛАСТЬ ПРИМЕНЕНИЯ: ПРОМЫШЛЕННОСТЬ КЛАСС ЗАЩИТЫ: FFP 2 R D С КЛАПАНОМ ВЫДОХА: ДА ЗАЩИТА: ПЫЛЬ, ДЫМ, ТУМАН. ОСОБЕННОСТИ: - ОБЛЕГЧЕННЫЙ КОРПУС ПОЛУМАСКИ - ГИПОАЛЛЕРГЕННЫЙ МАТЕРИАЛ - ШИРОКИЙ УГОЛ ОБЗОРА - ВОЗМОЖНОСТЬ МНОГОРАЗОВОГО ПРИМЕНЕНИЯ ПРИМЕНЕНИЕ: ЗАЩИТА ОРГАНОВ ДЫХАНИЯ ОТ ВЫСОКО- И СРЕДНЕДИСПЕРСНЫХ АЭРОЗОЛЕЙ С СОДЕРЖАНИЕМ ДО 12 ПДК.";s:6:"parent";s:2:"39";s:4:"durl";s:99:"sredstva-individualnoy-zashchity/zashchita-organov-dykhaniya/respirator-yuliya-219-klapan-do-12-pdk";s:4:"dtxt";s:607:"Область применения: Промышленность Класс защиты: FFP 2 R D С клапаном выдоха: да Защита: Пыль, дым, туман. Особенности: - Облегченный корпус полумаски - Гипоаллергенный материал - Широкий угол обзора - Возможность многоразового применения Применение: Защита органов дыхания от высоко- и среднедисперсных аэрозолей с содержанием до 12 ПДК.";s:4:"dpic";s:28:"/upload/iblock/869/14566.jpg";s:11:"preview_pic";s:28:"/upload/iblock/bbf/14566.jpg";s:4:"bxid";s:6:"201282";s:5:"alias";s:0:"";s:7:"section";s:5:"11690";}i:57;a:14:{s:2:"id";s:4:"1055";s:3:"act";s:1:"N";s:9:"prod_type";s:0:"";s:4:"name";s:79:"Респиратор Юлия-219 (клапан) до 12 ПДК (к-т 10шт.)";s:3:"art";s:9:"Рес219";s:6:"search";s:1336:"РЕСПИРАТОР ЮЛИЯ-219 (КЛАПАН) ДО 12 ПДК (К-Т 10ШТ.)
ОБЛАСТЬ ПРИМЕНЕНИЯ: ПРОМЫШЛЕННОСТЬ КЛАСС ЗАЩИТЫ: FFP 2 R D С КЛАПАНОМ ВЫДОХА: ДА ЗАЩИТА: ПЫЛЬ, ДЫМ, ТУМАН. РЕСПИРАТОР ПРЕДСТАВЛЯЕТ СОБОЙ КОНСТРУКЦИЮ, СОСТОЯЩУЮ ИЗ ЖЕСТКОГО КАРКАСА С РЕГУЛИРУЕМЫМИ ЛЕНТАМИ ОГОЛОВЬЯ СО СПЕЦИАЛЬНОЙ ЗАСТЕЖКОЙ, КОМПЛЕКТА СМЕННЫХ ФИЛЬТРОВ В ВИДЕ ОБЛЕГЧЕННЫХ ФИЛЬТРУЮЩИХ ФОРМОВАННЫХ ПОЛУМАСОК С МЯГКИМ ОБТЮРАТОРОМ И УНИВЕРСАЛЬНОГО КЛАПАНА ВЫДОХА, ПРЕДУСМАТРИВАЮЩЕГО ЛЕГКУЮ ЗАМЕНУ ОТРАБОТАННОГО ФИЛЬТРА. ПОСТАВЛЯЕТСЯ КОМПЛЕКТАМИ 1/10 (КАРКАС С КЛАПАНОМ ВЫДОХА/10 СМЕННЫХ ФИЛЬТРОВ) РЕКОМЕНДУЕМАЯ ОБЛАСТЬ ПРИМЕНЕНИЯ: ПРОИЗВОДСТВЕННЫЕ РАБОТЫ В УСЛОВИЯХ ВЫСОКОЙ ЗАПЫЛЕННОСТИ С ПОВЫШЕННОЙ ВЛАЖНОСТЬЮ И ТЕМПЕРАТУРОЙ, ТРЕБУЮЩИХ ЧАСТУЮ ЗАМЕНУ ФИЛЬТРУЮЩЕГО ЭЛЕМЕНТА.";s:6:"parent";s:2:"39";s:4:"durl";s:110:"sredstva-individualnoy-zashchity/zashchita-organov-dykhaniya/respirator-yuliya-219-klapan-do-12-pdk-k-t-10sht-";s:4:"dtxt";s:1263:"Область применения: Промышленность Класс защиты: FFP 2 R D С клапаном выдоха: да Защита: Пыль, дым, туман. Респиратор представляет собой конструкцию, состоящую из жесткого каркаса с регулируемыми лентами оголовья со специальной застежкой, комплекта сменных фильтров в виде облегченных фильтрующих формованных полумасок с мягким обтюратором и универсального клапана выдоха, предусматривающего легкую замену отработанного фильтра. Поставляется комплектами 1/10 &#40;каркас с клапаном выдоха/10 сменных фильтров&#41; Рекомендуемая область применения: производственные работы в условиях высокой запыленности с повышенной влажностью и температурой, требующих частую замену фильтрующего элемента.";s:4:"dpic";s:28:"/upload/iblock/631/15011.jpg";s:11:"preview_pic";s:28:"/upload/iblock/a82/15011.jpg";s:4:"bxid";s:6:"201283";s:5:"alias";s:0:"";s:7:"section";s:5:"11690";}i:58;a:14:{s:2:"id";s:4:"1056";s:3:"act";s:1:"N";s:9:"prod_type";s:0:"";s:4:"name";s:63:"Респиратор Юлия-319 (клапан) до 50 ПДК";s:3:"art";s:11:"Рес319Ю";s:6:"search";s:788:"РЕСПИРАТОР ЮЛИЯ-319 (КЛАПАН) ДО 50 ПДК
ОБЛАСТЬ ПРИМЕНЕНИЯ: ПРОМЫШЛЕННОСТЬ КЛАСС ЗАЩИТЫ: FFP 3 R D С КЛАПАНОМ ВЫДОХА: ДА ЗАЩИТА: ПЫЛЬ, ДЫМ, ТУМАН. ОСОБЕННОСТИ: - ОБЛЕГЧЕННЫЙ КОРПУС ПОЛУМАСКИ - РЕГУЛИРУЕМЫЕ ЛЕНТЫ ОГОЛОВЬЯ - ГИПОАЛЛЕРГЕННЫЙ МАТЕРИАЛ - ШИРОКИЙ УГОЛ ОБЗОРА - ВОЗМОЖНОСТЬ МНОГОРАЗОВОГО ПРИМЕНЕНИЯ ПРИМЕНЕНИЕ: ЗАЩИТА ОРГАНОВ ДЫХАНИЯ ОТ ВЫСОКО- И СРЕДНЕДИСПЕРСНЫХ АЭРОЗОЛЕЙ, А ТАКЖЕ ВЫСОКООПАСНЫХ АЭРОЗОЛЕЙ С СОДЕРЖАНИЕМ ДО 50 ПДК.";s:6:"parent";s:2:"39";s:4:"durl";s:99:"sredstva-individualnoy-zashchity/zashchita-organov-dykhaniya/respirator-yuliya-319-klapan-do-50-pdk";s:4:"dtxt";s:723:"Область применения: Промышленность Класс защиты: FFP 3 R D С клапаном выдоха: да Защита: Пыль, дым, туман. Особенности: - Облегченный корпус полумаски - Регулируемые ленты оголовья - Гипоаллергенный материал - Широкий угол обзора - Возможность многоразового применения Применение: Защита органов дыхания от высоко- и среднедисперсных аэрозолей, а также высокоопасных аэрозолей с содержанием до 50 ПДК.";s:4:"dpic";s:28:"/upload/iblock/34b/14563.jpg";s:11:"preview_pic";s:28:"/upload/iblock/db3/14563.jpg";s:4:"bxid";s:6:"201284";s:5:"alias";s:0:"";s:7:"section";s:5:"11690";}i:59;a:14:{s:2:"id";s:4:"1057";s:3:"act";s:1:"N";s:9:"prod_type";s:0:"";s:4:"name";s:43:"Фильтр БРИЗ-3001  А1В1Е1К1Р1";s:3:"art";s:10:"ФЛТ3001";s:6:"search";s:1078:"ФИЛЬТР БРИЗ-3001  А1В1Е1К1Р1

КОМБИНИРОВАННЫЙ ФИЛЬТР БРИЗ-3001 А1В1Е1К1Р1 - ПРЕДНАЗНАЧЕН ДЛЯ ОЧИСТКИ ЗАГРЯЗНЁННОГО ВОЗДУХА ОТ АЭРОЗОЛЬНЫХ ЧАСТИЦ МАЛОТОКСИЧНЫХ ВЕЩЕСТВ, СОДЕРЖАЩИХСЯ В ПЫЛИ, ДЫМЕ ИЛИ ТУМАНЕ, А ТАКЖЕ ОТ ПАРОВ ОРГАНИЧЕСКИХ ВЕЩЕСТВ С ТЕМПЕРАТУРОЙ КИПЕНИЯ ВЫШЕ +65°С, НЕОРГАНИЧЕСКИХ ГАЗОВ И ПАРОВ (КРОМЕ ОКСИДА УГЛЕРОДА), КИСЛЫХ ГАЗОВ И ПАРОВ, АММИАКА И АМИНОВ. КОРПУС ФИЛЬТРА ИЗГОТОВЛЕН ИЗ СПЕЦИАЛЬНОЙ ПЛАСТМАССЫ. СОЕДИНИТЕЛЬНАЯ РЕЗЬБА СООТВЕТСТВУЕТ ГОСТ Р 12.4.214-99 (40Х3,5 ММ). ФИЛЬТР КОМБИНИРОВАННЫЙ БРИЗ-3001 А1В1Е1К1Р1 ИСПОЛЬЗУЕТСЯ В СОСТАВЕ ФИЛЬТРУЮЩЕГО ПРОТИВОГАЗА С ПОЛНОЛИЦЕВОЙ МАСКОЙ.";s:6:"parent";s:2:"39";s:4:"durl";s:87:"sredstva-individualnoy-zashchity/zashchita-organov-dykhaniya/filtr-briz-3001-a1v1e1k1r1";s:4:"dtxt";s:1051:"Комбинированный фильтр Бриз-3001 А1В1Е1К1Р1 - предназначен для очистки загрязнённого воздуха от аэрозольных частиц малотоксичных веществ, содержащихся в пыли, дыме или тумане, а также от паров органических веществ с температурой кипения выше &#43;65°С, неорганических газов и паров &#40;кроме оксида углерода&#41;, кислых газов и паров, аммиака и аминов. Корпус фильтра изготовлен из специальной пластмассы. Соединительная резьба соответствует ГОСТ Р 12.4.214-99 &#40;40х3,5 мм&#41;. Фильтр комбинированный Бриз-3001 А1В1Е1К1Р1 используется в составе фильтрующего противогаза с полнолицевой маской.";s:4:"dpic";s:28:"/upload/iblock/006/14233.jpg";s:11:"preview_pic";s:28:"/upload/iblock/102/14233.jpg";s:4:"bxid";s:6:"201677";s:5:"alias";s:0:"";s:7:"section";s:5:"11690";}i:60;a:14:{s:2:"id";s:4:"1058";s:3:"act";s:1:"N";s:9:"prod_type";s:0:"";s:4:"name";s:72:"Фильтр ЗМ 2135 высокоэффективной очистки";s:3:"art";s:10:"ФЛТ2135";s:6:"search";s:661:"ФИЛЬТР ЗМ 2135 ВЫСОКОЭФФЕКТИВНОЙ ОЧИСТКИ
ПРОТИВОАЭРОЗОЛЬНЫЙ ФИЛЬТР 3М™ 2000 СОГЛАСНО СТАНДАРТУ ГОСТ Р 12.4.194-99: 2000. ЗАЩИЩАЕТ ОТ ТВЁРДЫХ И ЖИДКИХ АЭРОЗОЛЕЙ ДО 30 ПДК. ПОДХОДИТ ДЛЯ МАСОК И ПОЛУМАСОК СЕРИЙ 6000 И 7000. ТИПИЧНЫЕ ОБЛАСТИ ПРИМЕНЕНИЯ ДЛЯ ЭТИХ ФИЛЬТРОВ - ФАРМАЦЕВТИЧЕСКОЕ ПРОИЗВОДСТВО, СТРОИТЕЛЬСТВО, ДЕРЕВООБРАБОТКА, ПИЩЕВАЯ ПРОМЫШЛЕННОСТЬ. СТЕПЕНЬ ЗАЩИТЫ: P3 R. .";s:6:"parent";s:2:"39";s:4:"durl";s:101:"sredstva-individualnoy-zashchity/zashchita-organov-dykhaniya/filtr-zm-2135-vysokoeffektivnoy-ochistki";s:4:"dtxt";s:587:"Противоаэрозольный фильтр 3М™ 2000 согласно стандарту ГОСТ Р 12.4.194-99: 2000. Защищает от твёрдых и жидких аэрозолей до 30 ПДК. Подходит для масок и полумасок серий 6000 и 7000. Типичные области применения для этих фильтров - фармацевтическое производство, строительство, деревообработка, пищевая промышленность. Степень защиты: P3 R. .";s:4:"dpic";s:28:"/upload/iblock/eda/12811.jpg";s:11:"preview_pic";s:28:"/upload/iblock/c1f/12811.jpg";s:4:"bxid";s:6:"201678";s:5:"alias";s:0:"";s:7:"section";s:5:"11690";}i:61;a:14:{s:2:"id";s:4:"1059";s:3:"act";s:1:"Y";s:9:"prod_type";s:0:"";s:4:"name";s:22:"Фильтр ЗМ 6035";s:3:"art";s:10:"ФЛТ6035";s:6:"search";s:547:"ФИЛЬТР ЗМ 6035
СМЕННЫЙ ФИЛЬТР 3М 6035 СОЧЕТАЕТ В СЕБЕ НАДЕЖНУЮ ЗАЩИТУ И УДОБСТВО. УНИКАЛЬНАЯ СИСТЕМА КРЕПЛЕНИЯ ФИЛЬТРОВ 6035 ПОЗВОЛЯЕТ БЫСТРО И БЕЗ ТРУДА ИХ УСТАНОВИТЬ. ХАРАКТЕРНЫЙ ЩЕЛЧОК ПРОИНФОРМИРУЕТ ВАС О ТОМ, ЧТО ФИЛЬТР ЗАКРЕПЛЕН. НАДЕЖНО ЗАЩИЩАЕТ ОТ ТВЕРДЫХ И АЭРОЗОЛЬНЫХ ЧАСТИЦ. СТЕПЕНЬ ЗАЩИТЫ Р3. .";s:6:"parent";s:2:"39";s:4:"durl";s:74:"sredstva-individualnoy-zashchity/zashchita-organov-dykhaniya/filtr-zm-6035";s:4:"dtxt";s:523:"Сменный фильтр 3М 6035 сочетает в себе надежную защиту и удобство. Уникальная система крепления фильтров 6035 позволяет быстро и без труда их установить. Характерный щелчок проинформирует вас о том, что фильтр закреплен. Надежно защищает от твердых и аэрозольных частиц. Степень защиты Р3. .";s:4:"dpic";s:27:"/upload/iblock/4f7/5778.jpg";s:11:"preview_pic";s:27:"/upload/iblock/0d3/5778.jpg";s:4:"bxid";s:6:"201679";s:5:"alias";s:0:"";s:7:"section";s:5:"11690";}i:62;a:14:{s:2:"id";s:4:"1060";s:3:"act";s:1:"Y";s:9:"prod_type";s:0:"";s:4:"name";s:26:"Фильтр ЗМ 6051 А1";s:3:"art";s:10:"ФЛТ6051";s:6:"search";s:820:"ФИЛЬТР ЗМ 6051 А1

СМЕННЫЙ ФИЛЬТР 3М ДЛЯ ПОЛУМАСОК СЕРИЙ 6000 И 7500, А ТАК ЖЕ ПОЛНОЛИЦЕВЫХ МАСОК СЕРИИ 6000. СТЕПЕНЬ ЗАЩИТЫ А1. ЗАЩИЩАЕТ ОТ ОРГАНИЧЕСКИХ ГАЗОВ И ПАРОВ. ЭТИ ФИЛЬТРЫ НЕОБХОДИМЫ ТАМ, ГДЕ ИСПОЛЬЗУЮТСЯ ЛАККРАСОЧНЫЕ МАТЕРИАЛЫ НА ОСНОВЕ ОРГАНИЧЕСКИХ РАСТВОРИТЕЛЕЙ, КЛЕИ, СОДЕРЖАЩИЕ РАСТВОРИТЕЛИ. НАПРИМЕР, В АВТОСТРОЕНИИ, АИАЦИОННОЙ ПРОИЫШЛЕННОСТИ, ТИПОГРАФИЯХ, В ЛАККРАСОЧНОМ ПРОИЗВОДСТВЕ, В ПРОИЗВДСТВЕ КЛЕЕВОЙ РОДУКЦИИ, В ПРОИЗВОДСТВЕ МЕБЕЛИ. .";s:6:"parent";s:2:"39";s:4:"durl";s:77:"sredstva-individualnoy-zashchity/zashchita-organov-dykhaniya/filtr-zm-6051-a1";s:4:"dtxt";s:790:"Сменный фильтр 3М для полумасок серий 6000 и 7500, а так же полнолицевых масок серии 6000. Степень защиты А1. Защищает от органических газов и паров. Эти фильтры необходимы там, где используются лаккрасочные материалы на основе органических растворителей, клеи, содержащие растворители. Например, в автостроении, аиационной проиышленности, типографиях, в лаккрасочном производстве, в произвдстве клеевой родукции, в производстве мебели. .";s:4:"dpic";s:27:"/upload/iblock/b57/5779.jpg";s:11:"preview_pic";s:27:"/upload/iblock/a57/5779.jpg";s:4:"bxid";s:6:"201680";s:5:"alias";s:0:"";s:7:"section";s:5:"11690";}i:63;a:14:{s:2:"id";s:4:"1061";s:3:"act";s:1:"Y";s:9:"prod_type";s:0:"";s:4:"name";s:75:"Фильтр ЗМ 6057 АВЕ1 орган.пары и кислые газы";s:3:"art";s:10:"ФЛТ6057";s:6:"search";s:1088:"ФИЛЬТР ЗМ 6057 АВЕ1 ОРГАН.ПАРЫ И КИСЛЫЕ ГАЗЫ
СМЕННЫЕ ФИЛЬТРЫ 3М 6057 ДЛЯ ПОЛУМАСОК СЕРИЙ 6000 И 7500, А ТАК ЖЕ ПОЛНОЛИЦЕВЫХ МАСОК СЕРИИ 6000. СТЕПЕНЬ ЗАЩИТЫ АВЕ1. ОБЕСПЕЧИВАЮТ ЗАЩИТУ ОТ ОРГАНИЧЕСКИХ, НЕОРГАНИЧЕСКИХ И КИСЛЫХ ГАЗОВ И ПАРОВ. ЭТИ ФИЛЬТРЫ НЕ ОБХОДИМЫ ТАК, ГДЕ ИСПОЛЬЗУЮТ ИЛИ ПРОИЗВОДЯТ ЛАКОКРАСОЧНЫЕ МАТЕРИАЛЫ, ИСПОЛЬЗУЮТ КИСЛОТЫ ВПРОИЗВОДСТВЕ. НАПРИМЕР В АВТОМОБИЛЕСТРОЕНИИ, САМОЛЕТОСТРОЕНИИ, ТИПОГРАФИЯХ, ЛАКОКРАСОЧНОЙ И МЕБЕЛЬНОЙ ПРОМЫШЛЕННОСТИ, ПРООИЗВОДСТВЕ КЛЕЕВ, ПРИ ОЧИСТКЕ КИСЛОТАМИ, ТРАВЛЕНИИ МЕТАЛЛА. ТАК ЖЕ ДАННЫЕ ФИЛЬТРЫ МОЖНО ПРИМЕНЯТЬ ПРИ ЭЛЕКТРОЛИЗЕ, РАБОТЕ С ЭЛЕКТРОЛИТАМИ. .";s:6:"parent";s:2:"39";s:4:"durl";s:104:"sredstva-individualnoy-zashchity/zashchita-organov-dykhaniya/filtr-zm-6057-ave1-organ-pary-i-kislye-gazy";s:4:"dtxt";s:1011:"Сменные фильтры 3М 6057 для полумасок серий 6000 и 7500, а так же полнолицевых масок серии 6000. Степень защиты АВЕ1. Обеспечивают защиту от органических, неорганических и кислых газов и паров. Эти фильтры не обходимы так, где используют или производят лакокрасочные материалы, используют кислоты впроизводстве. Например в автомобилестроении, самолетостроении, типографиях, лакокрасочной и мебельной промышленности, прооизводстве клеев, при очистке кислотами, травлении металла. Так же данные фильтры можно применять при электролизе, работе с электролитами. .";s:4:"dpic";s:27:"/upload/iblock/878/5676.jpg";s:11:"preview_pic";s:27:"/upload/iblock/005/5676.jpg";s:4:"bxid";s:6:"201681";s:5:"alias";s:0:"";s:7:"section";s:5:"11690";}i:64;a:14:{s:2:"id";s:4:"1062";s:3:"act";s:1:"Y";s:9:"prod_type";s:0:"";s:4:"name";s:32:"Фильтр ЗМ 6059 АВЕК1";s:3:"art";s:10:"ФЛТ6059";s:6:"search";s:1044:"ФИЛЬТР ЗМ 6059 АВЕК1
СМЕННЫЕ ФИЛЬТРЫ 3М 6059 ДЛЯ ПОЛУМАСОК СЕРИЙ 6000 И 7500, А ТАК ЖЕ ПОЛНОЛИЦЕВЫХ МАСОК СЕРИИ 6000. СТЕПЕНЬ ЗАЩИТЫ АВЕК1. ОБЕСПЕЧИВАЮТ ЗАЩИТУ ОТ ОРГАНИЧЕСКИХ, НЕОРГАНИЧЕСКИХ И КИСЛЫХ ГАЗОВ, АММИАКА И ЕГО ПРОИЗВОДНЫХ. ЭТИ ФИЛЬТРЫ НЕОБХОДИМЫ ТАМ, ГДЕ ИСПОЛЬЗУЮТ ИЛИ ПРОИЗВОДЯТ ЛАКОКРАСОЧНЫЕ МАТЕРИАЛЫ, ИСПОЛЬЗУЮТ КИСЛОТУ В ПРОИЗВОДСТВЕ. НАПРИМЕР В АВТОМОБИЛЕСТРОЕНИИ, САМОЛЕТОСТРОЕНИИ, ТИПОГРАФИЯХ, ЛАКОКРАСОЧНОЙ ПРОМЫШЛЕННОСТИ, ПРОИЗВОДСТВЕ КЛЕЕВ, ПРИ ОЧИСТКЕ КИСЛОТАМИ, ПРИ ТРАВЛЕНИИ МЕТАЛЛА, ПРОИЗВОДСТВЕ УДОБРЕНИЙ, В ПРОИЗВОДСТВЕ ХОЛОДИЛЬНОГО ОБОРУДОВАНИЯ. .";s:6:"parent";s:2:"39";s:4:"durl";s:80:"sredstva-individualnoy-zashchity/zashchita-organov-dykhaniya/filtr-zm-6059-avek1";s:4:"dtxt";s:1010:"Сменные фильтры 3М 6059 для полумасок серий 6000 и 7500, а так же полнолицевых масок серии 6000. Степень защиты АВЕК1. Обеспечивают защиту от органических, неорганических и кислых газов, аммиака и его производных. Эти фильтры необходимы там, где используют или производят лакокрасочные материалы, используют кислоту в производстве. Например в автомобилестроении, самолетостроении, типографиях, лакокрасочной промышленности, производстве клеев, при очистке кислотами, при травлении металла, производстве удобрений, в производстве холодильного оборудования. .";s:4:"dpic";s:27:"/upload/iblock/a45/3721.jpg";s:11:"preview_pic";s:27:"/upload/iblock/8d6/3721.jpg";s:4:"bxid";s:6:"201682";s:5:"alias";s:0:"";s:7:"section";s:5:"11690";}i:65;a:14:{s:2:"id";s:4:"1063";s:3:"act";s:1:"Y";s:9:"prod_type";s:0:"";s:4:"name";s:22:"Фильтр ЗМ 6075";s:3:"art";s:10:"ФЛТ6075";s:6:"search";s:673:"ФИЛЬТР ЗМ 6075

СМЕННЫЕ ФИЛЬТРЫ 3М 6075 ДЛЯ ПОЛУМАСОК СЕРИЙ 6000 И 7500. СТЕПЕНЬ ЗАЩИТЫ А1+ФОРМАЛЬДЕГИД. ЗАЩИАЩАЮТ ОТ ОРГАНИЧЕСКИХ ПАРОВ И ФОРМАЛЬДЕГИДА. ЭТИ ФИЛЬТРЫ НЕОБХОДИМЫ ТАМ, ГДЕ ИСПОЛЬЗУЮТ ИЛИ ПРОИЗВОДЯТ ЛАКОКРАСОЧНЫЕ МАТЕРИАЛЫ. НАПРИМЕР В АВТОМОБИЛЬНОМ ПРОИЗВОДСТВЕ, САМОЛЕТОСТРОЕНИИ, СУДОСТРОЕНИИ, ТИПОГРАФИЯХ, ЛАКОКРАСОЧНОЙ ПРОМЫШЛЕННОСТИ И ПРОИЗВОДСТВЕ КЛЕЕВ. .";s:6:"parent";s:2:"39";s:4:"durl";s:74:"sredstva-individualnoy-zashchity/zashchita-organov-dykhaniya/filtr-zm-6075";s:4:"dtxt";s:651:"Сменные фильтры 3М 6075 для полумасок серий 6000 и 7500. Степень защиты А1&#43;формальдегид. Защиащают от органических паров и формальдегида. Эти фильтры необходимы там, где используют или производят лакокрасочные материалы. Например в автомобильном производстве, самолетостроении, судостроении, типографиях, лакокрасочной промышленности и производстве клеев. .";s:4:"dpic";s:27:"/upload/iblock/13a/9829.jpg";s:11:"preview_pic";s:27:"/upload/iblock/787/9829.jpg";s:4:"bxid";s:6:"201683";s:5:"alias";s:0:"";s:7:"section";s:5:"11690";}i:66;a:14:{s:2:"id";s:4:"1064";s:3:"act";s:1:"N";s:9:"prod_type";s:0:"";s:4:"name";s:50:"Фильтр к респиратору Ф-62Ш Р2";s:3:"art";s:10:"ФЛТ62Ш";s:6:"search";s:902:"ФИЛЬТР К РЕСПИРАТОРУ Ф-62Ш Р2
ИСПОЛЬЗУЕТСЯ В КАЧЕСТВЕ ПРОТИВОАЭРОЗОЛЬНОГО ФИЛЬТРУЮЩЕГО ЭЛЕМЕНТА У РЕСПИРАТОРА Ф-62Ш. ОБЕСПЕЧИВАЕТ НАДЕЖНУЮ ЗАЩИТУ ОРГАНОВ ДЫХАНИЯ ОТ СИЛИКАТНОЙ, МЕТАЛЛУРГИЧЕСКОЙ, ГОРНОРУДНОЙ, ТАБАЧНОЙ ПЫЛИ, ПЫЛИ ПОРОШКООБРАЗНЫХ УДОБРЕНИЙ И ИНТОКСИЦИДОВ, А ТАКЖЕ ДРУГИХ ВИДОВ ПЫЛИ, НЕ ВЫДЕЛЯЮЩИХ ТОКСИЧЕСКИХ ГАЗОВ. СРОК ЭКСПЛУАТАЦИИ ОТ 2 ДО 10 РАБОЧИХ СМЕН В ЗАВИСИМОСТИ ОТ ВИДА ВЫПОЛНЕННЫХ РАБОТ, КОНЦЕНТАЦИИ ПЫЛИ, ВЛАЖНОСТИ, ТЕМПЕРАТУРЫ ВОЗДУХА, А ТАК ЖЕ ФИЗИЧЕСКОЙ НАГРУЗКИ. .";s:6:"parent";s:2:"39";s:4:"durl";s:90:"sredstva-individualnoy-zashchity/zashchita-organov-dykhaniya/filtr-k-respiratoru-f-62sh-r2";s:4:"dtxt";s:850:"Используется в качестве противоаэрозольного фильтрующего элемента у респиратора Ф-62Ш. Обеспечивает надежную защиту органов дыхания от силикатной, металлургической, горнорудной, табачной пыли, пыли порошкообразных удобрений и интоксицидов, а также других видов пыли, не выделяющих токсических газов. Срок эксплуатации от 2 до 10 рабочих смен в зависимости от вида выполненных работ, концентации пыли, влажности, температуры воздуха, а так же физической нагрузки. .";s:4:"dpic";s:27:"/upload/iblock/027/7066.jpg";s:11:"preview_pic";s:27:"/upload/iblock/7e3/7066.jpg";s:4:"bxid";s:6:"201684";s:5:"alias";s:0:"";s:7:"section";s:5:"11690";}i:67;a:14:{s:2:"id";s:4:"1065";s:3:"act";s:1:"N";s:9:"prod_type";s:0:"";s:4:"name";s:43:"Патрон РПГ-67 А1В1 (уп.10/100)";s:3:"art";s:14:"Пат67А1В1";s:6:"search";s:47:"ПАТРОН РПГ-67 А1В1 (УП.10/100)

";s:6:"parent";s:2:"39";s:4:"durl";s:89:"sredstva-individualnoy-zashchity/zashchita-organov-dykhaniya/patron-rpg-67-a1v1-up-10-100";s:4:"dtxt";s:0:"";s:4:"dpic";s:28:"/upload/iblock/8aa/10900.jpg";s:11:"preview_pic";s:28:"/upload/iblock/ac1/10900.jpg";s:4:"bxid";s:6:"202056";s:5:"alias";s:0:"";s:7:"section";s:5:"11690";}i:68;a:14:{s:2:"id";s:4:"1066";s:3:"act";s:1:"N";s:9:"prod_type";s:0:"";s:4:"name";s:39:"Патрон РУ-60М АВ (А1В1Р1)";s:3:"art";s:12:"Пат60АВ";s:6:"search";s:43:"ПАТРОН РУ-60М АВ (А1В1Р1)

";s:6:"parent";s:2:"39";s:4:"durl";s:84:"sredstva-individualnoy-zashchity/zashchita-organov-dykhaniya/patron-ru-60m-av-a1v1r1";s:4:"dtxt";s:0:"";s:4:"dpic";s:28:"/upload/iblock/1a8/12592.jpg";s:11:"preview_pic";s:28:"/upload/iblock/bf9/12592.jpg";s:4:"bxid";s:6:"202057";s:5:"alias";s:0:"";s:7:"section";s:5:"11690";}i:69;a:14:{s:2:"id";s:4:"1067";s:3:"act";s:1:"N";s:9:"prod_type";s:0:"";s:4:"name";s:29:"Патрон РУ-60М К1Р1";s:3:"art";s:10:"Пат60к";s:6:"search";s:270:"ПАТРОН РУ-60М К1Р1

ВРЕДНОЕ ВЕЩЕСТВО: АММИАК / ГИДРИД СЕРЫ КЛАСС ЗАЩИТЫ: 20/10 ПДК ВРЕМЯ ЗАЩИТНОГО ДЕЙСТВИЯ (В ЗАВИСИМОСТИ ОТ КОНЦЕНТРАЦИИ): 4-16 / 12-29 ЧАСОВ";s:6:"parent";s:2:"39";s:4:"durl";s:79:"sredstva-individualnoy-zashchity/zashchita-organov-dykhaniya/patron-ru-60m-k1r1";s:4:"dtxt";s:245:"Вредное вещество: аммиак / гидрид серы Класс защиты: 20/10 ПДК Время защитного действия &#40;в зависимости от концентрации&#41;: 4-16 / 12-29 часов";s:4:"dpic";s:28:"/upload/iblock/2c8/12697.jpg";s:11:"preview_pic";s:28:"/upload/iblock/2f6/12697.jpg";s:4:"bxid";s:6:"202058";s:5:"alias";s:0:"";s:7:"section";s:5:"11690";}i:70;a:14:{s:2:"id";s:4:"1068";s:3:"act";s:1:"N";s:9:"prod_type";s:0:"";s:4:"name";s:84:"Респиратор Алина-В (клапан) КП до 5 ПДК/ до 12 ПДК";s:3:"art";s:8:"РесВ";s:6:"search";s:1224:"РЕСПИРАТОР АЛИНА-В (КЛАПАН) КП ДО 5 ПДК/ ДО 12 ПДК

ОБЛАСТЬ ПРИМЕНЕНИЯ: ПРОМЫШЛЕННОСТЬ СТАНДАРТ: ТР ТС 019/2011 КЛАСС ЗАЩИТЫ: FFP 2 NR D С КЛАПАНОМ ВЫДОХА: ДА ГАРАНТИЙНЫЙ СРОК ХРАНЕНИЯ: 2 ГОДА УПАКОВКА: ИНДИВИДУАЛЬНАЯ КОЛИЧЕСТВО В КОРОБКЕ: 200 ПРОТИВОГАЗОАЭРОЗОЛЬНЫЙ: ДА ЗАЩИТА: ПЫЛЬ, ДЫМ, ТУМАН; КИСЛЫЕ ГАЗЫ. ОСОБЕННОСТИ: - УНИВЕРСАЛЬНЫЙ РАЗМЕР - ИНДИВИДУАЛЬНАЯ УПАКОВКА ПРИМЕНЕНИЕ: РЕСПИРАТОР ПРЕДНАЗНАЧЕН ДЛЯ ЗАЩИТЫ ОРГАНОВ ДЫХАНИЯ ОТ ВЫСОКО- И СРЕДНЕДИСПЕРСНЫХ АЭРОЗОЛЕЙ С СОДЕРЖАНИЕМ ДО 12 ПДК, А ТАКЖЕ КИСЛЫХ ПАРОВ И ГАЗОВ ДО 5 ПДК Р.З.. ОБЛАСТЬ ПРИМЕНЕНИЯ: АЛЮМИНИЕВАЯ, НЕФТЕХИМИЧЕСКАЯ, ЦЕЛЛЮЛОЗНО-БУМАЖНАЯ ПРОМЫШЛЕННОСТИ, АККУМУЛЯТОРНЫЕ ЦЕХА, ГАЛЬВАНИЧЕСКИЕ РАБОТЫ, МЕТАЛЛУРГИЯ.";s:6:"parent";s:2:"39";s:4:"durl";s:108:"sredstva-individualnoy-zashchity/zashchita-organov-dykhaniya/respirator-alina-v-klapan-kp-do-5-pdk-do-12-pdk";s:4:"dtxt";s:1136:"Область применения: Промышленность СТАНДАРТ: ТР ТС 019/2011 Класс защиты: FFP 2 NR D С клапаном выдоха: да Гарантийный срок хранения: 2 года Упаковка: Индивидуальная Количество в коробке: 200 Противогазоаэрозольный: да Защита: Пыль, дым, туман; Кислые газы. Особенности: - Универсальный размер - Индивидуальная упаковка Применение: Респиратор предназначен для защиты органов дыхания от высоко- и среднедисперсных аэрозолей с содержанием до 12 ПДК, а также кислых паров и газов до 5 ПДК р.з.. Область применения: алюминиевая, нефтехимическая, целлюлозно-бумажная промышленности, аккумуляторные цеха, гальванические работы, металлургия.";s:4:"dpic";s:28:"/upload/iblock/91b/16727.jpg";s:11:"preview_pic";s:28:"/upload/iblock/74c/16727.jpg";s:4:"bxid";s:6:"202213";s:5:"alias";s:0:"";s:7:"section";s:5:"11690";}}}}s:8:"end_time";i:1562407867;}