a:2:{s:4:"data";a:8:{s:2:"id";s:1:"1";s:5:"title";s:0:"";s:4:"prop";s:0:"";s:4:"name";s:21:"letnyaya_spetsodezhda";s:5:"alias";s:33:"летняя спецодежда";s:6:"parent";s:1:"0";s:7:"parents";a:0:{}s:8:"children";a:2:{s:10:"categories";a:4:{i:0;a:6:{s:2:"id";s:1:"2";s:5:"title";s:0:"";s:4:"prop";s:0:"";s:4:"name";s:17:"kostyumy_dlya_itr";s:5:"alias";s:28:"костюмы для итр";s:6:"parent";s:1:"1";}i:1;a:6:{s:2:"id";s:2:"67";s:5:"title";s:0:"";s:4:"prop";s:0:"";s:4:"name";s:16:"khalaty_rabochie";s:5:"alias";s:27:"халаты рабочие";s:6:"parent";s:1:"1";}i:2;a:6:{s:2:"id";s:2:"69";s:5:"title";s:0:"";s:4:"prop";s:0:"";s:4:"name";s:26:"kostyumy_i_kurtki_rabochie";s:5:"alias";s:45:"костюмы и куртки рабочие";s:6:"parent";s:1:"1";}i:3;a:6:{s:2:"id";s:2:"78";s:5:"title";s:0:"";s:4:"prop";s:0:"";s:4:"name";s:24:"bryuki_i_polukombinezony";s:5:"alias";s:44:"брюки и полукомбинезоны";s:6:"parent";s:1:"1";}}s:8:"products";a:88:{i:0;a:14:{s:2:"id";s:3:"596";s:3:"act";s:1:"N";s:9:"prod_type";s:0:"";s:4:"name";s:50:"Брюки ВИВАТ (т.серый/черный)";s:3:"art";s:9:"Брю008";s:6:"search";s:407:"БРЮКИ ВИВАТ (Т.СЕРЫЙ/ЧЕРНЫЙ)

.БРЮКИ С БОКОВЫМИ НАКЛАДНЫМИ КАРМАНАМИ С УСИЛЕНИЯМИ, ЗАСТЕЖКОЙ ГУЛЬФИК НА МОЛНИЮ. ЦВЕТ Т/СЕРЫЙ С ЧЕРНЫМ. ТКАНЬ: БАЛТЕКС2, (65% ПОЛИЭФИР, 35% ХЛОПОК), ПЛ.245 Г/М2, ВО РАЗМЕР:С 88-92 ПО 128-132 РОСТ:158-164,170-176, 182-188 .";s:6:"parent";s:2:"78";s:4:"durl";s:75:"letnyaya_spetsodezhda/bryuki_i_polukombinezony/bryuki_vivat_t_seryy_chernyy";s:4:"dtxt";s:369:".Брюки с боковыми накладными карманами с усилениями, застежкой гульфик на молнию. Цвет т/серый с черным. Ткань: Балтекс2, &#40;65&#37; полиэфир, 35&#37; хлопок&#41;, пл.245 г/м2, ВО Размер:с 88-92 по 128-132 Рост:158-164,170-176, 182-188 .";s:4:"dpic";s:28:"/upload/iblock/10e/12700.jpg";s:11:"preview_pic";s:28:"/upload/iblock/2ef/12700.jpg";s:4:"bxid";s:6:"200263";s:5:"alias";s:0:"";s:7:"section";s:5:"11678";}i:1;a:14:{s:2:"id";s:3:"597";s:3:"act";s:1:"N";s:9:"prod_type";s:0:"";s:4:"name";s:64:"Брюки Континенталь жен. цв.сер/черн";s:3:"art";s:9:"Брю020";s:6:"search";s:1408:"БРЮКИ КОНТИНЕНТАЛЬ ЖЕН. ЦВ.СЕР/ЧЕРН

БРЮКИ ЖЕНСКИЕ КОНТИНЕНТАЛЬ БРЮКИ НА ПОЯСЕ СО ШЛЕВКАМИ. НА ПОЯСЕ В ОБЛАСТИ БОКОВЫХ ШВОВ ВСТАВКИ С ЭЛАСТИЧНОЙ ЛЕНТОЙ, ДЛЯ РЕГУЛИРОВАНИЯ ОБЪЕМА. НА ПЕРЕДНИХ ПОЛОВИНКАХ КАРМАНЫ С КОСЫМ ВХОДОМ, В ОБЛАСТИ ВХОДА В КАРМАН НАСТРОЧЕНА СВ - ЛЕНТА. УСИЛИТЕЛЬНЫЕ НАКЛАДКИ В ОБЛАСТИ КОЛЕНА, С КАРМАНОМ ДЛЯ ДОПОЛНИТЕЛЬНЫХ УСИЛИТЕЛЬНЫХ ВСТАВОК, ПО ВЕРХНЕМУ КРАЮ ДОПОЛНИТЕЛЬНЫХ КАРМАНОВ СВ - КАНТ. СРЕДНИЙ ШОВ И ПОЯС С ЗАСТЕЖКОЙ - ГУЛЬФИК НА МОЛНИЮ. НА ПРАВОЙ, ЗАДНИЕ ПОЛОВИНКЕ БРЮК, НАКЛАДНОЙ КАРМАНЫ, ИЗ КОНТРАСТНОЙ ТКАНИ. ПОД НАКОЛЕННИКАМИ НАСТРОЧЕНА СВ - ЛЕНТА 50ММ. НИЖНЯЯ ЧАСТЬ БРЮК ИЗ ТКАНИ КОНТРАСТНОГО ЦВЕТА. МАТЕРИАЛ: ТКАНЬ ИНДЕСТРАКТЕБЛ, П.Л. 245 Г/КВ.М. СОСТАВ: 35% ХЛОПОК, 65% ПОЛИЭФИР ЦВЕТ: СЕРЫЙ, ОТДЕЛКА - ЧЕРНЫЙ. РАЗМЕР: С 44-46 ПО 60-62 РОСТ: 158-164, 170-176, .";s:6:"parent";s:2:"78";s:4:"durl";s:84:"letnyaya_spetsodezhda/bryuki_i_polukombinezony/bryuki_kontinental_zhen_tsv_ser_chern";s:4:"dtxt";s:1348:"Брюки женские Континенталь Брюки на поясе со шлевками. На поясе в области боковых швов вставки с эластичной лентой, для регулирования объема. На передних половинках карманы с косым входом, в области входа в карман настрочена СВ - лента. Усилительные накладки в области колена, с карманом для дополнительных усилительных вставок, по верхнему краю дополнительных карманов СВ - кант. Средний шов и пояс с застежкой - гульфик на молнию. На правой, задние половинке брюк, накладной карманы, из контрастной ткани. Под наколенниками настрочена СВ - лента 50мм. Нижняя часть брюк из ткани контрастного цвета. Материал: ткань Индестрактебл, п.л. 245 г/кв.м. Состав: 35&#37; хлопок, 65&#37; полиэфир Цвет: серый, отделка - черный. Размер: с 44-46 по 60-62 Рост: 158-164, 170-176, .";s:4:"dpic";s:28:"/upload/iblock/449/14781.jpg";s:11:"preview_pic";s:28:"/upload/iblock/39b/14781.jpg";s:4:"bxid";s:6:"200268";s:5:"alias";s:0:"";s:7:"section";s:5:"11678";}i:2;a:14:{s:2:"id";s:3:"598";s:3:"act";s:1:"N";s:9:"prod_type";s:0:"";s:4:"name";s:64:"Брюки Континенталь муж. цв.сер/черн";s:3:"art";s:9:"Брю021";s:6:"search";s:1876:"БРЮКИ КОНТИНЕНТАЛЬ МУЖ. ЦВ.СЕР/ЧЕРН

КУРТКА С ПРИТАЧНЫМ ПОЯСОМ, С ЦЕНТРАЛЬНОЙ ПОТАЙНОЙ ЗАСТЕЖКОЙ НА МОЛНИЮ, ТЕКСТИЛЬНУЮ ЗАСТЕЖКУ И ДВЕ КНОПКИ. ВОРОТНИК ОТЛОЖНОЙ. РУКАВА ВТАЧНЫЕ, С МАНЖЕТАМИ, ЗАСТЕГИВАЮЩИЕСЯ НА КНОПКИ, ПО ШВАМ СТАЧИВАНИЯ ПОЛОВИНОК РУКАВОВ СВ - ЛЕНТА. ПОЛОЧКИ И СПИНКА С КОКЕТКАМИ, СВ - ЛЕНТА В ОБЛАСТИ ПРИТАЧИВАНИЯ КОКЕТОК. ПОЛОЧКИ И СПИНКА С РЕЛЬЕФАМИ, ВЫХОДЯЩИМИ ИЗ ШВА ПРИТАЧИВАНИЯ КОКЕТОК. НА ПРАВОЙ ПОЛОЧКЕ ПРОРЕЗНОЙ КАРМАН С МОЛНИЕЙ, НАКЛАДНОЙ ДЛЯ БЕЙДЖА. НА ЛЕВОЙ ПОЛОЧКЕ БОЛЬШОЙ НАКЛАДНОЙ КАРМАН С КЛАПАНОМ, ЗАСТЕГИВАЮЩИЙСЯ НА КНОПКИ, И МАЛЕНЬКИЙ НАКЛАДНОЙ КАРМАН. БОКОВЫЕ КАРМАНЫ В ШВАХ РЕЛЬЕФОВ, НА ЦЕНТРАЛЬНОЙ ЧАСТИ ПОЛОЧЕК ПО НИЗУ, ВЫШЕ ШВА ПРИТАЧИВАНИЯ ПОЯСА, НАСТРОЧЕНА СВ - ЛЕНТА. НА СПИНКЕ ПО НИЗУ, ВЫШЕ ШВА ПРИТАЧИВАНИЯ ПОЯСА, НАСТРОЧЕНА СВ - ЛЕНТА. ПРИТАЧНОЙ ПОЯС СО ВСТАВКАМИ С ЭЛАСТИЧНОЙ ЛЕНТОЙ В ОБЛАСТИ БОКОВЫХ ШВОВ, ДЛЯ РЕГУЛИРОВАНИЯ ОБЪЕМА. МАТЕРИАЛ: ТКАНЬ ИНДЕСТРАКТЕБЛ, ПЛОТНОСТЬ 245 Г/КВ.М. СОСТАВ: 35% ХЛОПОК, 65% ПОЛИЭФИР ЦВЕТ: СЕРЫЙ, ОТДЕЛКА - КРАСНЫЙ, ЧЕРНЫЙ. РАЗМЕР: С 44-46 ПО 60-62 РОСТ: 170-176, 182-188";s:6:"parent";s:2:"78";s:4:"durl";s:84:"letnyaya_spetsodezhda/bryuki_i_polukombinezony/bryuki_kontinental_muzh_tsv_ser_chern";s:4:"dtxt";s:1816:"Куртка с притачным поясом, с центральной потайной застежкой на молнию, текстильную застежку и две кнопки. Воротник отложной. Рукава втачные, с манжетами, застегивающиеся на кнопки, по швам стачивания половинок рукавов СВ - лента. Полочки и спинка с кокетками, СВ - лента в области притачивания кокеток. Полочки и спинка с рельефами, выходящими из шва притачивания кокеток. На правой полочке прорезной карман с молнией, накладной для бейджа. На левой полочке большой накладной карман с клапаном, застегивающийся на кнопки, и маленький накладной карман. Боковые карманы в швах рельефов, на центральной части полочек по низу, выше шва притачивания пояса, настрочена СВ - лента. На спинке по низу, выше шва притачивания пояса, настрочена СВ - лента. Притачной пояс со вставками с эластичной лентой в области боковых швов, для регулирования объема. Материал: ткань Индестрактебл, плотность 245 г/кв.м. Состав: 35&#37; хлопок, 65&#37; полиэфир Цвет: серый, отделка - красный, черный. Размер: с 44-46 по 60-62 Рост: 170-176, 182-188";s:4:"dpic";s:28:"/upload/iblock/cd7/14782.jpg";s:11:"preview_pic";s:28:"/upload/iblock/e41/14782.jpg";s:4:"bxid";s:6:"200269";s:5:"alias";s:0:"";s:7:"section";s:5:"11678";}i:3;a:14:{s:2:"id";s:3:"599";s:3:"act";s:1:"N";s:9:"prod_type";s:0:"";s:4:"name";s:45:"Брюки Охранник цв.черный";s:3:"art";s:9:"Брю030";s:6:"search";s:505:"БРЮКИ ОХРАННИК ЦВ.ЧЕРНЫЙ

БРЮКИ С ПРИТАЧНЫМ ПОЯСОМ СО ШЛЕВКАМИ. ГУЛЬФИК НА ПУГОВИЦАХДВА БОКОВЫХ КАРМАНА, ДВА БОКОВЫХ КАРМАНА НА УРОВНЕ КОЛЕНА И ДВА ЗАДНИХ КАРМАНА ЗАСТЕГИВАЮЩИХСЯ НА ПУГОВИЦЫ С НАКЛАДНЫМИ КЛАПАНАМИ. НА ПЕРЕДНЕЙ ПОЛОВИНКЕ БРЮК СТРЕЛКА С ОТДЕЛОЧНОЙ СТРОЧКОЙ. .";s:6:"parent";s:2:"78";s:4:"durl";s:75:"letnyaya_spetsodezhda/bryuki_i_polukombinezony/bryuki_okhrannik_tsv_chernyy";s:4:"dtxt";s:456:"Брюки с притачным поясом со шлевками. Гульфик на пуговицахДва боковых кармана, два боковых кармана на уровне колена и два задних кармана застегивающихся на пуговицы с накладными клапанами. На передней половинке брюк стрелка с отделочной строчкой. .";s:4:"dpic";s:28:"/upload/iblock/f9c/14633.jpg";s:11:"preview_pic";s:28:"/upload/iblock/b3f/14633.jpg";s:4:"bxid";s:6:"200270";s:5:"alias";s:0:"";s:7:"section";s:5:"11678";}i:4;a:14:{s:2:"id";s:3:"600";s:3:"act";s:1:"N";s:9:"prod_type";s:0:"";s:4:"name";s:55:"Брюки Пилот цв.черный тк.Саржа";s:3:"art";s:9:"Брю288";s:6:"search";s:179:"БРЮКИ ПИЛОТ ЦВ.ЧЕРНЫЙ ТК.САРЖА

БРЮКИ ПИЛОТ ЦВ.ЧЕРНЫЙ ТК.САРЖА .БРЮКИ ПРЯМЫЕ С БОКОВЫМИ КАРМАНАМИ.";s:6:"parent";s:2:"78";s:4:"durl";s:81:"letnyaya_spetsodezhda/bryuki_i_polukombinezony/bryuki_pilot_tsv_chernyy_tk_sarzha";s:4:"dtxt";s:120:"Брюки Пилот цв.черный тк.Саржа .Брюки прямые с боковыми карманами.";s:4:"dpic";s:28:"/upload/iblock/906/13279.jpg";s:11:"preview_pic";s:28:"/upload/iblock/425/13279.jpg";s:4:"bxid";s:6:"200271";s:5:"alias";s:0:"";s:7:"section";s:5:"11678";}i:5;a:14:{s:2:"id";s:3:"601";s:3:"act";s:1:"N";s:9:"prod_type";s:0:"";s:4:"name";s:59:"Брюки Саванна (тк.Рип-стоп) цифра";s:3:"art";s:9:"Брю023";s:6:"search";s:168:"БРЮКИ САВАННА (ТК.РИП-СТОП) ЦИФРА

.БРЮКИ ЛЕТНИЕ. - КОЛИЧЕСТВО КАРМАНОВ 5 . (ТК.РИП-СТОП) ЦИФРА .";s:6:"parent";s:2:"78";s:4:"durl";s:80:"letnyaya_spetsodezhda/bryuki_i_polukombinezony/bryuki_savanna_tk_rip_stop_tsifra";s:4:"dtxt";s:113:".Брюки летние. - количество карманов 5 . &#40;тк.Рип-стоп&#41; цифра .";s:4:"dpic";s:28:"/upload/iblock/1aa/15018.jpg";s:11:"preview_pic";s:28:"/upload/iblock/da1/15018.jpg";s:4:"bxid";s:6:"200272";s:5:"alias";s:0:"";s:7:"section";s:5:"11678";}i:6;a:14:{s:2:"id";s:3:"602";s:3:"act";s:1:"N";s:9:"prod_type";s:0:"";s:4:"name";s:41:"Брюки Саванна цв.цифра";s:3:"art";s:9:"Брю005";s:6:"search";s:89:"БРЮКИ САВАННА ЦВ.ЦИФРА

.БРЮКИ САВАННА ЦВ.ЦИФРА .";s:6:"parent";s:2:"78";s:4:"durl";s:72:"letnyaya_spetsodezhda/bryuki_i_polukombinezony/bryuki_savanna_tsv_tsifra";s:4:"dtxt";s:44:".Брюки Саванна цв.цифра .";s:4:"dpic";s:27:"/upload/iblock/4d0/7105.jpg";s:11:"preview_pic";s:27:"/upload/iblock/eaa/7105.jpg";s:4:"bxid";s:6:"200273";s:5:"alias";s:0:"";s:7:"section";s:5:"11678";}i:7;a:14:{s:2:"id";s:3:"603";s:3:"act";s:1:"N";s:9:"prod_type";s:0:"";s:4:"name";s:39:"Брюки Турбо тк.Томбой";s:3:"art";s:9:"Брю607";s:6:"search";s:688:"БРЮКИ ТУРБО ТК.ТОМБОЙ

.БРЮКИ ТУРБО ТКАНЬ ТОМБОЙ БРЮКИ НА ПОЯСЕ, С ПЕРЕДНЕЙ ЗАСТЁЖКОЙ - ГУЛЬФИК НА ТЕСЬМУ-МОЛНИЮ, ПРОРЕЗНЫМИ И НАКЛАДНЫМИ КАРМАНАМИ, НАКОЛЕННИКАМИ, ШЛЁВКАМИ. В КАЧЕСТВЕ ОТДЕЛКИ ИСПОЛЬЗУЕТСЯ КОНТРАСТНАЯ СТРОЧКА И ЗАКРЕПКИ ЛИМОННОГО ЦВЕТА. ЦВЕТ: СЕРЫЙ ТКАНЬ ВЕРХА: ТОМБОЙ, CARRINGTON, СОСТАВ: 67 %ПОЛИЭФИР, 33 % ХЛОПОК ПЛ. - 245 Г/М2 РАЗМЕР: С 44-46 ПО 60-62 РОСТ:170-176, 182-188 ГОСТ 27575-87 .";s:6:"parent";s:2:"78";s:4:"durl";s:69:"letnyaya_spetsodezhda/bryuki_i_polukombinezony/bryuki_turbo_tk_tomboy";s:4:"dtxt";s:653:".Брюки Турбо ткань Томбой Брюки на поясе, с передней застёжкой - гульфик на тесьму-молнию, прорезными и накладными карманами, наколенниками, шлёвками. В качестве отделки используется контрастная строчка и закрепки лимонного цвета. Цвет: серый Ткань верха: Томбой, Carrington, состав: 67 &#37;полиэфир, 33 &#37; хлопок пл. - 245 г/м2 Размер: с 44-46 по 60-62 Рост:170-176, 182-188 ГОСТ 27575-87 .";s:4:"dpic";s:28:"/upload/iblock/f97/12134.jpg";s:11:"preview_pic";s:28:"/upload/iblock/b8a/12134.jpg";s:4:"bxid";s:6:"200279";s:5:"alias";s:0:"";s:7:"section";s:5:"11678";}i:8;a:14:{s:2:"id";s:3:"604";s:3:"act";s:1:"N";s:9:"prod_type";s:0:"";s:4:"name";s:51:"Брюки Штурм цв.КМФ тк.Гретта";s:3:"art";s:9:"Брю287";s:6:"search";s:353:"БРЮКИ ШТУРМ ЦВ.КМФ ТК.ГРЕТТА

.БРЮКИ ПРЯМЫЕ, С ЦЕЛЬНОКРОЕНЫМ ПОЯСОМ СО ШЛЕВКАМИ , С ЗАСТЁЖКОЙ НА ПЕТЛИ ПУГОВИЦЫ. ПЕРЕДНИЕ ПОЛОВИНКИ БРЮК С БОКОВЫМИ НАШИВНЫМИ КАРМАНАМИ. МАТЕРИАЛЫ: ТК.ГРЕТА КМФ. .";s:6:"parent";s:2:"78";s:4:"durl";s:78:"letnyaya_spetsodezhda/bryuki_i_polukombinezony/bryuki_shturm_tsv_kmf_tk_gretta";s:4:"dtxt";s:298:".Брюки прямые, с цельнокроеным поясом со шлевками , с застёжкой на петли пуговицы. Передние половинки брюк с боковыми нашивными карманами. материалы: тк.Грета КМФ. .";s:4:"dpic";s:28:"/upload/iblock/ae1/13173.jpg";s:11:"preview_pic";s:28:"/upload/iblock/a09/13173.jpg";s:4:"bxid";s:6:"200280";s:5:"alias";s:0:"";s:7:"section";s:5:"11678";}i:9;a:14:{s:2:"id";s:3:"605";s:3:"act";s:1:"Y";s:9:"prod_type";s:0:"";s:4:"name";s:38:"Брюки раб. Гретта КМФ";s:3:"art";s:9:"Брю285";s:6:"search";s:289:"БРЮКИ РАБ. ГРЕТТА КМФ

.БРЮКИ ПРЯМЫЕ С ПОЯСОМ И ДВУМЯ НАКЛАДНЫМИ КАРМАНАМИ. ТКАНЬ : ГРЕТА 50%-Х/Б, 50%-П/Э. ЦВЕТ: КАМУФЛИРОВАННЫЙ.  РАЗМЕР: С 44-46 ПО 64-66 РОСТ:170-176, 182-188 .";s:6:"parent";s:2:"78";s:4:"durl";s:68:"letnyaya_spetsodezhda/bryuki_i_polukombinezony/bryuki_rab_gretta_kmf";s:4:"dtxt";s:255:".Брюки прямые с поясом и двумя накладными карманами. Ткань : грета 50&#37;-х/б, 50&#37;-п/э. Цвет: камуфлированный.  Размер: с 44-46 по 64-66 Рост:170-176, 182-188 .";s:4:"dpic";s:31:"/upload/iblock/980/img_3602.jpg";s:11:"preview_pic";s:31:"/upload/iblock/833/img_3602.jpg";s:4:"bxid";s:6:"200290";s:5:"alias";s:0:"";s:7:"section";s:5:"11678";}i:10;a:14:{s:2:"id";s:3:"606";s:3:"act";s:1:"N";s:9:"prod_type";s:0:"";s:4:"name";s:49:"Брюки раб. Гретта КМФ серый";s:3:"art";s:9:"Брю284";s:6:"search";s:53:"БРЮКИ РАБ. ГРЕТТА КМФ СЕРЫЙ

";s:6:"parent";s:2:"78";s:4:"durl";s:74:"letnyaya_spetsodezhda/bryuki_i_polukombinezony/bryuki_rab_gretta_kmf_seryy";s:4:"dtxt";s:0:"";s:4:"dpic";N;s:11:"preview_pic";N;s:4:"bxid";s:6:"200291";s:5:"alias";s:0:"";s:7:"section";s:5:"11678";}i:11;a:14:{s:2:"id";s:3:"607";s:3:"act";s:1:"N";s:9:"prod_type";s:0:"";s:4:"name";s:33:"Комбинезон Радиус";s:3:"art";s:9:"Ком515";s:6:"search";s:831:"КОМБИНЕЗОН РАДИУС
КОМБИНЕЗОН: • ЦЕНТРАЛЬНАЯ ЗАСТЁЖКА НА МОЛНИЮ И КНОПКИ • УСИЛЕННЫЕ НАКОЛЕННИКИ • ВМЕСТИТЕЛЬНЫЕ КАРМАНЫ НА БРЮЧНОЙ ЧАСТИ • НАГРУДНЫЕ КАРМАНЫ С КЛАПАНОМ • КУЛИСА ПО ЛИНИИ ТАЛИИ • СВЕТООТРАЖАЮЩИЙ КАНТ СОП РАЗМЕР: С 88-92 ПО 120-124 РОСТ: 170-176, 182-188 ЦВЕТ: ТЁМНО–СИНИЙ ТКАНЬ: СМЕСОВАЯ, ГРЕТА ЧШК СОСТАВ: 53% ХЛОПОК, 47% ПОЛИЭФИР, ПЛ. 220 Г/М? ГОСТ 12.4.100-80 ЗАЩИТНЫЕ СВОЙСТВА ЗАЩИТА ОТ ОБЩИХ ПРОИЗВОДСТВЕННЫХ ЗАГРЕЗНЕНИЙЗАЩИТА ОТ ИСТИРАНИЯВОДОУПОРНОСТЬ	 .";s:6:"parent";s:2:"78";s:4:"durl";s:64:"letnyaya_spetsodezhda/bryuki_i_polukombinezony/kombinezon_radius";s:4:"dtxt";s:827:"Комбинезон: • центральная застёжка на молнию и кнопки • усиленные наколенники • вместительные карманы на брючной части • нагрудные карманы с клапаном • кулиса по линии талии • светоотражающий кант СОП Размер: с 88-92 по 120-124 Рост: 170-176, 182-188 Цвет: тёмно–синий Ткань: смесовая, Грета ЧШК Состав: 53&#37; хлопок, 47&#37; полиэфир, пл. 220 г/м? ГОСТ 12.4.100-80 ЗАЩИТНЫЕ СВОЙСТВА Защита от общих производственных загрезненийЗащита от истиранияВодоупорность&nbsp;&nbsp;&nbsp;&nbsp; .";s:4:"dpic";s:27:"/upload/iblock/e96/7065.jpg";s:11:"preview_pic";s:27:"/upload/iblock/94c/7065.jpg";s:4:"bxid";s:6:"200433";s:5:"alias";s:0:"";s:7:"section";s:5:"11678";}i:12;a:14:{s:2:"id";s:3:"608";s:3:"act";s:1:"N";s:9:"prod_type";s:0:"";s:4:"name";s:61:"Комбинезон Турбо серый тк. Томбой";s:3:"art";s:9:"Ком513";s:6:"search";s:1048:"КОМБИНЕЗОН ТУРБО СЕРЫЙ ТК. ТОМБОЙ
КОМБИНЕЗОН: • ЭРГОНОМИЧНАЯ КОНСТРУКЦИЯ • СПЕРЕДИ ЗАСТЁЖКА НА МОЛНИЮ•ТРАКТОР • МНОГОФУНКЦИОНАЛЬНЫЕ НАКЛАДНЫЕ И НАВЕСНЫЕ КАРМАНЫ • НАКОЛЕННИКИ С ОТВЕРСТИЯМИ ПОД АМОРТИЗАТОРЫ • ОБХВАТ ТАЛИИ РЕГУЛИРУЕТСЯ ПО СПИНКЕ ЭЛАСТИЧНОЙ ЛЕНТОЙ • РЕГУЛИРОВКА ПО РОСТУ ЭЛАСТИЧНОЙ ЛЕНТОЙ ПО ПЛЕЧЕВЫМ ШВАМ РАЗМЕР: С 88-92 ПО 120-124 РОСТ: 170-176, 182-188 ЦВЕТ: СЕРЫЙ С ЛИМОННОЙ ОТДЕЛКОЙ ТКАНЬ ВЕРХА: «ТОМБОЙ», CARRINGTON СОСТАВ: 67% ПОЛИЭФИР, 33% ХЛОПОК, ПЛ. 245 Г/М? ГОСТ 27575-87 ЗАЩИТНЫЕ СВОЙСТВА ЗАЩИТА ОТ ОБЩИХ ПРОИЗВОДСТВЕННЫХ ЗАГРЕЗНЕНИЙЗАЩИТА ОТ ИСТИРАНИЯВОДОУПОРНОСТЬ	 .";s:6:"parent";s:2:"78";s:4:"durl";s:79:"letnyaya_spetsodezhda/bryuki_i_polukombinezony/kombinezon_turbo_seryy_tk_tomboy";s:4:"dtxt";s:1016:"Комбинезон: • эргономичная конструкция • спереди застёжка на молнию•трактор • многофункциональные накладные и навесные карманы • наколенники с отверстиями под амортизаторы • обхват талии регулируется по спинке эластичной лентой • регулировка по росту эластичной лентой по плечевым швам Размер: с 88-92 по 120-124 Рост: 170-176, 182-188 Цвет: серый с лимонной отделкой Ткань верха: «Томбой», Carrington Состав: 67&#37; полиэфир, 33&#37; хлопок, пл. 245 г/м? ГОСТ 27575-87 ЗАЩИТНЫЕ СВОЙСТВА Защита от общих производственных загрезненийЗащита от истиранияВодоупорность&nbsp;&nbsp;&nbsp;&nbsp; .";s:4:"dpic";s:28:"/upload/iblock/8d9/11056.jpg";s:11:"preview_pic";s:28:"/upload/iblock/a68/11056.jpg";s:4:"bxid";s:6:"200434";s:5:"alias";s:0:"";s:7:"section";s:5:"11678";}i:13;a:14:{s:2:"id";s:3:"609";s:3:"act";s:1:"N";s:9:"prod_type";s:0:"";s:4:"name";s:66:"Полукомбинезон  Турбо сер. тк.Томбой";s:3:"art";s:9:"Ком657";s:6:"search";s:826:"ПОЛУКОМБИНЕЗОН  ТУРБО СЕР. ТК.ТОМБОЙ
ПОЛУКОМБИНЕЗОН НА ПОЯСЕ, С ОТРЕЗНЫМ НАГРУДНИКОМ, ЗАСТЁЖКОЙ НА ТЕСЬМУ -МОЛНИЮ СПЕРЕДИ И БОКОВОЙ ЗАСТЁЖКОЙ НА ПУГОВИЦЫ, НАКЛАДНЫМИ И ПРОРЕЗНЫМИ КАРМАНАМИ, НАКОЛЕННИКАМИ. ДЛИНА РЕГУЛИРУЕТСЯ БРЕТЕЛЯМИ НА ФАСТЕКСАХ. В КАЧЕСТВЕ ОТДЕЛКИ ИСПОЛЬЗУЮТСЯ КОНТРАСТНЫЕ СТРОЧКИ И ЗАКРЕПКИ ЛИМОННОГО ЦВЕТА. ЦВЕТ: СЕРЫЙ, ВАСИЛЕК ТКАНЬ ВЕРХА: ТОМБОЙ, CARRINGTON, СОСТАВ: 67 %ПОЛИЭФИР, 33 % ХЛОПОК ПЛ. - 245 Г/М2 РАЗМЕР: С 44-46 ПО 60-62 РОСТ:170-176, 182-188 .";s:6:"parent";s:2:"78";s:4:"durl";s:81:"letnyaya_spetsodezhda/bryuki_i_polukombinezony/polukombinezon_turbo_ser_tk_tomboy";s:4:"dtxt";s:766:"Полукомбинезон на поясе, с отрезным нагрудником, застёжкой на тесьму -молнию спереди и боковой застёжкой на пуговицы, накладными и прорезными карманами, наколенниками. Длина регулируется бретелями на фастексах. В качестве отделки используются контрастные строчки и закрепки лимонного цвета. Цвет: серый, василек Ткань верха: Томбой, Carrington, состав: 67 &#37;полиэфир, 33 &#37; хлопок пл. - 245 г/м2 Размер: с 44-46 по 60-62 Рост:170-176, 182-188 .";s:4:"dpic";s:28:"/upload/iblock/880/10718.jpg";s:11:"preview_pic";s:28:"/upload/iblock/46c/10718.jpg";s:4:"bxid";s:6:"201185";s:5:"alias";s:0:"";s:7:"section";s:5:"11678";}i:14;a:14:{s:2:"id";s:3:"610";s:3:"act";s:1:"N";s:9:"prod_type";s:0:"";s:4:"name";s:64:"Полукомбинезон Виват (т.сер/черный)";s:3:"art";s:9:"Пол231";s:6:"search";s:456:"ПОЛУКОМБИНЕЗОН ВИВАТ (Т.СЕР/ЧЕРНЫЙ)
.ПОЛУКОМБИНЕЗОН С БОКОВЫМИ НАКЛАДНЫМИ КАРМАНАМИ С УСИЛЕНИЯМИ. ПО ТАЛИИ И В БРЕТЕЛЯХ ЭЛАСТИЧНАЯ ЛЕНТА. ЦВЕТ Т/СЕРЫЙ С ЧЕРНЫМ. ТКАНЬ: БАЛТЕКС2, (65% ПОЛИЭФИР, 35% ХЛОПОК), ПЛ.245 Г/М2, ВО РАЗМЕР:С 88-92 ПО 128-132 РОСТ:158-164,170-176, 182-188 .";s:6:"parent";s:2:"78";s:4:"durl";s:81:"letnyaya_spetsodezhda/bryuki_i_polukombinezony/polukombinezon_vivat_t_ser_chernyy";s:4:"dtxt";s:406:".Полукомбинезон с боковыми накладными карманами с усилениями. По талии и в бретелях эластичная лента. Цвет т/серый с черным. Ткань: Балтекс2, &#40;65&#37; полиэфир, 35&#37; хлопок&#41;, пл.245 г/м2, ВО Размер:с 88-92 по 128-132 Рост:158-164,170-176, 182-188 .";s:4:"dpic";s:28:"/upload/iblock/1d5/12858.jpg";s:11:"preview_pic";s:28:"/upload/iblock/d62/12858.jpg";s:4:"bxid";s:6:"201187";s:5:"alias";s:0:"";s:7:"section";s:5:"11678";}i:15;a:14:{s:2:"id";s:3:"611";s:3:"act";s:1:"N";s:9:"prod_type";s:0:"";s:4:"name";s:93:"Полукомбинезон Континенталь муж. цв.сер/красн/черн";s:3:"art";s:9:"Пол235";s:6:"search";s:1720:"ПОЛУКОМБИНЕЗОН КОНТИНЕНТАЛЬ МУЖ. ЦВ.СЕР/КРАСН/ЧЕРН
ПОЛУКОМБИНЕЗОН КОНТИНЕНТАЛЬ НА БРЕТЕЛЯХ С ЗАСТЕЖКОЙ НА ФАСТЕКСЫ. НА ПЕРЕДНИХ ПОЛОВИНКАХ БОКОВЫЕ КАРМАНЫ С ФИГУРНЫМ ВХОДОМ, НА КАРМАНАХ НАСТРОЧЕНА СВ - ЛЕНТА. НА ПЕРЕДНИХ ПОЛОВИНКАХ УСИЛИТЕЛЬНЫЕ НАКЛАДКИ В ОБЛАСТИ КОЛЕНА С КАРМАНАМИ ДЛЯ ДОПОЛНИТЕЛЬНЫХ УСИЛИТЕЛЬНЫХ ВСТАВОК. ПОД УСИЛИТЕЛЬНЫМИ НАКЛАДКАМИ НАСТРОЧЕНА СВ - ЛЕНТА 50ММ. НА ГРУДКЕ БОЛЬШОЙ НАКЛАДНОЙ КАРМАН, И МАЛЫЙ ДЛЯ КАРАНДАША С КОСЫМ ВХОДОМ. НА ГРУДКЕ НАД НАКЛАДНЫМ КАРМАНОМ ПРОРЕЗНОЙ КАРМАН НА МОЛНИИ. ЗАСТЕЖКА ГУЛЬФИК В СРЕДНЕМ ШВЕ И БОКОВОМ ШВЕ НА ПЕТЛИ И ПУГОВИЦЫ. НА СПИНКЕ ПО ТАЛИИ КУЛИСА С ЭЛАСТИЧНОЙ ЛЕНТОЙ. НА ЗАДНЕЙ ПОЛОВИНКЕ НАКЛАДНОЙ КАРМАН, И НАКЛАДНОЙ КАРМАН С ПЕТЛЕЙ В ОБЛАСТИ БОКОВОГО ШВА. ВЕРХНИЙ СРЕЗ ГРУДКИ ОБРАБОТАН ОБТАЧКОЙ ИЗ ОТДЕЛОЧНОЙ ТКАНИ КОНТРАСТНОГО ЦВЕТА. МАТЕРИАЛ:ТКАНЬ ИНДЕСТРАКТЕБЛ, ПЛОТНОСТЬ 245 Г/КВ.М. СОСТАВ: 35% ХЛОПОК, 65% ПОЛИЭФИР ЦВЕТ: СЕРЫЙ, ОТДЕЛКА - ЧЕРНЫЙ. РАЗМЕР: С 44-46 ПО 60-62 РОСТ: 170-176, 182-188";s:6:"parent";s:2:"78";s:4:"durl";s:98:"letnyaya_spetsodezhda/bryuki_i_polukombinezony/polukombinezon_kontinental_muzh_tsv_ser_krasn_chern";s:4:"dtxt";s:1633:"Полукомбинезон Континенталь на бретелях с застежкой на фастексы. На передних половинках боковые карманы с фигурным входом, на карманах настрочена СВ - лента. На передних половинках усилительные накладки в области колена с карманами для дополнительных усилительных вставок. Под усилительными накладками настрочена СВ - лента 50мм. На грудке большой накладной карман, и малый для карандаша с косым входом. На грудке над накладным карманом прорезной карман на молнии. Застежка гульфик в среднем шве и боковом шве на петли и пуговицы. На спинке по талии кулиса с эластичной лентой. На задней половинке накладной карман, и накладной карман с петлей в области бокового шва. Верхний срез грудки обработан обтачкой из отделочной ткани контрастного цвета. Материал:ткань Индестрактебл, плотность 245 г/кв.м. Состав: 35&#37; хлопок, 65&#37; полиэфир Цвет: серый, отделка - черный. Размер: с 44-46 по 60-62 Рост: 170-176, 182-188";s:4:"dpic";s:28:"/upload/iblock/8c1/14793.jpg";s:11:"preview_pic";s:28:"/upload/iblock/bf3/14793.jpg";s:4:"bxid";s:6:"201189";s:5:"alias";s:0:"";s:7:"section";s:5:"11678";}i:16;a:14:{s:2:"id";s:3:"612";s:3:"act";s:1:"N";s:9:"prod_type";s:0:"";s:4:"name";s:55:"Полукомбинезон Мастер син-вас";s:3:"art";s:9:"Пол230";s:6:"search";s:283:"ПОЛУКОМБИНЕЗОН МАСТЕР СИН-ВАС
.ПОЛУКОМБИНЕЗОН С БОКОВЫМИ НАКЛАДНЫМИ КАРМАНАМИ И НАКЛАДНЫМ НАГРУДНЫМ КАРМАНОМ С КЛАПАНОМ. ЦВЕТ: ТЕМНО-СИНИЙ С ВАСИЛЬКОМ . .";s:6:"parent";s:2:"78";s:4:"durl";s:76:"letnyaya_spetsodezhda/bryuki_i_polukombinezony/polukombinezon_master_sin_vas";s:4:"dtxt";s:226:".Полукомбинезон с боковыми накладными карманами и накладным нагрудным карманом с клапаном. Цвет: темно-синий с васильком . .";s:4:"dpic";s:28:"/upload/iblock/ac1/12438.jpg";s:11:"preview_pic";s:28:"/upload/iblock/3c4/12438.jpg";s:4:"bxid";s:6:"201190";s:5:"alias";s:0:"";s:7:"section";s:5:"11678";}i:17;a:14:{s:2:"id";s:3:"613";s:3:"act";s:1:"N";s:9:"prod_type";s:0:"";s:4:"name";s:47:"Полукомбинезон Навигатор";s:3:"art";s:9:"Пол224";s:6:"search";s:758:"ПОЛУКОМБИНЕЗОН НАВИГАТОР
ПОЛУКОМБИНЕЗОН: • ЗАСТЁЖКА НА МОЛНИЮ • ВТАЧНОЙ ПОЯС • КАРМАНЫ ДЛЯ АМОРТИЗАЦИОННЫХ НАКЛАДОК В ОБЛАСТИ КОЛЕНЕЙ • МАНЖЕТЫ МНОГО ФУНКЦИОНАЛЬНЫХ КАРМАНОВ. РАЗМЕР: С 88-92 ПО 120-124 РОСТ: 170-176, 182-188 ЦВЕТ: ВАСИЛЁК С СЕРОЙ ОТДЕЛКОЙ ТКАНЬ: СМЕСОВАЯ, СТ-2 СОСТАВ: 35% ХЛОПОК, 65% ПОЛИЭФИР, ПЛ. 240 Г/М? ГОСТ 27575-87 ЗАЩИТНЫЕ СВОЙСТВА ЗАЩИТА ОТ ОБЩИХ ПРОИЗВОДСТВЕННЫХ ЗАГРЕЗНЕНИЙЗАЩИТА ОТ ИСТИРАНИЯВОДОУПОРНОСТЬ	 .";s:6:"parent";s:2:"78";s:4:"durl";s:71:"letnyaya_spetsodezhda/bryuki_i_polukombinezony/polukombinezon_navigator";s:4:"dtxt";s:740:"Полукомбинезон: • застёжка на молнию • втачной пояс • карманы для амортизационных накладок в области коленей • манжеты Много функциональных карманов. Размер: с 88-92 по 120-124 Рост: 170-176, 182-188 Цвет: василёк с серой отделкой Ткань: смесовая, СТ-2 Состав: 35&#37; хлопок, 65&#37; полиэфир, пл. 240 г/м? ГОСТ 27575-87 ЗАЩИТНЫЕ СВОЙСТВА Защита от общих производственных загрезненийЗащита от истиранияВодоупорность&nbsp;&nbsp;&nbsp;&nbsp; .";s:4:"dpic";s:28:"/upload/iblock/903/10572.jpg";s:11:"preview_pic";s:28:"/upload/iblock/318/10572.jpg";s:4:"bxid";s:6:"201191";s:5:"alias";s:0:"";s:7:"section";s:5:"11678";}i:18;a:14:{s:2:"id";s:3:"614";s:3:"act";s:1:"N";s:9:"prod_type";s:0:"";s:4:"name";s:37:"Полукомбинезон Уран";s:3:"art";s:9:"Пол239";s:6:"search";s:522:"ПОЛУКОМБИНЕЗОН УРАН
ПОЛУКОМБИНЕЗОН С ДВУМЯ БОКОВЫМИ ПРОРЕЗНЫМИ КАРМАНАМИ. ДВА БОКОВЫХ НАКЛАДНЫХ КАРМАНА С КЛАПАНАМИ НА УРОВНЕ КОЛЕН. ОДИН НАГРУДНЫЙ НАКЛАДНОЙ КАРМАН С КЛАПАНОМ. ЗАДНИЙ НАКЛАДНОЙ КАРМАН. СЗАДИ РЕЗИНКА В ПОЯСЕ. ГУЛЬФИК НА ПУГОВИЦАХ. РАЗМЕР: С 88-92 ПО 120-124. РОСТ: 170-176, 182-188. .";s:6:"parent";s:2:"78";s:4:"durl";s:66:"letnyaya_spetsodezhda/bryuki_i_polukombinezony/polukombinezon_uran";s:4:"dtxt";s:483:"Полукомбинезон с двумя боковыми прорезными карманами. Два боковых накладных кармана с клапанами на уровне колен. Один нагрудный накладной карман с клапаном. Задний накладной карман. Сзади резинка в поясе. Гульфик на пуговицах. Размер: с 88-92 по 120-124. Рост: 170-176, 182-188. .";s:4:"dpic";s:28:"/upload/iblock/763/16218.jpg";s:11:"preview_pic";s:28:"/upload/iblock/81b/16218.jpg";s:4:"bxid";s:6:"201195";s:5:"alias";s:0:"";s:7:"section";s:5:"11678";}i:19;a:14:{s:2:"id";s:3:"615";s:3:"act";s:1:"N";s:9:"prod_type";s:0:"";s:4:"name";s:42:"Полукомбинезон ИТР муж";s:3:"art";s:9:"Пол217";s:6:"search";s:849:"ПОЛУКОМБИНЕЗОН ИТР МУЖ

ПОЛ 217 ВНИМАНИЕ! НА НАШЕМ САЙТЕ УКАЗАНЫ ОПТОВЫЕ ЦЕНЫ, ДЕЙСТВУЮЩИЕ ПРИ ЗАКАЗЕ ОТ 5 000 РУБЛЕЙ. ДЛЯ МЕНЬШИХ ЗАКАЗОВ ДЕЙСТВУЕТ НАЦЕНКА 15%. ПОЛУКОМБИНЕЗОН ИТР ОПИСАНИЕ: ПОЛУКОМБИНЕЗОН С КОНТРАСТНОЙ ОТСТРОЧКОЙ, НАГРУДНЫМ КАРМАНОМ С КЛАПАНОМ, ОТДЕЛАННЫЙ КРАСНЫМ КАНТОМ, БОКОВЫМИ И ЗАДНИМИ КАРМАНАМИ ДЛЯ ИНСТРУМЕНТА. ЦВЕТ: ТЕМНО-СИНИЙ С КРАСНЫМ ТКАНЬ: СМЕСОВАЯ ПЛ 210 ГР./КВ.М., СОСТАВ 65% П/Э, 35% Х/Б СВОЙСТВА: З МИ ВУ РАЗМЕР: ОТ 44-46 ДО 60-62 РОСТ: ОТ 170-176 ДО 182-188";s:6:"parent";s:2:"78";s:4:"durl";s:70:"letnyaya_spetsodezhda/bryuki_i_polukombinezony/polukombinezon_itr_muzh";s:4:"dtxt";s:815:"ПОЛ 217 Внимание! На нашем сайте указаны оптовые цены, действующие при заказе от 5 000 рублей. Для меньших заказов действует наценка 15&#37;. Полукомбинезон ИТР Описание: Полукомбинезон с контрастной отстрочкой, нагрудным карманом с клапаном, отделанный красным кантом, боковыми и задними карманами для инструмента. Цвет: темно-синий с красным Ткань: смесовая пл 210 гр./кв.м., состав 65&#37; п/э, 35&#37; х/б Свойства: З Ми Ву размер: от 44-46 до 60-62 рост: от 170-176 до 182-188";s:4:"dpic";s:31:"/upload/iblock/cb9/img_3329.jpg";s:11:"preview_pic";s:31:"/upload/iblock/25d/img_3329.jpg";s:4:"bxid";s:6:"201196";s:5:"alias";s:0:"";s:7:"section";s:5:"11678";}i:20;a:14:{s:2:"id";s:3:"616";s:3:"act";s:1:"N";s:9:"prod_type";s:0:"";s:4:"name";s:65:"Комбинезон Интер цв.сер/черн/св.сер.";s:3:"art";s:9:"Ком512";s:6:"search";s:1400:"КОМБИНЕЗОН ИНТЕР ЦВ.СЕР/ЧЕРН/СВ.СЕР.
– РЕГУЛИРОВКА ПОЛУКОМБИНЕЗОНА ПО РОСТУ – ОТДЕЛКА «ЛЕГКИЙ УХОД» – ОСОБОПРОЧНОЕ КРАШЕНИЕ ТКАНИ – ВСТАВКА ИЗ СЕТКИ НА СПИНКЕ ПОЛУКОМБИНЕЗОНА – ПАТРОНТАШ ИЗ СТРОПЫ НА БРЮКАХ – ОБЪЕМНЫЙ КАРМАН С КЛАПАНОМ ДЛЯ РАЦИИ – ШЛЕВКИ ДЛЯ ПОЯСА – СЪЕМНЫЙ ПОЯС ИЗ СТРОПЫ С НАВЕСНЫМИ КАРМАНАМИ ДЛЯ ИНСТРУМЕНТОВ – УСИЛИТЕЛЬНЫЕ НАКЛАДКИ ИЗ ИЗНОСОСТОЙКОГО МАТЕРИАЛА В ОБЛАСТИ КОЛЕНЕЙ И ПО НИЗУ БРЮЧИН – КАРМАН ДЛЯ АМОРТИЗАЦИОННЫХ НАКЛАДОК НА КОЛЕНЯХ – АНАТОМИЧЕСКИЙ КРОЙ – СВЕТОВОЗВРАЩАЮЩИЕ ПОЛОСЫ ПО НИЗУ – ФУРНИТУРА YKK ЦВЕТ: СЕРЫЙ С ЧЕРНОЙ И СВЕТЛО-СЕРОЙ ОТДЕЛКОЙ МАТЕРИАЛЫ: ОСНОВНОЙ: «ТОМБОЙ» (67% ПОЛИЭФИР, 33% ХЛОПОК) ПЛ.245 Г/М2 (CARRINGTON, ВЕЛИКОБРИТАНИЯ) НАКЛАДКИ: «КОШАЧИЙ ГЛАЗ» (100% П/А) ПЛ.156 Г/М2 РАЗМЕРЫ: С 88–92 ПО 120–124 РОСТ: 170–176, 182–188 ГОСТ 27575-87";s:6:"parent";s:2:"78";s:4:"durl";s:84:"letnyaya_spetsodezhda/bryuki_i_polukombinezony/kombinezon_inter_tsv_ser_chern_sv_ser";s:4:"dtxt";s:1369:"– регулировка полукомбинезона по росту – отделка «легкий уход» – особопрочное крашение ткани – вставка из сетки на спинке полукомбинезона – патронташ из стропы на брюках – объемный карман с клапаном для рации – шлевки для пояса – съемный пояс из стропы с навесными карманами для инструментов – усилительные накладки из износостойкого материала в области коленей и по низу брючин – карман для амортизационных накладок на коленях – анатомический крой – световозвращающие полосы по низу – фурнитура YKK Цвет: серый с черной и светло-серой отделкой Материалы: основной: «Томбой» &#40;67&#37; полиэфир, 33&#37; хлопок&#41; пл.245 г/м2 &#40;Carrington, Великобритания&#41; накладки: «Кошачий глаз» &#40;100&#37; п/а&#41; пл.156 г/м2 Размеры: с 88–92 по 120–124 Рост: 170–176, 182–188 ГОСТ 27575-87";s:4:"dpic";s:28:"/upload/iblock/f05/16566.jpg";s:11:"preview_pic";s:28:"/upload/iblock/e0a/16566.jpg";s:4:"bxid";s:6:"202207";s:5:"alias";s:0:"";s:7:"section";s:5:"11678";}i:21;a:14:{s:2:"id";s:4:"1586";s:3:"act";s:1:"N";s:9:"prod_type";s:0:"";s:4:"name";s:49:"Костюм Авангард (к+пк) т.син";s:3:"art";s:9:"Кос517";s:6:"search";s:855:"КОСТЮМ АВАНГАРД (К+ПК) Т.СИН

КОСТЮМ СОСТОИТ ИЗ КУРТКИ И ПОЛУКОМБИНЕЗОНА. КУРТКА НА ПОЯСЕ С ЦЕНТРАЛЬНОЙ ПОТАЙНОЙ ЗАСТЕЖКОЙ НА ПЕТЛИ И ПУГОВИЦЫ, С БОКОВЫМИ И НАГРУДНЫМ КАРМАНАМИ. КОКЕТКА Д ИЗ КОНТРАСТНОЙ ТКАНИ, ОТДЕЛАНА СВЕТООТРАЖАЮЩЕЙ ПОЛОСОЙ. РУКАВ НА МАНЖЕТЕ. ПОЛУКОМБИНЕЗОН С НАКОЛЕННИКАМИ, С ЗАСТЕЖКАМИ - ФАСТЕКСАМИ, УДОБНЫМИ НАКЛАДНЫМИ КАРМАНАМИ. ЦВЕТ: ТЕМНО-СИНИЙ С ОРАНЖЕВЫМ ТКАНЬ: СМЕСОВАЯ, 35% - Х/Б, 65% - П/Э, ПЛОТНОСТЬ 210 Г/М? РАЗМЕР: С 44-46 ПО 60-62 РОСТ: 158-164, 170-176, 182-188 .";s:6:"parent";s:2:"69";s:4:"durl";s:76:"letnyaya_spetsodezhda/kostyumy_i_kurtki_rabochie/kostyum_avangard_k_pk_t_sin";s:4:"dtxt";s:810:"Костюм состоит из куртки и полукомбинезона. Куртка на поясе с центральной потайной застежкой на петли и пуговицы, с боковыми и нагрудным карманами. Кокетка Д из контрастной ткани, отделана светоотражающей полосой. Рукав на манжете. Полукомбинезон с наколенниками, с застежками - фастексами, удобными накладными карманами. Цвет: темно-синий с оранжевым Ткань: смесовая, 35&#37; - х/б, 65&#37; - п/э, плотность 210 г/м? Размер: с 44-46 по 60-62 Рост: 158-164, 170-176, 182-188 .";s:4:"dpic";s:27:"/upload/iblock/7bd/6026.jpg";s:11:"preview_pic";s:27:"/upload/iblock/c55/6026.jpg";s:4:"bxid";s:6:"200464";s:5:"alias";s:0:"";s:7:"section";s:5:"11723";}i:22;a:14:{s:2:"id";s:4:"1587";s:3:"act";s:1:"N";s:9:"prod_type";s:0:"";s:4:"name";s:65:"Костюм Авангард женский  (к+пк) т.син";s:3:"art";s:9:"Кос523";s:6:"search";s:558:"КОСТЮМ АВАНГАРД ЖЕНСКИЙ  (К+ПК) Т.СИН

– КУРТКА И ПОЛУКОМБИНЕЗОН – КАРМАНЫ С ХЛЯСТИКАМИ ДЛЯ УДОБСТВА РАССТЕГИВАНИЯ – РЕЗИНКА ПО ТАЛИИ КУРТКИ И ПОЛУКОМБИНЕЗОНА – РЕГУЛИРОВКА ДЛИНЫ БРЕТЕЛЕЙ ЦВЕТ: ТЕМНО-СИНИЙ С КРАСНОЙ ОТДЕЛКОЙ ТКАНЬ: СМЕСОВАЯ ПЛ.210 Г/М2, ВО РАЗМЕРЫ: С 88–92 ПО 120–124 РОСТ: 158–164,170–176 ГОСТ 27574-87 .";s:6:"parent";s:2:"69";s:4:"durl";s:85:"letnyaya_spetsodezhda/kostyumy_i_kurtki_rabochie/kostyum_avangard_zhenskiy_k_pk_t_sin";s:4:"dtxt";s:489:"– куртка и полукомбинезон – карманы с хлястиками для удобства расстегивания – резинка по талии куртки и полукомбинезона – регулировка длины бретелей Цвет: темно-синий с красной отделкой Ткань: смесовая пл.210 г/м2, ВО Размеры: с 88–92 по 120–124 Рост: 158–164,170–176 ГОСТ 27574-87 .";s:4:"dpic";s:27:"/upload/iblock/fce/9321.jpg";s:11:"preview_pic";s:27:"/upload/iblock/1aa/9321.jpg";s:4:"bxid";s:6:"200465";s:5:"alias";s:0:"";s:7:"section";s:5:"11723";}i:23;a:14:{s:2:"id";s:4:"1588";s:3:"act";s:1:"N";s:9:"prod_type";s:0:"";s:4:"name";s:43:"Костюм Автомастер (к+пк)";s:3:"art";s:9:"Кос616";s:6:"search";s:47:"КОСТЮМ АВТОМАСТЕР (К+ПК)

";s:6:"parent";s:2:"69";s:4:"durl";s:72:"letnyaya_spetsodezhda/kostyumy_i_kurtki_rabochie/kostyum_avtomaster_k_pk";s:4:"dtxt";s:0:"";s:4:"dpic";s:27:"/upload/iblock/4c7/8083.jpg";s:11:"preview_pic";s:27:"/upload/iblock/1f2/8083.jpg";s:4:"bxid";s:6:"200468";s:5:"alias";s:0:"";s:7:"section";s:5:"11723";}i:24;a:14:{s:2:"id";s:4:"1589";s:3:"act";s:1:"N";s:9:"prod_type";s:0:"";s:4:"name";s:61:"Костюм Автомойщик (к+пк) бордо/чер";s:3:"art";s:9:"Кос555";s:6:"search";s:837:"КОСТЮМ АВТОМОЙЩИК (К+ПК) БОРДО/ЧЕР

КОСТЮМ СОСТОИТ ИЗ КУРТКИ И ПОЛУКОМБИНЕЗОНА. КУРТКА: ПОТАЙНАЯ ЗАСТЁЖКА КАРМАНЫ В ШВЕ РЕЛЬЕФОВ ПОЛУКОМБИНЕЗОН: БРЕТЕЛИ С ЗАСТЁЖКОЙ НА ФАСТЕКСЫ ОСОБЕННОСТИ МОДЕЛИ: НАКЛАДКИ ИЗ ВЛАГОЗАЩИТНОЙ ТКАНИ ВЕНТИЛЯЦИОННЫЕ ОТВЕРСТИЯ СО СТОРОНЫ СПИНКИ ВНУТРЕННИЙ КАРМАН НА МОЛНИИ РАЗМЕР: С 88-92 ПО 120-124 РОСТ: 170-176, 182-188 ЦВЕТ: БОРДОВЫЙ С ЧЁРНОЙ ОТДЕЛКОЙ ТКАНЬ: СТ-1 СОСТАВ: 35% ХЛОПОК, 65% ПОЛИЭФИР, ПЛ. 210 Г/М? НАКЛАДКИ: «ОКСФОРД», 120 Г/М ? ГОСТ 27575-87 .";s:6:"parent";s:2:"69";s:4:"durl";s:86:"letnyaya_spetsodezhda/kostyumy_i_kurtki_rabochie/kostyum_avtomoyshchik_k_pk_bordo_cher";s:4:"dtxt";s:780:"Костюм состоит из куртки и полукомбинезона. Куртка: потайная застёжка карманы в шве рельефов Полукомбинезон: бретели с застёжкой на фастексы Особенности модели: накладки из влагозащитной ткани вентиляционные отверстия со стороны спинки внутренний карман на молнии Размер: с 88-92 по 120-124 Рост: 170-176, 182-188 Цвет: бордовый с чёрной отделкой Ткань: СТ-1 Состав: 35&#37; хлопок, 65&#37; полиэфир, пл. 210 г/м? Накладки: «Оксфорд», 120 г/м ? ГОСТ 27575-87 .";s:4:"dpic";s:31:"/upload/iblock/f43/img_3011.jpg";s:11:"preview_pic";s:31:"/upload/iblock/00a/img_3011.jpg";s:4:"bxid";s:6:"200470";s:5:"alias";s:0:"";s:7:"section";s:5:"11723";}i:25;a:14:{s:2:"id";s:4:"1590";s:3:"act";s:1:"N";s:9:"prod_type";s:0:"";s:4:"name";s:69:"Костюм Автомойщик (к+пк) синий/василек";s:3:"art";s:9:"Кос566";s:6:"search";s:1007:"КОСТЮМ АВТОМОЙЩИК (К+ПК) СИНИЙ/ВАСИЛЕК

КОСТЮМ СОСТОИТ ИЗ КУРТКИ И ПОЛУКОМБИНЕЗОНА. КУРТКА НА ПОЯСЕ С ПОТАЙНОЙ ЗАСТЕЖКОЙ, НАКЛАДНЫМИ КАРМАНАМИ. ПОЛУКОМБИНЕЗОН НА БРЕТЕЛЯХ С ЗАСТЁЖКОЙ НА ФАСТЕКСЫ. ОТЛИЧИТЕЛЬНАЯ ЧЕРТА: ИСПОЛЬЗОВАНИЕ ВЛАГОЗАЩИТНОЙ ТКАНИ, ВЕНТИЛЯЦИОННЫЕ ОТВЕРСТИЯ СО СТОРОНЫ СПИНКИ. - СКРЫТАЯ ФУРНИТУРА ПРЕДОТВРАТИТ КОНТАКТ С РАБОЧЕЙ ПОВЕРХНОСТЬЮ - СПИНКА ПОЛУКОМБИНЕЗОНА ИЗ ТРИКОТАЖНОЙ СЕТКИ ДЛЯ ВОЗДУХООБМЕНА ЦВЕТ: Т/СИНИЙ С ВАСИЛЬКОМ МАТЕРИАЛЫ: ОСНОВНОЙ: СМЕСОВАЯ ПЛ.210 Г/М2, ВО НАКЛАДКИ: 100% ПОЛИЭФИР РАЗМЕР: С 44-46 ПО 60-62 РОСТ:170-176, 182-188";s:6:"parent";s:2:"69";s:4:"durl";s:89:"letnyaya_spetsodezhda/kostyumy_i_kurtki_rabochie/kostyum_avtomoyshchik_k_pk_siniy_vasilek";s:4:"dtxt";s:938:"Костюм состоит из куртки и полукомбинезона. Куртка на поясе с потайной застежкой, накладными карманами. Полукомбинезон на бретелях с застёжкой на фастексы. Отличительная черта: использование влагозащитной ткани, вентиляционные отверстия со стороны спинки. - скрытая фурнитура предотвратит контакт с рабочей поверхностью - спинка полукомбинезона из трикотажной сетки для воздухообмена Цвет: т/синий с васильком Материалы: основной: смесовая пл.210 г/м2, ВО накладки: 100&#37; полиэфир Размер: с 44-46 по 60-62 Рост:170-176, 182-188";s:4:"dpic";N;s:11:"preview_pic";N;s:4:"bxid";s:6:"200471";s:5:"alias";s:0:"";s:7:"section";s:5:"11723";}i:26;a:14:{s:2:"id";s:4:"1591";s:3:"act";s:1:"N";s:9:"prod_type";s:0:"";s:4:"name";s:57:"Костюм Автотехник син/вас (к+пк)";s:3:"art";s:9:"Кос147";s:6:"search";s:997:"КОСТЮМ АВТОТЕХНИК СИН/ВАС (К+ПК)

КОСТЮМ СОСТОИТ ИЗ КУРТКИ И ПОЛУКОМБИНЕЗОНА. КУРТКА НА ПОЯСЕ С ПОТАЙНОЙ ЗАСТЕЖКОЙ, НАКЛАДНЫМИ КАРМАНАМИ. ПОЛУКОМБИНЕЗОН НА БРЕТЕЛЯХ С ЗАСТЁЖКОЙ НА ФАСТЕКСЫ. ОТЛИЧИТЕЛЬНАЯ ЧЕРТА: ИСПОЛЬЗОВАНИЕ ВЛАГОЗАЩИТНОЙ ТКАНИ, ВЕНТИЛЯЦИОННЫЕ ОТВЕРСТИЯ СО СТОРОНЫ СПИНКИ. - СКРЫТАЯ ФУРНИТУРА ПРЕДОТВРАТИТ КОНТАКТ С РАБОЧЕЙ ПОВЕРХНОСТЬЮ - СПИНКА ПОЛУКОМБИНЕЗОНА ИЗ ТРИКОТАЖНОЙ СЕТКИ ДЛЯ ВОЗДУХООБМЕНА ЦВЕТ: Т/СИНИЙ С ВАСИЛЬКОМ МАТЕРИАЛЫ: ОСНОВНОЙ: СМЕСОВАЯ ПЛ.210 Г/М2, ВО НАКЛАДКИ: 100% ПОЛИЭФИР РАЗМЕР: С 44-46 ПО 60-62 РОСТ:170-176, 182-188 .";s:6:"parent";s:2:"69";s:4:"durl";s:80:"letnyaya_spetsodezhda/kostyumy_i_kurtki_rabochie/kostyum_avtotekhniksin_vas_k_pk";s:4:"dtxt";s:940:"Костюм состоит из куртки и полукомбинезона. Куртка на поясе с потайной застежкой, накладными карманами. Полукомбинезон на бретелях с застёжкой на фастексы. Отличительная черта: использование влагозащитной ткани, вентиляционные отверстия со стороны спинки. - скрытая фурнитура предотвратит контакт с рабочей поверхностью - спинка полукомбинезона из трикотажной сетки для воздухообмена Цвет: т/синий с васильком Материалы: основной: смесовая пл.210 г/м2, ВО накладки: 100&#37; полиэфир Размер: с 44-46 по 60-62 Рост:170-176, 182-188 .";s:4:"dpic";s:31:"/upload/iblock/444/img_3117.jpg";s:11:"preview_pic";s:31:"/upload/iblock/240/img_3117.jpg";s:4:"bxid";s:6:"200473";s:5:"alias";s:0:"";s:7:"section";s:5:"11723";}i:27;a:14:{s:2:"id";s:4:"1592";s:3:"act";s:1:"N";s:9:"prod_type";s:0:"";s:4:"name";s:54:"Костюм Актуал 2 муж. сер с оран";s:3:"art";s:9:"Кос220";s:6:"search";s:58:"КОСТЮМ АКТУАЛ 2 МУЖ. СЕР С ОРАН

";s:6:"parent";s:2:"69";s:4:"durl";s:81:"letnyaya_spetsodezhda/kostyumy_i_kurtki_rabochie/kostyum_aktual_2_muzh_ser_s_oran";s:4:"dtxt";s:0:"";s:4:"dpic";s:27:"/upload/iblock/1b2/6068.jpg";s:11:"preview_pic";s:27:"/upload/iblock/ee9/6068.jpg";s:4:"bxid";s:6:"200476";s:5:"alias";s:0:"";s:7:"section";s:5:"11723";}i:28;a:14:{s:2:"id";s:4:"1593";s:3:"act";s:1:"N";s:9:"prod_type";s:0:"";s:4:"name";s:40:"Костюм Актуал женский";s:3:"art";s:9:"Кос680";s:6:"search";s:44:"КОСТЮМ АКТУАЛ ЖЕНСКИЙ

";s:6:"parent";s:2:"69";s:4:"durl";s:72:"letnyaya_spetsodezhda/kostyumy_i_kurtki_rabochie/kostyum_aktual_zhenskiy";s:4:"dtxt";s:0:"";s:4:"dpic";s:27:"/upload/iblock/e8b/8094.jpg";s:11:"preview_pic";s:27:"/upload/iblock/68a/8094.jpg";s:4:"bxid";s:6:"200477";s:5:"alias";s:0:"";s:7:"section";s:5:"11723";}i:29;a:14:{s:2:"id";s:4:"1594";s:3:"act";s:1:"N";s:9:"prod_type";s:0:"";s:4:"name";s:61:"Костюм Бостон (к+пк) т.син./красный";s:3:"art";s:9:"Кос300";s:6:"search";s:790:"КОСТЮМ БОСТОН (К+ПК) Т.СИН./КРАСНЫЙ

ТКАНЬ	СМЕСОВАЯ, (65 ПОЛИЭСТЕР, 35 ХЛОПОК), ПЛ.210 Г/М?, ВО ЦВЕТ	ТЁМНО-СИНИЙ С КРАСНЫМ РАЗМЕР	С 44-46 ПО 60-62, РОСТ 170-176, 182-18) ЗАЩИТНЫЕ СВОЙСТВА	МИ, З СТАНДАРТ	ГОСТ 27575-87 КОСТЮМ БОСТОН СОСТОИТ ИЗ КУРТКИ И ПОЛУКОМБИНЕЗОНА. КУРТКА УКОРОЧЕННАЯ, С ЗАСТЕЖКОЙ НА МОЛНИЮ, НИЖНИМИ НАКЛАДНЫМИ КАРМАНАМИ, ВЕРХНИМ КАРМАНОМ ДЛЯ СРЕДСТВ СВЯЗИ. ПОЛУКОМБИНЕЗОН С НАГРУДНЫМ, БОКОВЫМИ КАРМАНАМИ И ЗАДНИМ КАРМАНОМ ПОД ИНСТРУМЕНТ. .";s:6:"parent";s:2:"69";s:4:"durl";s:82:"letnyaya_spetsodezhda/kostyumy_i_kurtki_rabochie/kostyum_boston_k_pk_t_sin_krasnyy";s:4:"dtxt";s:852:"Ткань&nbsp;&nbsp;&nbsp;&nbsp;смесовая, &#40;65 полиэстер, 35 хлопок&#41;, пл.210 г/м?, ВО Цвет&nbsp;&nbsp;&nbsp;&nbsp;тёмно-синий с красным Размер&nbsp;&nbsp;&nbsp;&nbsp;с 44-46 по 60-62, рост 170-176, 182-18&#41; Защитные свойства&nbsp;&nbsp;&nbsp;&nbsp;Ми, З Стандарт&nbsp;&nbsp;&nbsp;&nbsp;ГОСТ 27575-87 Костюм Бостон состоит из куртки и полукомбинезона. Куртка укороченная, с застежкой на молнию, нижними накладными карманами, верхним карманом для средств связи. Полукомбинезон с нагрудным, боковыми карманами и задним карманом под инструмент. .";s:4:"dpic";s:28:"/upload/iblock/8ae/13731.jpg";s:11:"preview_pic";s:28:"/upload/iblock/946/13731.jpg";s:4:"bxid";s:6:"200487";s:5:"alias";s:0:"";s:7:"section";s:5:"11723";}i:30;a:14:{s:2:"id";s:4:"1595";s:3:"act";s:1:"Y";s:9:"prod_type";s:0:"";s:4:"name";s:32:"Костюм Гретта КМФ";s:3:"art";s:9:"Кос153";s:6:"search";s:479:"КОСТЮМ ГРЕТТА КМФ

КУРТКА ПРЯМАЯ С ЗАСТЕЖКОЙ НА ПУГОВИЦЫ. ИМЕЮТСЯ НАГРУДНЫЙ НАКЛАДНОЙ КАРМАН И ДВА БОКОВЫХ НАКЛАДНЫХ КАРМАНА. БРЮКИ С БОКОВЫМИ НАКЛАДНЫМИ КАРМАНАМИ. ЦВЕТ: КМФ МИЛИТАРИ ТКАНЬ: СМЕСОВАЯ 65% П/Э, 35% Х/Б, ПЛ. 215 Г/:З МИ ВУ РАЗМЕР: С 44-46 ПО 68-70 РОСТ: 170-176, 182-188 .";s:6:"parent";s:2:"69";s:4:"durl";s:67:"letnyaya_spetsodezhda/kostyumy_i_kurtki_rabochie/kostyum_gretta_kmf";s:4:"dtxt";s:451:"Куртка прямая с застежкой на пуговицы. Имеются нагрудный накладной карман и два боковых накладных кармана. Брюки с боковыми накладными карманами. Цвет: КМФ Милитари Ткань: смесовая 65&#37; п/э, 35&#37; х/б, пл. 215 г/:З Ми Ву Размер: с 44-46 по 68-70 Рост: 170-176, 182-188 .";s:4:"dpic";s:31:"/upload/iblock/0cc/img_3063.jpg";s:11:"preview_pic";s:31:"/upload/iblock/f64/img_3063.jpg";s:4:"bxid";s:6:"200507";s:5:"alias";s:0:"";s:7:"section";s:5:"11723";}i:31;a:14:{s:2:"id";s:4:"1596";s:3:"act";s:1:"N";s:9:"prod_type";s:0:"";s:4:"name";s:37:"Костюм Дамаск кур/бр";s:3:"art";s:9:"Кос331";s:6:"search";s:924:"КОСТЮМ ДАМАСК КУР/БР

ОПИСАНИЕ: КОМПЛЕКТАЦИЯ: КУРТКА + БРЮКИ. КУРТКА ПРЯМАЯ С ЗАСТЕЖКОЙ НА ПУГОВИЦЫ, С ЗАДИ КУЛИСКА, С ДВУМЯ КАРМАНАМИ СНИЗУ И ОДНИМ НАГРУДНЫМ КАРМАНОМ С КЛАПАНОМ. КОКЕТКА ПОЛОЧКИ И СПИНКИ ВЫПОЛНЕНА ИЗ КОНТРАСТНОГО ЦВЕТА. БРЮКИ ПРЯМЫЕ С НАКЛАДНЫМИ КАРМАНАМИ ПО БОКАМ, С ПРИТАЧНЫМ ПОЯСОМ. КОСТЮМ УСИЛЕН НАКЛАДКАМИ В РАЙОНЕ ЛОКТЕЙ И КОЛЕН. ПО ЛИНИИ КОКЕТКИ И НИЗУ БРЮК СОПЦВЕТ: ТЕМНО-СИНИЙ С ВАСИЛЬКОМ. ТКАНЬ: СМЕСОВАЯ 65% П/Э, 35% Х/Б, ПЛ. 240 СВОЙСТВА: З МИ ВУ РАЗМЕР: ОТ 44-46 ДО 60-62 РОСТ: ОТ 170-176 ДО 182-188 . .";s:6:"parent";s:2:"69";s:4:"durl";s:70:"letnyaya_spetsodezhda/kostyumy_i_kurtki_rabochie/kostyum_damask_kur_br";s:4:"dtxt";s:895:"Описание: Комплектация: куртка &#43; брюки. Куртка прямая с застежкой на пуговицы, с зади кулиска, с двумя карманами снизу и одним нагрудным карманом с клапаном. Кокетка полочки и спинки выполнена из контрастного цвета. Брюки прямые с накладными карманами по бокам, с притачным поясом. Костюм усилен накладками в районе локтей и колен. По линии кокетки и низу брюк СОПЦвет: темно-синий с васильком. Ткань: смесовая 65&#37; п/э, 35&#37; х/б, пл. 240 Свойства: З Ми Ву размер: от 44-46 до 60-62 рост: от 170-176 до 182-188 . .";s:4:"dpic";s:28:"/upload/iblock/f7b/10924.jpg";s:11:"preview_pic";s:28:"/upload/iblock/a0b/10924.jpg";s:4:"bxid";s:6:"200509";s:5:"alias";s:0:"";s:7:"section";s:5:"11723";}i:32;a:14:{s:2:"id";s:4:"1597";s:3:"act";s:1:"N";s:9:"prod_type";s:0:"";s:4:"name";s:57:"Костюм Дока (к+п/к) цв.зел/желтый";s:3:"art";s:9:"Кос814";s:6:"search";s:2512:"КОСТЮМ ДОКА (К+П/К) ЦВ.ЗЕЛ/ЖЕЛТЫЙ

КОМПЛЕКТАЦИЯ: КУРТКА + ПОЛУКОМБИНЕЗОН. КУРТКА С ЦЕНТРАЛЬНОЙ СУПАТНОЙ ЗАСТЕЖКОЙ, С ПРИТАЧНЫМИ ПРЯМЫМИ КОКЕТКАМИ ПОЛОЧЕК И СПИНКИ, С ДВУМЯ НАГРУДНЫМИ НАКЛАДНЫМИ КАРМАНАМИ С КЛАПАНАМИ И НИЖНИМИ НАКЛАДНЫМИ КАРМАНАМИ СО СКОШЕННЫМ ВХОДОМ. РУКАВА ВТАЧНЫЕ ДВУХШОВНЫЕ, С ЦЕЛЬНОКРОЕНОЙ МАНЖЕТОЙ, РЕГУЛИРУЮЩЕЙСЯ ДВУМЯ ПУГОВИЦАМИ. В ВЕРХНЕЙ ЧАСТИ ЛЕВОГО РУКАВА НАКЛАДНОЙ КАРМАН С МОЛНИЕЙ. ВОРОТНИК ВТАЧНОЙ, ОТЛОЖНОЙ. НИЖНЯЯ ЧАСТЬ КЛАПАНОВ, НИЖНИЙ ВОРОТНИК ВЫПОЛНЕНЫ ИЗ ОТДЕЛОЧНОЙ ТКАНИ, ОБРАЗУЯ КАНТ НА ЛИЦЕВОЙ СТОРОНЕ.. ПО НИЗУ КУРТКИ ПРИТАЧНОЙ ПОЯС С УЧАСТКАМИ ЭЛАСТИЧНОЙ ТЕСЬМЫ В ОБЛАСТИ БОКОВЫХ ШВОВ. ПОЛУКОМБИНЕЗОН С ЗАСТЕЖКОЙ ГУЛЬФИКА НА ТРИ ПУГОВИЦЫ И ПЕТЛИ И ЗАСТЕЖКОЙ В ЛЕВОМ БОКОВОМ ШВЕ НА ДВЕ ПУГОВИЦЫ И ПЕТЛИ, С БОКОВЫМИ КАРМАНАМИ В БОКОВЫХ ШВАХ С НАКЛОННЫМ ВХОДОМ. НА ПРАВОЙ ЗАДНЕЙ ПОЛОВИНКЕ ПЯТИУГОЛЬНЫЙ НАКЛАДНОЙ КАРМАН И НАКЛАДНОЙ КАРМАН ДЛЯ ИНСТРУМЕНТОВ. МЕЖДУ НАКЛАДНЫМ КАРМАНОМ ЗАДНЕЙ ПОЛОВИНКИ ПОЛУКОМБИНЕЗОНА И ПРАВЫМ БОКОВЫМ ШВОМ РАСПОЛОЖЕНА ШЛЕВКА ИЗ ОТДЕЛОЧНОЙ ТКАНИ. СПЕРЕДИ К ПОЯСУ ПРИТАЧАНА ГРУДКА С НАКЛАДНЫМ КАРМАНОМ С КЛАПАНОМ, ЗАСТЕГИВАЮЩИМСЯ НА ПЕТЛЮ И ПУГОВИЦУ НИЖНЯЯ ЧАСТЬ КЛАПАНА ИЗ ОТДЕЛОЧНОЙ ТКАНИ, ОБРАЗУЯ КАНТ НА ЛИЦЕВОЙ СТОРОНЕ.. БРЕТЕЛИ С УЧАСТКОМ ЭЛАСТИЧНОЙ ТЕСЬМЫ СЗАДИ ПРИСТЕГИВАЮТСЯ К ГРУДКЕ КАРАБИНАМИ. ЦВЕТ: ВАСИЛЕК С ЛИМОННОЙ ОТДЕЛКОЙ ТКАНЬ: СМЕСОВАЯ ПЛ. 210 ГР./КВ.М. РАЗМЕР: 44-46 ПО 60-62 РОСТ: 170-176, 182-188";s:6:"parent";s:2:"69";s:4:"durl";s:83:"letnyaya_spetsodezhda/kostyumy_i_kurtki_rabochie/kostyum_doka_k_p_k_tsv_zel_zheltyy";s:4:"dtxt";s:2455:"Комплектация: куртка &#43; полукомбинезон. КУРТКА с центральной супатной застежкой, с притачными прямыми кокетками полочек и спинки, с двумя нагрудными накладными карманами с клапанами и нижними накладными карманами со скошенным входом. Рукава втачные двухшовные, с цельнокроеной манжетой, регулирующейся двумя пуговицами. В верхней части левого рукава накладной карман с молнией. Воротник втачной, отложной. Нижняя часть клапанов, нижний воротник выполнены из отделочной ткани, образуя кант на лицевой стороне.. По низу куртки притачной пояс с участками эластичной тесьмы в области боковых швов. Полукомбинезон с застежкой гульфика на три пуговицы и петли и застежкой в левом боковом шве на две пуговицы и петли, с боковыми карманами в боковых швах с наклонным входом. На правой задней половинке пятиугольный накладной карман и накладной карман для инструментов. Между накладным карманом задней половинки полукомбинезона и правым боковым швом расположена шлевка из отделочной ткани. Спереди к поясу притачана грудка с накладным карманом с клапаном, застегивающимся на петлю и пуговицу Нижняя часть клапана из отделочной ткани, образуя кант на лицевой стороне.. Бретели с участком эластичной тесьмы сзади пристегиваются к грудке карабинами. Цвет: василек с лимонной отделкой Ткань: смесовая пл. 210 гр./кВ.м. Размер: 44-46 по 60-62 Рост: 170-176, 182-188";s:4:"dpic";s:28:"/upload/iblock/d20/15985.jpg";s:11:"preview_pic";s:28:"/upload/iblock/fa9/15985.jpg";s:4:"bxid";s:6:"200513";s:5:"alias";s:0:"";s:7:"section";s:5:"11723";}i:33;a:14:{s:2:"id";s:4:"1598";s:3:"act";s:1:"N";s:9:"prod_type";s:0:"";s:4:"name";s:58:"Костюм Дока (к+п/к) цв.вас./желтый";s:3:"art";s:9:"Кос282";s:6:"search";s:2513:"КОСТЮМ ДОКА (К+П/К) ЦВ.ВАС./ЖЕЛТЫЙ

КОМПЛЕКТАЦИЯ: КУРТКА + ПОЛУКОМБИНЕЗОН. КУРТКА С ЦЕНТРАЛЬНОЙ СУПАТНОЙ ЗАСТЕЖКОЙ, С ПРИТАЧНЫМИ ПРЯМЫМИ КОКЕТКАМИ ПОЛОЧЕК И СПИНКИ, С ДВУМЯ НАГРУДНЫМИ НАКЛАДНЫМИ КАРМАНАМИ С КЛАПАНАМИ И НИЖНИМИ НАКЛАДНЫМИ КАРМАНАМИ СО СКОШЕННЫМ ВХОДОМ. РУКАВА ВТАЧНЫЕ ДВУХШОВНЫЕ, С ЦЕЛЬНОКРОЕНОЙ МАНЖЕТОЙ, РЕГУЛИРУЮЩЕЙСЯ ДВУМЯ ПУГОВИЦАМИ. В ВЕРХНЕЙ ЧАСТИ ЛЕВОГО РУКАВА НАКЛАДНОЙ КАРМАН С МОЛНИЕЙ. ВОРОТНИК ВТАЧНОЙ, ОТЛОЖНОЙ. НИЖНЯЯ ЧАСТЬ КЛАПАНОВ, НИЖНИЙ ВОРОТНИК ВЫПОЛНЕНЫ ИЗ ОТДЕЛОЧНОЙ ТКАНИ, ОБРАЗУЯ КАНТ НА ЛИЦЕВОЙ СТОРОНЕ.. ПО НИЗУ КУРТКИ ПРИТАЧНОЙ ПОЯС С УЧАСТКАМИ ЭЛАСТИЧНОЙ ТЕСЬМЫ В ОБЛАСТИ БОКОВЫХ ШВОВ. ПОЛУКОМБИНЕЗОН С ЗАСТЕЖКОЙ ГУЛЬФИКА НА ТРИ ПУГОВИЦЫ И ПЕТЛИ И ЗАСТЕЖКОЙ В ЛЕВОМ БОКОВОМ ШВЕ НА ДВЕ ПУГОВИЦЫ И ПЕТЛИ, С БОКОВЫМИ КАРМАНАМИ В БОКОВЫХ ШВАХ С НАКЛОННЫМ ВХОДОМ. НА ПРАВОЙ ЗАДНЕЙ ПОЛОВИНКЕ ПЯТИУГОЛЬНЫЙ НАКЛАДНОЙ КАРМАН И НАКЛАДНОЙ КАРМАН ДЛЯ ИНСТРУМЕНТОВ. МЕЖДУ НАКЛАДНЫМ КАРМАНОМ ЗАДНЕЙ ПОЛОВИНКИ ПОЛУКОМБИНЕЗОНА И ПРАВЫМ БОКОВЫМ ШВОМ РАСПОЛОЖЕНА ШЛЕВКА ИЗ ОТДЕЛОЧНОЙ ТКАНИ. СПЕРЕДИ К ПОЯСУ ПРИТАЧАНА ГРУДКА С НАКЛАДНЫМ КАРМАНОМ С КЛАПАНОМ, ЗАСТЕГИВАЮЩИМСЯ НА ПЕТЛЮ И ПУГОВИЦУ НИЖНЯЯ ЧАСТЬ КЛАПАНА ИЗ ОТДЕЛОЧНОЙ ТКАНИ, ОБРАЗУЯ КАНТ НА ЛИЦЕВОЙ СТОРОНЕ.. БРЕТЕЛИ С УЧАСТКОМ ЭЛАСТИЧНОЙ ТЕСЬМЫ СЗАДИ ПРИСТЕГИВАЮТСЯ К ГРУДКЕ КАРАБИНАМИ. ЦВЕТ: ВАСИЛЕК С ЛИМОННОЙ ОТДЕЛКОЙ ТКАНЬ: СМЕСОВАЯ ПЛ. 210 ГР./КВ.М. РАЗМЕР: 44-46 ПО 60-62 РОСТ: 170-176, 182-188";s:6:"parent";s:2:"69";s:4:"durl";s:83:"letnyaya_spetsodezhda/kostyumy_i_kurtki_rabochie/kostyum_doka_k_p_k_tsv_vas_zheltyy";s:4:"dtxt";s:2455:"Комплектация: куртка &#43; полукомбинезон. КУРТКА с центральной супатной застежкой, с притачными прямыми кокетками полочек и спинки, с двумя нагрудными накладными карманами с клапанами и нижними накладными карманами со скошенным входом. Рукава втачные двухшовные, с цельнокроеной манжетой, регулирующейся двумя пуговицами. В верхней части левого рукава накладной карман с молнией. Воротник втачной, отложной. Нижняя часть клапанов, нижний воротник выполнены из отделочной ткани, образуя кант на лицевой стороне.. По низу куртки притачной пояс с участками эластичной тесьмы в области боковых швов. Полукомбинезон с застежкой гульфика на три пуговицы и петли и застежкой в левом боковом шве на две пуговицы и петли, с боковыми карманами в боковых швах с наклонным входом. На правой задней половинке пятиугольный накладной карман и накладной карман для инструментов. Между накладным карманом задней половинки полукомбинезона и правым боковым швом расположена шлевка из отделочной ткани. Спереди к поясу притачана грудка с накладным карманом с клапаном, застегивающимся на петлю и пуговицу Нижняя часть клапана из отделочной ткани, образуя кант на лицевой стороне.. Бретели с участком эластичной тесьмы сзади пристегиваются к грудке карабинами. Цвет: василек с лимонной отделкой Ткань: смесовая пл. 210 гр./кВ.м. Размер: 44-46 по 60-62 Рост: 170-176, 182-188";s:4:"dpic";s:28:"/upload/iblock/588/13230.jpg";s:11:"preview_pic";s:28:"/upload/iblock/438/13230.jpg";s:4:"bxid";s:6:"200514";s:5:"alias";s:0:"";s:7:"section";s:5:"11723";}i:34;a:14:{s:2:"id";s:4:"1599";s:3:"act";s:1:"N";s:9:"prod_type";s:0:"";s:4:"name";s:59:"Костюм Жанна (к+бр) цв.т.сер/серый";s:3:"art";s:9:"Кос025";s:6:"search";s:743:"КОСТЮМ ЖАННА (К+БР) ЦВ.Т.СЕР/СЕРЫЙ

КОСТЮМ СОСТОИТ ИЗ УДЛИНЁННОЙ КУРТКИ И БРЮК. КУРТКА: УДЛИНЕННАЯ, ПОЛУПРИЛЕГАЮЩЕГО СИЛУЭТА С ЦЕНТРАЛЬНОЙ ЗАСТЁЖКОЙ НА ПУГОВИЦЫ, ОТДЕЛКОЙ КОНТРАСТНЫМ КАНТОМ ПО РЕЛЬЕФАМ ПОЛОЧЕК, ВТАЧНЫМ РУКАВОМ НА МАНЖЕТЕ БРЮКИ: ПРЯМЫЕ С ЗАСТЁЖКОЙ СПЕРЕДИ. ЦВЕТ: ТЕМНО-СЕРЫЙ СО СВЕТЛО-СЕРЫМ И КРАСНОЙ ОТДЕЛКОЙ ТКАНЬ: СМЕСОВАЯ, 35% - Х/Б, 65% - П/Э, ПЛОТНОСТЬ 210 Г/М2 РАЗМЕР: С 44-46 ПО 60-62 РОСТ: 170-176, 182-188 .";s:6:"parent";s:2:"69";s:4:"durl";s:84:"letnyaya_spetsodezhda/kostyumy_i_kurtki_rabochie/kostyum_zhanna_k_br_tsv_t_ser_seryy";s:4:"dtxt";s:688:"Костюм состоит из удлинённой куртки и брюк. Куртка: Удлиненная, полуприлегающего силуэта с центральной застёжкой на пуговицы, отделкой контрастным кантом по рельефам полочек, втачным рукавом на манжете Брюки: Прямые с застёжкой спереди. Цвет: темно-серый со светло-серым и красной отделкой Ткань: смесовая, 35&#37; - х/б, 65&#37; - п/э, плотность 210 г/м2 Размер: с 44-46 по 60-62 Рост: 170-176, 182-188 .";s:4:"dpic";s:28:"/upload/iblock/82e/12390.jpg";s:11:"preview_pic";s:28:"/upload/iblock/f52/12390.jpg";s:4:"bxid";s:6:"200521";s:5:"alias";s:0:"";s:7:"section";s:5:"11723";}i:35;a:14:{s:2:"id";s:4:"1600";s:3:"act";s:1:"N";s:9:"prod_type";s:0:"";s:4:"name";s:59:"Костюм Жанна (к+пк) цв.т.сер/серый";s:3:"art";s:9:"Кос030";s:6:"search";s:719:"КОСТЮМ ЖАННА (К+ПК) ЦВ.Т.СЕР/СЕРЫЙ

КОСТЮМ СОСТОИТ ИЗ УДЛИНЁННОЙ КУРТКИ И ПОЛУКОМБИНЕЗОНА. КУРТКА: УДЛИНЕННАЯ, ПОЛУПРИЛЕГАЮЩЕГО СИЛУЭТА С ЦЕНТРАЛЬНОЙ ПОТАЙНОЙ ЗАСТЁЖКОЙ НА ПУГОВИЦЫ, ОТДЕЛКОЙ КОНТРАСТНЫМ КАНТОМ ПО РЕЛЬЕФАМ ПОЛОЧЕК, ВТАЧНЫМ РУКАВОМ НА МАНЖЕТЕ ЦВЕТ: ТЕМНО-СЕРЫЙ СО СВЕТЛО-СЕРЫМ И КРАСНОЙ ОТДЕЛКОЙ ТКАНЬ: СМЕСОВАЯ, 35% - Х/Б, 65% - П/Э, ПЛОТНОСТЬ 210 Г/М2 РАЗМЕР: С 44-46 ПО 60-62 РОСТ: 170-176, 182-188 .";s:6:"parent";s:2:"69";s:4:"durl";s:84:"letnyaya_spetsodezhda/kostyumy_i_kurtki_rabochie/kostyum_zhanna_k_pk_tsv_t_ser_seryy";s:4:"dtxt";s:664:"Костюм состоит из удлинённой куртки и полукомбинезона. Куртка: Удлиненная, полуприлегающего силуэта с центральной потайной застёжкой на пуговицы, отделкой контрастным кантом по рельефам полочек, втачным рукавом на манжете Цвет: темно-серый со светло-серым и красной отделкой Ткань: смесовая, 35&#37; - х/б, 65&#37; - п/э, плотность 210 г/м2 Размер: с 44-46 по 60-62 Рост: 170-176, 182-188 .";s:4:"dpic";s:28:"/upload/iblock/356/12676.jpg";s:11:"preview_pic";s:28:"/upload/iblock/cb9/12676.jpg";s:4:"bxid";s:6:"200522";s:5:"alias";s:0:"";s:7:"section";s:5:"11723";}i:36;a:14:{s:2:"id";s:4:"1601";s:3:"act";s:1:"N";s:9:"prod_type";s:0:"";s:4:"name";s:44:"Костюм Зенит  цв.зеленый";s:3:"art";s:9:"Кос386";s:6:"search";s:1079:"КОСТЮМ ЗЕНИТ  ЦВ.ЗЕЛЕНЫЙ

КУРТКА УКОРОЧЕННАЯ НА ПОЯСЕ С БОКОВЫМИ РЕЗИНКАМИ. ЦЕНТРАЛЬНАЯ СУППАТНАЯ ЗАСТЕЖКА НА ПУГОВИЦАХ. ВТАЧНЫЕ МАНЖЕТЫ НА ПУГОВИЦАХ. ДВА БОКОВЫХ КОСЫХ НАКЛАДНЫХ КАРМАНА. ДВА НАГРУДНЫХ НАКЛАДНЫХ КАРМАНА С КЛАПАНАМИ НА ЛИПУЧКЕ. ОТДЕЛКА ЛЮМИНИСЦЕНТНЫМ КАНТОМ. НА ЛЕВОМ НАГРУДНЕМ КАРМАНЕ МЕТАЛЛИЧЕСКОЕ ПОЛУКОЛЬЦО ДЛЯ КЛЮЧЕЙ. ПОЛУКОМБИНЕЗОН С ДВУМЯ БОКОВЫМИ НАКЛАДНЫМИ КАРМАНАМИ, ОДНИМ НАКЛАДНЫМ КАРМАНОМ СЗАДИ. НА ГРУДКЕ НАКЛАДНОЙ КАРМАН С КЛАПАНОМ НА ЛИПУЧКЕ И ОТСТРОЧКОЙ ПОД ИНСТРУМЕНТ. СЗАДИ РЕЗИНКА ПО ПОЯСУ. ГУЛЬФИК НА ПУГОВИЦАХ. РАЗМЕР: С 88-92 ПО 120-124. РОСТ: 170-176, 182-188. .";s:6:"parent";s:2:"69";s:4:"durl";s:74:"letnyaya_spetsodezhda/kostyumy_i_kurtki_rabochie/kostyum_zenit_tsv_zelenyy";s:4:"dtxt";s:1031:"Куртка укороченная на поясе с боковыми резинками. Центральная суппатная застежка на пуговицах. Втачные манжеты на пуговицах. Два боковых косых накладных кармана. Два нагрудных накладных кармана с клапанами на липучке. Отделка люминисцентным кантом. На левом нагруднем кармане металлическое полукольцо для ключей. Полукомбинезон с двумя боковыми накладными карманами, одним накладным карманом сзади. На грудке накладной карман с клапаном на липучке и отстрочкой под инструмент. Сзади резинка по поясу. Гульфик на пуговицах. Размер: с 88-92 по 120-124. Рост: 170-176, 182-188. .";s:4:"dpic";s:28:"/upload/iblock/c92/16216.jpg";s:11:"preview_pic";s:28:"/upload/iblock/6b8/16216.jpg";s:4:"bxid";s:6:"200524";s:5:"alias";s:0:"";s:7:"section";s:5:"11723";}i:37;a:14:{s:2:"id";s:4:"1602";s:3:"act";s:1:"Y";s:9:"prod_type";s:0:"";s:4:"name";s:49:"Костюм Легион син-вас (к+пк)";s:3:"art";s:9:"Кос851";s:6:"search";s:912:"КОСТЮМ ЛЕГИОН СИН-ВАС (К+ПК)

КУРТКА УКОРОЧЕННАЯ НА ПОЯСЕ С СУПАТНОЙ ЗАСТЕЖКОЙ НА ПУГОВИЦЫ. ПОЛОЧКИ И СПИНКА НА КОКЕТКАХ КОНТРАСТНОГО ЦВЕТА. ПО ЛИНИИ КОКЕТКИ СОП ШИРИНОЙ 5 СМ. СВЕРХУ ДВА НАКЛАДНЫХ КАРМАНА НА КЛАПАНАХ, СНИЗУ ДВА НАКЛАДНЫХ С КОСЫМ ВХОДОМ. ПОЛУКОМБИНЕЗОН С БОКОВЫМИ НАКЛАДНЫМИ КАРМАНАМИ И НАКЛАДНЫМ НАГРУДНЫМ КАРМАНОМ С КЛАПАНОМ. ЦВЕТ: ТЕМНО-СИНИЙ С ВАСИЛЬКОМ (ВОЗМОЖЕН ВАРИАНТ ИЗГОТОВЛЕНИЯ С ЛЮБЫМИ ЦВЕТАМИ) ТКАНЬ: СМЕСОВАЯ 65% П/Э, 35% Х/Б, ПЛ. 215 Г/:З МИ ВУ РАЗМЕР: С 44-46 ПО 64-66 РОСТ: 170-176, 182-188 .";s:6:"parent";s:2:"69";s:4:"durl";s:76:"letnyaya_spetsodezhda/kostyumy_i_kurtki_rabochie/kostyum_legion_sin_vas_k_pk";s:4:"dtxt";s:875:"Куртка укороченная на поясе с супатной застежкой на пуговицы. Полочки и спинка на кокетках контрастного цвета. По линии кокетки СОП шириной 5 см. Сверху два накладных кармана на клапанах, снизу два накладных с косым входом. Полукомбинезон с боковыми накладными карманами и накладным нагрудным карманом с клапаном. Цвет: темно-синий с васильком &#40;возможен вариант изготовления с любыми цветами&#41; Ткань: смесовая 65&#37; п/э, 35&#37; х/б, пл. 215 г/:З Ми Ву Размер: с 44-46 по 64-66 Рост: 170-176, 182-188 .";s:4:"dpic";s:31:"/upload/iblock/6b9/img_3211.jpg";s:11:"preview_pic";s:31:"/upload/iblock/843/img_3211.jpg";s:4:"bxid";s:6:"200541";s:5:"alias";s:0:"";s:7:"section";s:5:"11723";}i:38;a:14:{s:2:"id";s:4:"1603";s:3:"act";s:1:"N";s:9:"prod_type";s:0:"";s:4:"name";s:45:"Костюм Мастер с СОП (к+пк)";s:3:"art";s:9:"Кос307";s:6:"search";s:49:"КОСТЮМ МАСТЕР С СОП (К+ПК)

";s:6:"parent";s:2:"69";s:4:"durl";s:74:"letnyaya_spetsodezhda/kostyumy_i_kurtki_rabochie/kostyum_master_s_sop_k_pk";s:4:"dtxt";s:0:"";s:4:"dpic";N;s:11:"preview_pic";N;s:4:"bxid";s:6:"200549";s:5:"alias";s:0:"";s:7:"section";s:5:"11723";}i:39;a:14:{s:2:"id";s:4:"1604";s:3:"act";s:1:"N";s:9:"prod_type";s:0:"";s:4:"name";s:55:"Костюм Мастер (к+бр) черн/бордо";s:3:"art";s:9:"Кос214";s:6:"search";s:59:"КОСТЮМ МАСТЕР (К+БР) ЧЕРН/БОРДО

";s:6:"parent";s:2:"69";s:4:"durl";s:80:"letnyaya_spetsodezhda/kostyumy_i_kurtki_rabochie/kostyum_master_k_br_chern_bordo";s:4:"dtxt";s:0:"";s:4:"dpic";N;s:11:"preview_pic";N;s:4:"bxid";s:6:"200551";s:5:"alias";s:0:"";s:7:"section";s:5:"11723";}i:40;a:14:{s:2:"id";s:4:"1605";s:3:"act";s:1:"N";s:9:"prod_type";s:0:"";s:4:"name";s:49:"Костюм Мастер (к+пк) син-вас";s:3:"art";s:9:"Кос215";s:6:"search";s:851:"КОСТЮМ МАСТЕР (К+ПК) СИН-ВАС

КУРТКА УКОРОЧЕННАЯ НА ПОЯСЕ С СУПАТНОЙ ЗАСТЕЖКОЙ НА ПУГОВИЦЫ. ПОЛОЧКИ И СПИНКА НА КОКЕТКАХ КОНТРАСТНОГО ЦВЕТА. СВЕРХУ ДВА НАКЛАДНЫХ КАРМАНА НА КЛАПАНАХ, СНИЗУ ДВА НАКЛАДНЫХ С КОСЫМ ВХОДОМ. ПОЛУКОМБИНЕЗОН С БОКОВЫМИ НАКЛАДНЫМИ КАРМАНАМИ И НАКЛАДНЫМ НАГРУДНЫМ КАРМАНОМ С КЛАПАНОМ. ЦВЕТ: ТЕМНО-СИНИЙ С ВАСИЛЬКОМ (ВОЗМОЖЕН ВАРИАНТ ИЗГОТОВЛЕНИЯ С ЛЮБЫМИ ЦВЕТАМИ) ТКАНЬ: СМЕСОВАЯ 65% П/Э, 35% Х/Б, ПЛ. 215 Г/:З МИ ВУ РАЗМЕР: С 44-46 ПО 68-70 РОСТ: 170-176, 182-188 .";s:6:"parent";s:2:"69";s:4:"durl";s:76:"letnyaya_spetsodezhda/kostyumy_i_kurtki_rabochie/kostyum_master_k_pk_sin_vas";s:4:"dtxt";s:814:"Куртка укороченная на поясе с супатной застежкой на пуговицы. Полочки и спинка на кокетках контрастного цвета. Сверху два накладных кармана на клапанах, снизу два накладных с косым входом. Полукомбинезон с боковыми накладными карманами и накладным нагрудным карманом с клапаном. Цвет: темно-синий с васильком &#40;возможен вариант изготовления с любыми цветами&#41; Ткань: смесовая 65&#37; п/э, 35&#37; х/б, пл. 215 г/:З Ми Ву Размер: с 44-46 по 68-70 Рост: 170-176, 182-188 .";s:4:"dpic";s:31:"/upload/iblock/5bb/img_3255.jpg";s:11:"preview_pic";s:31:"/upload/iblock/dce/img_3255.jpg";s:4:"bxid";s:6:"200552";s:5:"alias";s:0:"";s:7:"section";s:5:"11723";}i:41;a:14:{s:2:"id";s:4:"1606";s:3:"act";s:1:"Y";s:9:"prod_type";s:0:"";s:4:"name";s:32:"Костюм Мастер КМФ";s:3:"art";s:9:"Кос143";s:6:"search";s:926:"КОСТЮМ МАСТЕР КМФ

КОСТЮМ РАБОЧИЙ КАМУФЛИРОВАННЫЙ. СОСТОИТ ИЗ КУРТКИ И БРЮКИ. УКОРОЧЕННАЯ КУРТКА С ПОЯСОМ НА РЕЗИНКЕ И С ЗАСТЕЖКОЙ НА МОЛНИЮ. НА КУРТКЕ ДВА НАГРУДНЫХ КАРМАНА СО СКЛАДКОЙ И КЛАПАНОМ И ДВА НИЖНИХ НАКЛАДНЫХ С БОКОВЫМ ВХОДОМ; ВОРОТНИК ВТАЧНОЙ, РУКАВ НА МАНЖЕТЕ.БРЮКИ ПРЯМЫЕ С ВНУТРЕННИМИ БОКОВЫМИ КАРМАНАМИ. ДЛЯ ЛУЧШЕЙ ПОСАДКИ НА ФИГУРЕ В ПОЯС МОДЕЛИ ВТАЧЕНА РЕЗИНКА, ШЛЕВКИ ПОД ШИРОКИЙ ПОЯС. ТКАНЬ «ГРЕТА» (51% ХЛОПОК, 49% ПОЛИЭФИР) ПЛ. 220ГР/ПМ ЦВЕТ КАМУФЛИРОВАННЫЙ РАЗМЕР С 46-48 ПО 60-62 РОСТ 170-176, 182-188 .";s:6:"parent";s:2:"69";s:4:"durl";s:67:"letnyaya_spetsodezhda/kostyumy_i_kurtki_rabochie/kostyum_master_kmf";s:4:"dtxt";s:906:"Костюм рабочий камуфлированный. Состоит из куртки и брюки. Укороченная куртка с поясом на резинке и с застежкой на молнию. На куртке два нагрудных кармана со складкой и клапаном и два нижних накладных с боковым входом; воротник втачной, рукав на манжете.Брюки прямые с внутренними боковыми карманами. Для лучшей посадки на фигуре в пояс модели втачена резинка, шлевки под широкий пояс. Ткань «Грета» &#40;51&#37; хлопок, 49&#37; полиэфир&#41; пл. 220гр/пм Цвет камуфлированный Размер с 46-48 по 60-62 Рост 170-176, 182-188 .";s:4:"dpic";s:31:"/upload/iblock/5a0/img_3354.jpg";s:11:"preview_pic";s:31:"/upload/iblock/723/img_3354.jpg";s:4:"bxid";s:6:"200553";s:5:"alias";s:0:"";s:7:"section";s:5:"11723";}i:42;a:14:{s:2:"id";s:4:"1607";s:3:"act";s:1:"N";s:9:"prod_type";s:0:"";s:4:"name";s:50:"Костюм Монтажник зелен./жел";s:3:"art";s:9:"Кос458";s:6:"search";s:145:"КОСТЮМ МОНТАЖНИК ЗЕЛЕН./ЖЕЛ

КОСТЮМ МОНТАЖНИК ЦВЕТ: ЗЕЛЕНЫЙ С ЖЕЛТОЙ ОТДЕЛКОЙ .";s:6:"parent";s:2:"69";s:4:"durl";s:78:"letnyaya_spetsodezhda/kostyumy_i_kurtki_rabochie/kostyum_montazhnik_zelen_zhel";s:4:"dtxt";s:91:"Костюм Монтажник Цвет: зеленый с желтой отделкой .";s:4:"dpic";s:27:"/upload/iblock/244/7309.jpg";s:11:"preview_pic";s:27:"/upload/iblock/e27/7309.jpg";s:4:"bxid";s:6:"200560";s:5:"alias";s:0:"";s:7:"section";s:5:"11723";}i:43;a:14:{s:2:"id";s:4:"1608";s:3:"act";s:1:"N";s:9:"prod_type";s:0:"";s:4:"name";s:75:"Костюм Навигатор-1 муж. цв.т.синий/василек";s:3:"art";s:9:"Кос559";s:6:"search";s:913:"КОСТЮМ НАВИГАТОР-1 МУЖ. ЦВ.Т.СИНИЙ/ВАСИЛЕК

КУРТКА УКОРОЧЕННАЯ С ПРИТАЧНЫМ ПОЯСОМ, СУПАТНОЙ ЗАСТЁЖКОЙ НА ПУГОВИЦЫ. ВЕРХНИМИ НАКЛАДНЫМИ КАРМАНАМИ КУРТКИ С КЛАПАНАМИ ПОД РАЦИЮ И БЕЙДЖ. НИЖНИЕ НАКЛАДНЫЕ КАРМАНЫ С КЛАПАНАМИ, ЗАСТЁГИВАЮЩИЕСЯ НА ВЕЛКРО. ПОЛУКОМБИНЕЗОН С НАКОЛЕННИКАМИ, НАГРУДНЫМ КАРМАНОМ С КЛАПАНОМ И РЕГУЛИРУЕМЫМИ БРЕТЕЛЯМИ. ШИРИНА СОП 50 ММ ЦВЕТ: Т. СИНИЙ С ВАСИЛЬКОМ ТКАНЬ: СМЕСОВАЯ(65% ПОЛИЭФИР, 35% ХЛОПОК) ПЛ.210Г/М2, ВО ЗАЩИТНЫЕ СВОЙСТВА: ВУ МИ З. ГОСТ: 27575-87 РАЗМЕР: С 44-46 ПО 60-62 РОСТ:170-176, 182-188";s:6:"parent";s:2:"69";s:4:"durl";s:93:"letnyaya_spetsodezhda/kostyumy_i_kurtki_rabochie/kostyum_navigator_1_muzh_tsv_t_siniy_vasilek";s:4:"dtxt";s:850:"Куртка укороченная с притачным поясом, супатной застёжкой на пуговицы. Верхними накладными карманами куртки с клапанами под рацию и бейдж. Нижние накладные карманы с клапанами, застёгивающиеся на велкро. Полукомбинезон с наколенниками, нагрудным карманом с клапаном и регулируемыми бретелями. Ширина СОП 50 мм Цвет: т. синий с васильком Ткань: смесовая&#40;65&#37; полиэфир, 35&#37; хлопок&#41; пл.210г/м2, ВО Защитные свойства: Ву Ми З. ГОСТ: 27575-87 Размер: с 44-46 по 60-62 Рост:170-176, 182-188";s:4:"dpic";s:31:"/upload/iblock/5c8/img_3548.jpg";s:11:"preview_pic";s:31:"/upload/iblock/06c/img_3548.jpg";s:4:"bxid";s:6:"200563";s:5:"alias";s:0:"";s:7:"section";s:5:"11723";}i:44;a:14:{s:2:"id";s:4:"1609";s:3:"act";s:1:"N";s:9:"prod_type";s:0:"";s:4:"name";s:46:"Костюм Октава 48-50/170-176 жен";s:3:"art";s:9:"Кос324";s:6:"search";s:50:"КОСТЮМ ОКТАВА 48-50/170-176 ЖЕН

";s:6:"parent";s:2:"69";s:4:"durl";s:82:"letnyaya_spetsodezhda/kostyumy_i_kurtki_rabochie/kostyum_oktava_48_50_170_176_zhen";s:4:"dtxt";s:0:"";s:4:"dpic";s:27:"/upload/iblock/82e/6232.jpg";s:11:"preview_pic";s:27:"/upload/iblock/7f1/6232.jpg";s:4:"bxid";s:6:"200566";s:5:"alias";s:0:"";s:7:"section";s:5:"11723";}i:45;a:14:{s:2:"id";s:4:"1610";s:3:"act";s:1:"Y";s:9:"prod_type";s:0:"";s:4:"name";s:57:"Костюм Передовик (к+бр) цв.синий";s:3:"art";s:9:"Кос020";s:6:"search";s:610:"КОСТЮМ ПЕРЕДОВИК (К+БР) ЦВ.СИНИЙ

УНИВЕРСАЛЬНАЯ МОДЕЛЬ ИЗ ХЛОПКОПОЛИЭФИРНОЙ ТКАНИ В ДВУХ ЦВЕТОВЫХ СОЧЕТАНИЯХ. ПОТАЙНАЯ ЗАСТЕЖКА КУРТКИ НА ПУГОВИЦЫ, НАКЛАДНЫЕ КАРМАНЫ С КЛАПАНАМИ, БРЮКИ СО ШЛЕВКАМИ. ОТДЕЛКА СВЕТООТРАЖАЮЩИМ КАНТОМ И ОТДЕЛОЧНЫМИ СТРОЧКАМИ. МАТЕРИАЛ: СМЕСОВАЯ ПЛ 220 ГМ2 СОСТАВ: 50% ХЛОПОК, 50% ПОЛИЭФИР ЦВЕТ СИНИЙ С ЧЕРНЫМ. .";s:6:"parent";s:2:"69";s:4:"durl";s:81:"letnyaya_spetsodezhda/kostyumy_i_kurtki_rabochie/kostyum_peredovik_k_br_tsv_siniy";s:4:"dtxt";s:557:"Универсальная модель из хлопкополиэфирной ткани в двух цветовых сочетаниях. Потайная застежка куртки на пуговицы, накладные карманы с клапанами, брюки со шлевками. Отделка светоотражающим кантом и отделочными строчками. Материал: смесовая пл 220 гм2 Состав: 50&#37; хлопок, 50&#37; полиэфир Цвет синий с черным. .";s:4:"dpic";s:28:"/upload/iblock/f50/12706.jpg";s:11:"preview_pic";s:28:"/upload/iblock/3ad/12706.jpg";s:4:"bxid";s:6:"200575";s:5:"alias";s:0:"";s:7:"section";s:5:"11723";}i:46;a:14:{s:2:"id";s:4:"1611";s:3:"act";s:1:"N";s:9:"prod_type";s:0:"";s:4:"name";s:77:"Костюм Передовица (к+бр) цв.т.серый/василек";s:3:"art";s:9:"Кос901";s:6:"search";s:939:"КОСТЮМ ПЕРЕДОВИЦА (К+БР) ЦВ.Т.СЕРЫЙ/ВАСИЛЕК

КУРТКА И БРЮКИ. КУРТКА ПРЯМОГО КРОЯ, С СУПАТНОЙ ЗАСТЕЖКОЙ НА ПУГОВИЦЫ, СО СВЕТООТРАЖАЮЩИМ КАНТОМ И СВЕТООТРАЖАЮЩЕЙ ПОЛОСОЙ НА СПИНЕ. ВОРОТНИК ОТЛОЖНОЙ, РУКАВ ВТАЧНОЙ С МАНЖЕТАМИ, ЗАСТЁГИВАЮЩИМИСЯ НА ПУГОВИЦУ. БРЮКИ С БОКОВЫМИ КАРМАНАМИ. ДОПОЛНИТЕЛЬНУЮ ПРОЧНОСТЬ СОЕДИНЕНИЙ КОСТЮМА ОБЕСПЕЧИВАЮТ ДВОЙНЫЕ ОТДЕЛОЧНЫЕ СТРОЧКИ. ЦВЕТ: СЕРЫЙ/ВАСИЛЕК ТКАНЬ: СМЕСОВАЯ (65% ПОЛИЭФИР, 35% ХЛОПОК) ПЛ. 210 Г/КВ. М, ВО ПРОПИТКА ЗАЩИТНЫЕ СВОЙСТВА: З, МИ, ВУ РАЗМЕР: С 44-46 ПО 60-62 РОСТ: 158-164, 170-176 .";s:6:"parent";s:2:"69";s:4:"durl";s:93:"letnyaya_spetsodezhda/kostyumy_i_kurtki_rabochie/kostyum_peredovitsa_k_br_tsv_t_seryy_vasilek";s:4:"dtxt";s:874:"Куртка и брюки. Куртка прямого кроя, с супатной застежкой на пуговицы, со светоотражающим кантом и светоотражающей полосой на спине. Воротник отложной, рукав втачной с манжетами, застёгивающимися на пуговицу. Брюки с боковыми карманами. Дополнительную прочность соединений костюма обеспечивают двойные отделочные строчки. Цвет: серый/василек Ткань: смесовая &#40;65&#37; полиэфир, 35&#37; хлопок&#41; пл. 210 г/кв. м, ВО пропитка Защитные свойства: З, Ми, Ву Размер: с 44-46 по 60-62 Рост: 158-164, 170-176 .";s:4:"dpic";s:28:"/upload/iblock/83d/15888.jpg";s:11:"preview_pic";s:28:"/upload/iblock/460/15888.jpg";s:4:"bxid";s:6:"200577";s:5:"alias";s:0:"";s:7:"section";s:5:"11723";}i:47;a:14:{s:2:"id";s:4:"1612";s:3:"act";s:1:"N";s:9:"prod_type";s:0:"";s:4:"name";s:59:"Костюм Передовица син+черн (к+бр)";s:3:"art";s:9:"Кос018";s:6:"search";s:946:"КОСТЮМ ПЕРЕДОВИЦА СИН+ЧЕРН (К+БР)

КУРТКА И БРЮКИ. КУРТКА ПРЯМОГО КРОЯ, С СУПАТНОЙ ЗАСТЕЖКОЙ НА ПУГОВИЦЫ, СО СВЕТООТРАЖАЮЩИМ КАНТОМ И СВЕТООТРАЖАЮЩЕЙ ПОЛОСОЙ НА СПИНЕ. ВОРОТНИК ОТЛОЖНОЙ, РУКАВ ВТАЧНОЙ С МАНЖЕТАМИ, ЗАСТЁГИВАЮЩИМИСЯ НА ПУГОВИЦУ. БРЮКИ С БОКОВЫМИ И ЗАДНИМИ КАРМАНАМИ. ДОПОЛНИТЕЛЬНУЮ ПРОЧНОСТЬ СОЕДИНЕНИЙ КОСТЮМА ОБЕСПЕЧИВАЮТ ДВОЙНЫЕ ОТДЕЛОЧНЫЕ СТРОЧКИ. ЦВЕТ: СИНИЙ/ЧЕРНЫЙ ТКАНЬ: СМЕСОВАЯ (65% ПОЛИЭФИР, 35% ХЛОПОК) ПЛ. 210 Г/КВ. М, ВО ПРОПИТКА ЗАЩИТНЫЕ СВОЙСТВА: З, МИ, ВУ РАЗМЕР: С 44-46 ПО 64-66 РОСТ: 158-164, 170-176, 182-188 .";s:6:"parent";s:2:"69";s:4:"durl";s:83:"letnyaya_spetsodezhda/kostyumy_i_kurtki_rabochie/kostyum_peredovitsa_sin_chern_k_br";s:4:"dtxt";s:899:"Куртка и брюки. Куртка прямого кроя, с супатной застежкой на пуговицы, со светоотражающим кантом и светоотражающей полосой на спине. Воротник отложной, рукав втачной с манжетами, застёгивающимися на пуговицу. Брюки с боковыми и задними карманами. Дополнительную прочность соединений костюма обеспечивают двойные отделочные строчки. Цвет: синий/черный Ткань: смесовая &#40;65&#37; полиэфир, 35&#37; хлопок&#41; пл. 210 г/кв. м, ВО пропитка Защитные свойства: З, Ми, Ву Размер: с 44-46 по 64-66 Рост: 158-164, 170-176, 182-188 .";s:4:"dpic";s:31:"/upload/iblock/3ed/img_3617.jpg";s:11:"preview_pic";s:31:"/upload/iblock/55d/img_3617.jpg";s:4:"bxid";s:6:"200578";s:5:"alias";s:0:"";s:7:"section";s:5:"11723";}i:48;a:14:{s:2:"id";s:4:"1613";s:3:"act";s:1:"N";s:9:"prod_type";s:0:"";s:4:"name";s:56:"Костюм Рейнир мужской борд/сер";s:3:"art";s:9:"Кос266";s:6:"search";s:851:"КОСТЮМ РЕЙНИР МУЖСКОЙ БОРД/СЕР

КОМПЛЕКТНОСТЬ: КУРТКА И ПОЛУКОМБИНЕЗОН. КУРТКА С ЗАСТЕЖКОЙ НА МОЛНИЮ, НИЖНИМИ НАКЛАДНЫМИ КАРМАНАМИ, ВЕРХНИМ КАРМАНОМ ДЛЯ СРЕДСТВ СВЯЗИ. ПОЛУКОМБИНЕЗОН С НАГРУДНЫМ, БОКОВЫМИ КАРМАНАМИ И ЗАДНИМ КАРМАНОМ ПОД ИНСТРУМЕНТ. ДАННАЯ КОМПОНОВКА КОСТЮМА ОЧЕНЬ УДОБНА В ИСПОЛЬЗОВАНИИ. ЦВЕТ: Т.СИНИЙ С КРАСНЫМ; БОРДО С СЕРЫМ; ВАСИЛЕК С Т.СИНИМ; СЕРЫЙ С КРАСНЫМ ТКАНЬ: СМЕСОВАЯ 65% П/Э, 35% Х/Б ПЛ. 215 Г/М СВОЙСТВА: З МИ ВУ РАЗМЕР: С 44-46 ПО 60-62 РОСТ:170-176, 182-188";s:6:"parent";s:2:"69";s:4:"durl";s:81:"letnyaya_spetsodezhda/kostyumy_i_kurtki_rabochie/kostyum_reynir_muzhskoy_bord_ser";s:4:"dtxt";s:799:"Комплектность: куртка и полукомбинезон. Куртка с застежкой на молнию, нижними накладными карманами, верхним карманом для средств связи. Полукомбинезон с нагрудным, боковыми карманами и задним карманом под инструмент. Данная компоновка костюма очень удобна в использовании. Цвет: т.синий с красным; бордо с серым; василек с т.синим; серый с красным Ткань: смесовая 65&#37; п/э, 35&#37; х/б пл. 215 г/м Свойства: З Ми Ву Размер: с 44-46 по 60-62 Рост:170-176, 182-188";s:4:"dpic";s:27:"/upload/iblock/3b8/2920.jpg";s:11:"preview_pic";s:27:"/upload/iblock/25a/2920.jpg";s:4:"bxid";s:6:"200586";s:5:"alias";s:0:"";s:7:"section";s:5:"11723";}i:49;a:14:{s:2:"id";s:4:"1614";s:3:"act";s:1:"N";s:9:"prod_type";s:0:"";s:4:"name";s:54:"Костюм Рейнир мужской вас/син";s:3:"art";s:9:"Кос268";s:6:"search";s:849:"КОСТЮМ РЕЙНИР МУЖСКОЙ ВАС/СИН

КОМПЛЕКТНОСТЬ: КУРТКА И ПОЛУКОМБИНЕЗОН. КУРТКА С ЗАСТЕЖКОЙ НА МОЛНИЮ, НИЖНИМИ НАКЛАДНЫМИ КАРМАНАМИ, ВЕРХНИМ КАРМАНОМ ДЛЯ СРЕДСТВ СВЯЗИ. ПОЛУКОМБИНЕЗОН С НАГРУДНЫМ, БОКОВЫМИ КАРМАНАМИ И ЗАДНИМ КАРМАНОМ ПОД ИНСТРУМЕНТ. ДАННАЯ КОМПОНОВКА КОСТЮМА ОЧЕНЬ УДОБНА В ИСПОЛЬЗОВАНИИ. ЦВЕТ: Т.СИНИЙ С КРАСНЫМ; БОРДО С СЕРЫМ; ВАСИЛЕК С Т.СИНИМ; СЕРЫЙ С КРАСНЫМ ТКАНЬ: СМЕСОВАЯ 65% П/Э, 35% Х/Б ПЛ. 215 Г/М СВОЙСТВА: З МИ ВУ РАЗМЕР: С 44-46 ПО 60-62 РОСТ:170-176, 182-188";s:6:"parent";s:2:"69";s:4:"durl";s:80:"letnyaya_spetsodezhda/kostyumy_i_kurtki_rabochie/kostyum_reynir_muzhskoy_vas_sin";s:4:"dtxt";s:799:"Комплектность: куртка и полукомбинезон. Куртка с застежкой на молнию, нижними накладными карманами, верхним карманом для средств связи. Полукомбинезон с нагрудным, боковыми карманами и задним карманом под инструмент. Данная компоновка костюма очень удобна в использовании. Цвет: т.синий с красным; бордо с серым; василек с т.синим; серый с красным Ткань: смесовая 65&#37; п/э, 35&#37; х/б пл. 215 г/м Свойства: З Ми Ву Размер: с 44-46 по 60-62 Рост:170-176, 182-188";s:4:"dpic";s:27:"/upload/iblock/5ea/2924.jpg";s:11:"preview_pic";s:27:"/upload/iblock/8fe/2924.jpg";s:4:"bxid";s:6:"200587";s:5:"alias";s:0:"";s:7:"section";s:5:"11723";}i:50;a:14:{s:2:"id";s:4:"1615";s:3:"act";s:1:"N";s:9:"prod_type";s:0:"";s:4:"name";s:52:"Костюм Рейнир мужской сер/кр";s:3:"art";s:9:"Кос267";s:6:"search";s:847:"КОСТЮМ РЕЙНИР МУЖСКОЙ СЕР/КР

КОМПЛЕКТНОСТЬ: КУРТКА И ПОЛУКОМБИНЕЗОН. КУРТКА С ЗАСТЕЖКОЙ НА МОЛНИЮ, НИЖНИМИ НАКЛАДНЫМИ КАРМАНАМИ, ВЕРХНИМ КАРМАНОМ ДЛЯ СРЕДСТВ СВЯЗИ. ПОЛУКОМБИНЕЗОН С НАГРУДНЫМ, БОКОВЫМИ КАРМАНАМИ И ЗАДНИМ КАРМАНОМ ПОД ИНСТРУМЕНТ. ДАННАЯ КОМПОНОВКА КОСТЮМА ОЧЕНЬ УДОБНА В ИСПОЛЬЗОВАНИИ. ЦВЕТ: Т.СИНИЙ С КРАСНЫМ; БОРДО С СЕРЫМ; ВАСИЛЕК С Т.СИНИМ; СЕРЫЙ С КРАСНЫМ ТКАНЬ: СМЕСОВАЯ 65% П/Э, 35% Х/Б ПЛ. 215 Г/М СВОЙСТВА: З МИ ВУ РАЗМЕР: С 44-46 ПО 60-62 РОСТ:170-176, 182-188";s:6:"parent";s:2:"69";s:4:"durl";s:79:"letnyaya_spetsodezhda/kostyumy_i_kurtki_rabochie/kostyum_reynir_muzhskoy_ser_kr";s:4:"dtxt";s:799:"Комплектность: куртка и полукомбинезон. Куртка с застежкой на молнию, нижними накладными карманами, верхним карманом для средств связи. Полукомбинезон с нагрудным, боковыми карманами и задним карманом под инструмент. Данная компоновка костюма очень удобна в использовании. Цвет: т.синий с красным; бордо с серым; василек с т.синим; серый с красным Ткань: смесовая 65&#37; п/э, 35&#37; х/б пл. 215 г/м Свойства: З Ми Ву Размер: с 44-46 по 60-62 Рост:170-176, 182-188";s:4:"dpic";s:27:"/upload/iblock/b3b/2930.jpg";s:11:"preview_pic";s:27:"/upload/iblock/af5/2930.jpg";s:4:"bxid";s:6:"200588";s:5:"alias";s:0:"";s:7:"section";s:5:"11723";}i:51;a:14:{s:2:"id";s:4:"1616";s:3:"act";s:1:"N";s:9:"prod_type";s:0:"";s:4:"name";s:57:"Костюм Респект (к+бр) на кнопках";s:3:"art";s:9:"Кос205";s:6:"search";s:634:"КОСТЮМ РЕСПЕКТ (К+БР) НА КНОПКАХ

КУРТКА ПРЯМОГО СИЛУЭТА С ЗАСТЁЖКОЙ НА КНОПКИ И ФИГУРНЫМИ НАКЛАДНЫМИ КАРМАНАМИ, РУКАВА С МАНЖЕТАМИ НА КНОПКАХ. БРЮКИ НА ПОЯСЕ, С ПЕРЕДНИМИ НАКЛАДНЫМИ КАРМАНАМИ. СРЕДНИЙ ШОВ БРЮК УСИЛЕН ДВОЙНОЙ СТРОЧКОЙ. ЦВЕТ: ТЕМНО-СИНИЙ С ВАСИЛЬКОМ ТКАНЬ: СМЕСОВАЯ 65% П/Э, 35% Х/Б, ПЛ. 215 Г/:З МИ ВУ РАЗМЕР: С 44-46 ПО 60-62 РОСТ: 158-164, 170-176, 182-188 .";s:6:"parent";s:2:"69";s:4:"durl";s:81:"letnyaya_spetsodezhda/kostyumy_i_kurtki_rabochie/kostyum_respekt_k_br_na_knopkakh";s:4:"dtxt";s:581:"Куртка прямого силуэта с застёжкой на кнопки и фигурными накладными карманами, рукава с манжетами на кнопках. Брюки на поясе, с передними накладными карманами. Средний шов брюк усилен двойной строчкой. Цвет: темно-синий с васильком Ткань: смесовая 65&#37; п/э, 35&#37; х/б, пл. 215 г/:З Ми Ву Размер: с 44-46 по 60-62 Рост: 158-164, 170-176, 182-188 .";s:4:"dpic";s:28:"/upload/iblock/760/15209.jpg";s:11:"preview_pic";s:28:"/upload/iblock/857/15209.jpg";s:4:"bxid";s:6:"200590";s:5:"alias";s:0:"";s:7:"section";s:5:"11723";}i:52;a:14:{s:2:"id";s:4:"1617";s:3:"act";s:1:"N";s:9:"prod_type";s:0:"";s:4:"name";s:78:"Костюм Сатурн мужской (к+пк) цв.сер./красный";s:3:"art";s:9:"Кос412";s:6:"search";s:1987:"КОСТЮМ САТУРН МУЖСКОЙ (К+ПК) ЦВ.СЕР./КРАСНЫЙ

КУРТКА, УКОРОЧЕННАЯ, С ЦЕНТРАЛЬНОЙ ЗАСТЕЖКОЙ НА ПУГОВИЦЫ, С ЦЕЛЬНОКРОЕНЫМ ПОЯСОМ. НА ПОЯСЕ СО СТОРОНЫ СПИНКИ ПЕТЛИ, ДЛЯ РЕГУЛИРОВАНИЯ ШИРИНЫ, ЗАСТЕГИВАЮЩИЕСЯ НА 2 ПУГОВИЦЫ. ВОРОТНИК ОТЛОЖНОЙ. РУКАВА ВТАЧНЫЕ, ДВУХШОВНЫЕ С ЦЕЛЬНОКРОЕНЫМИ МАНЖЕТАМИ, ЗАСТЕГИВАЮЩИЕСЯ НА ПУГОВИЦЫ. ПОЛОЧКИ С КОКЕТКОЙ, ОБРАЗУЮЩЕЙ ОТЛЕТНУЮ СКЛАДКУ. НА ПОЛОЧКАХ ПРОРЕЗНЫЕ НАГРУДНЫЕ КАРМАНЫ, И БОКОВЫЕ НАКЛАДНЫЕ КАРМАНЫ С НАКЛОННЫМ ВХОДОМ И ФИГУРНЫМ КЛАПАНОМ. СПИНКА С КОКЕТКОЙ. ПОЛУКОМБИНЕЗОН НА БРЕТЕЛЯХ С ЗАСТЕЖКОЙ НА ФАСТЕКСЫ. НА ПЕРЕДНИХ ПОЛОВИНКАХ БОКОВЫЕ КАРМАНЫ С КОСЫМ ВХОДОМ. НА ГРУДКЕ БОЛЬШОЙ НАКЛАДНОЙ КАРМАН С КЛАПАНОМ, ЗАСТЕГИВАЮЩИЙСЯ НА ПУГОВИЦУ. ЗАСТЕЖКА ГУЛЬФИК НА ПЕТЛИ И ПУГОВИЦЫ В СРЕДНЕМ ШВЕ И БОКОВОМ ШВЕ НА ПУГОВИЦЫ. НА СПИНКЕ ПО ТАЛИИ КУЛИСА С ЭЛАСТИЧНОЙ ЛЕНТОЙ. НИЗ БРЮК ПОЛУКОМБИНЕЗОНА ЗАСТРОЧЕН ШВОМ В ПОДГИБКУ С ЗАКРЫТЫМ СРЕЗОМ. ГОСТ 27575 - 87 МАТЕРИАЛ: ТКАНЬ СМЕСОВАЯ, ПЛОТНОСТЬ 220 Г/КВ.М. СОСТАВ: 50% ХЛОПОК, 50% ПОЛИЭФИР ЦВЕТ: СИНИЙ, ОТДЕЛКА - ВАСИЛЬКОВЫЙ ВАСИЛЬКОВЫЙ, ОТДЕЛКА - СЕРЫЙ СЕРЫЙ, ОТДЕЛКА - КРАСНЫЙ РАЗМЕР: С 44-46 ПО 60-62 РОСТ: 158-164, 170-176, 182-188";s:6:"parent";s:2:"69";s:4:"durl";s:93:"letnyaya_spetsodezhda/kostyumy_i_kurtki_rabochie/kostyum_saturn_muzhskoy_k_pk_tsv_ser_krasnyy";s:4:"dtxt";s:1913:"Куртка, укороченная, с центральной застежкой на пуговицы, с цельнокроеным поясом. На поясе со стороны спинки петли, для регулирования ширины, застегивающиеся на 2 пуговицы. Воротник отложной. Рукава втачные, двухшовные с цельнокроеными манжетами, застегивающиеся на пуговицы. Полочки с кокеткой, образующей отлетную складку. На полочках прорезные нагрудные карманы, и боковые накладные карманы с наклонным входом и фигурным клапаном. Спинка с кокеткой. Полукомбинезон на бретелях с застежкой на фастексы. На передних половинках боковые карманы с косым входом. На грудке большой накладной карман с клапаном, застегивающийся на пуговицу. Застежка гульфик на петли и пуговицы в среднем шве и боковом шве на пуговицы. На спинке по талии кулиса с эластичной лентой. Низ брюк полукомбинезона застрочен швом в подгибку с закрытым срезом. ГОСТ 27575 - 87 Материал: ткань смесовая, плотность 220 г/кв.м. Состав: 50&#37; хлопок, 50&#37; полиэфир Цвет: синий, отделка - васильковый васильковый, отделка - серый серый, отделка - красный Размер: с 44-46 по 60-62 Рост: 158-164, 170-176, 182-188";s:4:"dpic";s:28:"/upload/iblock/165/15240.jpg";s:11:"preview_pic";s:28:"/upload/iblock/419/15240.jpg";s:4:"bxid";s:6:"200593";s:5:"alias";s:0:"";s:7:"section";s:5:"11723";}i:53;a:14:{s:2:"id";s:4:"1618";s:3:"act";s:1:"N";s:9:"prod_type";s:0:"";s:4:"name";s:80:"Костюм Сатурн мужской (к+пк) цв.т.син/василек";s:3:"art";s:9:"Кос284";s:6:"search";s:1989:"КОСТЮМ САТУРН МУЖСКОЙ (К+ПК) ЦВ.Т.СИН/ВАСИЛЕК

КУРТКА, УКОРОЧЕННАЯ, С ЦЕНТРАЛЬНОЙ ЗАСТЕЖКОЙ НА ПУГОВИЦЫ, С ЦЕЛЬНОКРОЕНЫМ ПОЯСОМ. НА ПОЯСЕ СО СТОРОНЫ СПИНКИ ПЕТЛИ, ДЛЯ РЕГУЛИРОВАНИЯ ШИРИНЫ, ЗАСТЕГИВАЮЩИЕСЯ НА 2 ПУГОВИЦЫ. ВОРОТНИК ОТЛОЖНОЙ. РУКАВА ВТАЧНЫЕ, ДВУХШОВНЫЕ С ЦЕЛЬНОКРОЕНЫМИ МАНЖЕТАМИ, ЗАСТЕГИВАЮЩИЕСЯ НА ПУГОВИЦЫ. ПОЛОЧКИ С КОКЕТКОЙ, ОБРАЗУЮЩЕЙ ОТЛЕТНУЮ СКЛАДКУ. НА ПОЛОЧКАХ ПРОРЕЗНЫЕ НАГРУДНЫЕ КАРМАНЫ, И БОКОВЫЕ НАКЛАДНЫЕ КАРМАНЫ С НАКЛОННЫМ ВХОДОМ И ФИГУРНЫМ КЛАПАНОМ. СПИНКА С КОКЕТКОЙ. ПОЛУКОМБИНЕЗОН НА БРЕТЕЛЯХ С ЗАСТЕЖКОЙ НА ФАСТЕКСЫ. НА ПЕРЕДНИХ ПОЛОВИНКАХ БОКОВЫЕ КАРМАНЫ С КОСЫМ ВХОДОМ. НА ГРУДКЕ БОЛЬШОЙ НАКЛАДНОЙ КАРМАН С КЛАПАНОМ, ЗАСТЕГИВАЮЩИЙСЯ НА ПУГОВИЦУ. ЗАСТЕЖКА ГУЛЬФИК НА ПЕТЛИ И ПУГОВИЦЫ В СРЕДНЕМ ШВЕ И БОКОВОМ ШВЕ НА ПУГОВИЦЫ. НА СПИНКЕ ПО ТАЛИИ КУЛИСА С ЭЛАСТИЧНОЙ ЛЕНТОЙ. НИЗ БРЮК ПОЛУКОМБИНЕЗОНА ЗАСТРОЧЕН ШВОМ В ПОДГИБКУ С ЗАКРЫТЫМ СРЕЗОМ. ГОСТ 27575 - 87 МАТЕРИАЛ: ТКАНЬ СМЕСОВАЯ, ПЛОТНОСТЬ 220 Г/КВ.М. СОСТАВ: 50% ХЛОПОК, 50% ПОЛИЭФИР ЦВЕТ: СИНИЙ, ОТДЕЛКА - ВАСИЛЬКОВЫЙ ВАСИЛЬКОВЫЙ, ОТДЕЛКА - СЕРЫЙ СЕРЫЙ, ОТДЕЛКА - КРАСНЫЙ РАЗМЕР: С 44-46 ПО 60-62 РОСТ: 158-164, 170-176, 182-188";s:6:"parent";s:2:"69";s:4:"durl";s:95:"letnyaya_spetsodezhda/kostyumy_i_kurtki_rabochie/kostyum_saturn_muzhskoy_k_pk_tsv_t_sin_vasilek";s:4:"dtxt";s:1913:"Куртка, укороченная, с центральной застежкой на пуговицы, с цельнокроеным поясом. На поясе со стороны спинки петли, для регулирования ширины, застегивающиеся на 2 пуговицы. Воротник отложной. Рукава втачные, двухшовные с цельнокроеными манжетами, застегивающиеся на пуговицы. Полочки с кокеткой, образующей отлетную складку. На полочках прорезные нагрудные карманы, и боковые накладные карманы с наклонным входом и фигурным клапаном. Спинка с кокеткой. Полукомбинезон на бретелях с застежкой на фастексы. На передних половинках боковые карманы с косым входом. На грудке большой накладной карман с клапаном, застегивающийся на пуговицу. Застежка гульфик на петли и пуговицы в среднем шве и боковом шве на пуговицы. На спинке по талии кулиса с эластичной лентой. Низ брюк полукомбинезона застрочен швом в подгибку с закрытым срезом. ГОСТ 27575 - 87 Материал: ткань смесовая, плотность 220 г/кв.м. Состав: 50&#37; хлопок, 50&#37; полиэфир Цвет: синий, отделка - васильковый васильковый, отделка - серый серый, отделка - красный Размер: с 44-46 по 60-62 Рост: 158-164, 170-176, 182-188";s:4:"dpic";s:28:"/upload/iblock/4bd/14775.jpg";s:11:"preview_pic";s:28:"/upload/iblock/8b6/14775.jpg";s:4:"bxid";s:6:"200594";s:5:"alias";s:0:"";s:7:"section";s:5:"11723";}i:54;a:14:{s:2:"id";s:4:"1619";s:3:"act";s:1:"Y";s:9:"prod_type";s:0:"";s:4:"name";s:54:"Костюм Стандарт темно.син/вас";s:3:"art";s:9:"Кос210";s:6:"search";s:729:"КОСТЮМ СТАНДАРТ ТЕМНО.СИН/ВАС

КУРТКА ПРЯМОГО СИЛУЭТА С ЗАСТЁЖКОЙ НА ПУГОВИЦЫ И ФИГУРНЫМИ НАКЛАДНЫМИ КАРМАНАМИ, РУКАВА С МАНЖЕТАМИ НА ПУГОВИЦАХ. БРЮКИ НА ПОЯСЕ, С ПЕРЕДНИМИ НАКЛАДНЫМИ КАРМАНАМИ. СРЕДНИЙ ШОВ БРЮК УСИЛЕН ДВОЙНОЙ СТРОЧКОЙ. ЦВЕТ: ТЕМНО-СИНИЙ С ВАСИЛЬКОМ (ВОЗМОЖЕН ВАРИАНТ ИЗГОТОВЛЕНИЯ С ЛЮБЫМИ ЦВЕТАМИ) ТКАНЬ: СМЕСОВАЯ 65% П/Э, 35% Х/Б, ПЛ. 215 Г/:З МИ ВУ РАЗМЕР: С 44-46 ПО 72-74 РОСТ: 158-164, 170-176, 182-188 .";s:6:"parent";s:2:"69";s:4:"durl";s:79:"letnyaya_spetsodezhda/kostyumy_i_kurtki_rabochie/kostyum_standart_temno_sin_vas";s:4:"dtxt";s:687:"Куртка прямого силуэта с застёжкой на пуговицы и фигурными накладными карманами, рукава с манжетами на пуговицах. Брюки на поясе, с передними накладными карманами. Средний шов брюк усилен двойной строчкой. Цвет: темно-синий с васильком &#40;возможен вариант изготовления с любыми цветами&#41; Ткань: смесовая 65&#37; п/э, 35&#37; х/б, пл. 215 г/:З Ми Ву Размер: с 44-46 по 72-74 Рост: 158-164, 170-176, 182-188 .";s:4:"dpic";s:31:"/upload/iblock/e1e/img_2736.jpg";s:11:"preview_pic";s:31:"/upload/iblock/9d3/img_2736.jpg";s:4:"bxid";s:6:"200608";s:5:"alias";s:0:"";s:7:"section";s:5:"11723";}i:55;a:14:{s:2:"id";s:4:"1620";s:3:"act";s:1:"N";s:9:"prod_type";s:0:"";s:4:"name";s:70:"Костюм Стандарт темно.син/син тк.Саржа";s:3:"art";s:9:"Кос208";s:6:"search";s:1073:"КОСТЮМ СТАНДАРТ ТЕМНО.СИН/СИН ТК.САРЖА

ОПИСАНИЕ: КОМПЛЕКТАЦИЯ: КУРТКА + БРЮКИ. КУРТКА ПРЯМАЯ С ЗАСТЕЖКОЙ НА ПУГОВИЦЫ, С ДВУМЯ КАРМАНАМИ СНИЗУ И ОДНИМ НАГРУДНЫМ КАРМАНОМ С КЛАПАНОМ. КОКЕТКА ПОЛОЧКИ И СПИНКИ ВЫПОЛНЕНА ИЗ КОНТРАСТНОГО ЦВЕТА. БРЮКИ ПРЯМЫЕ С НАКЛАДНЫМИ КАРМАНАМИ ПО БОКАМ, С ПРИТАЧНЫМ ПОЯСОМ. КОСТЮМ УСИЛЕН НАКЛАДКАМИ В РАЙОНЕ ЛОКТЕЙ И КОЛЕН. ЦВЕТ: ТЕМНО-СИНИЙ С ВАСИЛЬКОМ, ЗЕЛЕНЫЙ С ЖЕЛТЫМ, ВАСИЛЕК С ОРАНЖЕВЫМ; ТЕМНО-СИНИЙ С ВАСИЛЬКОМ (ВОЗМОЖЕН ВАРИАНТ ИЗГОТОВЛЕНИЯ С ЛЮБЫМИ ЦВЕТАМИ) ТКАНЬ: САРЖА ПЛ. 260 Г/М – 100% ХЛОПОК СВОЙСТВА: З МИ ВУ РАЗМЕР: ОТ 44-46 ДО 60-62 РОСТ: ОТ 170-176 ДО 182-188 .";s:6:"parent";s:2:"69";s:4:"durl";s:89:"letnyaya_spetsodezhda/kostyumy_i_kurtki_rabochie/kostyum_standart_temno_sin_sin_tk_sarzha";s:4:"dtxt";s:1015:"Описание: Комплектация: куртка &#43; брюки. Куртка прямая с застежкой на пуговицы, с двумя карманами снизу и одним нагрудным карманом с клапаном. Кокетка полочки и спинки выполнена из контрастного цвета. Брюки прямые с накладными карманами по бокам, с притачным поясом. Костюм усилен накладками в районе локтей и колен. Цвет: темно-синий с васильком, зеленый с желтым, василек с оранжевым; темно-синий с васильком &#40;возможен вариант изготовления с любыми цветами&#41; Ткань: Саржа пл. 260 г/м – 100&#37; хлопок Свойства: З Ми Ву размер: от 44-46 до 60-62 рост: от 170-176 до 182-188 .";s:4:"dpic";s:28:"/upload/iblock/bf6/14264.jpg";s:11:"preview_pic";s:28:"/upload/iblock/dce/14264.jpg";s:4:"bxid";s:6:"200609";s:5:"alias";s:0:"";s:7:"section";s:5:"11723";}i:56;a:14:{s:2:"id";s:4:"1621";s:3:"act";s:1:"Y";s:9:"prod_type";s:0:"";s:4:"name";s:64:"Костюм ФАВОРИТ (к+бр) цв.т.зел./лимон";s:3:"art";s:9:"Кос903";s:6:"search";s:667:"КОСТЮМ ФАВОРИТ (К+БР) ЦВ.Т.ЗЕЛ./ЛИМОН

КУРТКА УКОРОЧЕННАЯ НА ПОЯСЕ, С НАКЛАДНЫМИ И ВНУТРЕННИМИ КАРМАНАМИ, СУПАТНОЙ ЗАСТЁЖКОЙ НА МОЛНИЮ. ЭЛЕМЕНТЫ ОТДЕЛКИ ИЗ КОНТРАСТНОЙ ТКАНИ. БРЮКИ ПРЯМЫЕ НА ПОЯСЕ, С ВНУТРЕННИМИ КАРМАНАМИ, ЗАСТЁЖКОЙ ГУЛЬФИКА НА МОЛНИЮ. ЦВЕТ: ТЕМНО-ЗЕЛЕНЫЙ С ЛИМОННЫМ ТКАНЬ СМЕСОВАЯ, 65% П/Э, 35% Х/Б, ПОВ. ПЛ. 210 Г/КВ.М. РАЗМЕР: С 44-46 ПО 60-62 РОСТ:158-164, 170-176, 182-188 .";s:6:"parent";s:2:"69";s:4:"durl";s:85:"letnyaya_spetsodezhda/kostyumy_i_kurtki_rabochie/kostyum_favorit_k_br_tsv_t_zel_limon";s:4:"dtxt";s:607:"Куртка укороченная на поясе, с накладными и внутренними карманами, супатной застёжкой на молнию. Элементы отделки из контрастной ткани. Брюки прямые на поясе, с внутренними карманами, застёжкой гульфика на молнию. Цвет: темно-зеленый с лимонным Ткань смесовая, 65&#37; п/э, 35&#37; х/б, пов. пл. 210 г/кв.м. Размер: с 44-46 по 60-62 Рост:158-164, 170-176, 182-188 .";s:4:"dpic";s:28:"/upload/iblock/00e/15908.jpg";s:11:"preview_pic";s:28:"/upload/iblock/cbd/15908.jpg";s:4:"bxid";s:6:"200632";s:5:"alias";s:0:"";s:7:"section";s:5:"11723";}i:57;a:14:{s:2:"id";s:4:"1622";s:3:"act";s:1:"N";s:9:"prod_type";s:0:"";s:4:"name";s:59:"Костюм ФАВОРИТ (к+бр) цв.т.сер/сер";s:3:"art";s:9:"Кос074";s:6:"search";s:643:"КОСТЮМ ФАВОРИТ (К+БР) ЦВ.Т.СЕР/СЕР

КУРТКА УКОРОЧЕННАЯ НА ПОЯСЕ, С НАКЛАДНЫМИ И ВНУТРЕННИМИ КАРМАНАМИ, СУПАТНОЙ ЗАСТЁЖКОЙ НА МОЛНИЮ. ЭЛЕМЕНТЫ ОТДЕЛКИ ИЗ КОНТРАСТНОЙ ТКАНИ. БРЮКИ ПРЯМЫЕ НА ПОЯСЕ, С ВНУТРЕННИМИ КАРМАНАМИ, ЗАСТЁЖКОЙ ГУЛЬФИКА НА МОЛНИЮ. ЦВЕТ: ТЕМНО-СЕРЫЙ С СЕРЫМ ТКАНЬ СМЕСОВАЯ, 65% П/Э, 35% Х/Б, ПОВ. ПЛ. 210 Г/КВ.М. РАЗМЕР: С 44-46 ПО 60-62 РОСТ:170-176, 182-188 .";s:6:"parent";s:2:"69";s:4:"durl";s:83:"letnyaya_spetsodezhda/kostyumy_i_kurtki_rabochie/kostyum_favorit_k_br_tsv_t_ser_ser";s:4:"dtxt";s:588:"Куртка укороченная на поясе, с накладными и внутренними карманами, супатной застёжкой на молнию. Элементы отделки из контрастной ткани. Брюки прямые на поясе, с внутренними карманами, застёжкой гульфика на молнию. Цвет: темно-серый с серым Ткань смесовая, 65&#37; п/э, 35&#37; х/б, пов. пл. 210 г/кв.м. Размер: с 44-46 по 60-62 Рост:170-176, 182-188 .";s:4:"dpic";s:31:"/upload/iblock/712/img_3371.jpg";s:11:"preview_pic";s:31:"/upload/iblock/fd5/img_3371.jpg";s:4:"bxid";s:6:"200633";s:5:"alias";s:0:"";s:7:"section";s:5:"11723";}i:58;a:14:{s:2:"id";s:4:"1623";s:3:"act";s:1:"N";s:9:"prod_type";s:0:"";s:4:"name";s:64:"Костюм ФАВОРИТ (к+пк) цв.т.зел./лимон";s:3:"art";s:9:"Кос902";s:6:"search";s:583:"КОСТЮМ ФАВОРИТ (К+ПК) ЦВ.Т.ЗЕЛ./ЛИМОН

КУРТКА УКОРОЧЕННАЯ НА ПОЯСЕ, С НАКЛАДНЫМИ И ВНУТРЕННИМИ КАРМАНАМИ, СУПАТНОЙ ЗАСТЁЖКОЙ НА МОЛНИЮ. ПОЛУКОМБИНЕЗОН С ВНУТРЕННИМИ КАРМАНАМИ, ЗАСТЁЖКОЙ ГУЛЬФИКА НА МОЛНИЮ. ТКАНЬ: СМЕСОВАЯ 67%-П/Э, 33%-Х/Б, ПОВ. ПЛ.-210 Г/КВ.М. ЦВЕТ: ТЕМНО-ЗЕЛЕНЫЙ С ЛИМОННЫМ РАЗМЕР: С 44-46 ПО 60-62 РОСТ:158-164, 170-176, 182-188 .";s:6:"parent";s:2:"69";s:4:"durl";s:85:"letnyaya_spetsodezhda/kostyumy_i_kurtki_rabochie/kostyum_favorit_k_pk_tsv_t_zel_limon";s:4:"dtxt";s:523:"Куртка укороченная на поясе, с накладными и внутренними карманами, супатной застёжкой на молнию. Полукомбинезон с внутренними карманами, застёжкой гульфика на молнию. Ткань: смесовая 67&#37;-п/э, 33&#37;-х/б, пов. пл.-210 г/кв.м. Цвет: темно-зеленый с лимонным Размер: с 44-46 по 60-62 Рост:158-164, 170-176, 182-188 .";s:4:"dpic";s:28:"/upload/iblock/85d/15897.jpg";s:11:"preview_pic";s:28:"/upload/iblock/888/15897.jpg";s:4:"bxid";s:6:"200637";s:5:"alias";s:0:"";s:7:"section";s:5:"11723";}i:59;a:14:{s:2:"id";s:4:"1624";s:3:"act";s:1:"Y";s:9:"prod_type";s:0:"";s:4:"name";s:59:"Костюм ФАВОРИТ (к+пк) цв.т.сер/сер";s:3:"art";s:9:"Кос508";s:6:"search";s:559:"КОСТЮМ ФАВОРИТ (К+ПК) ЦВ.Т.СЕР/СЕР

КУРТКА УКОРОЧЕННАЯ НА ПОЯСЕ, С НАКЛАДНЫМИ И ВНУТРЕННИМИ КАРМАНАМИ, СУПАТНОЙ ЗАСТЁЖКОЙ НА МОЛНИЮ. ПОЛУКОМБИНЕЗОН С ВНУТРЕННИМИ КАРМАНАМИ, ЗАСТЁЖКОЙ ГУЛЬФИКА НА МОЛНИЮ. ТКАНЬ: СМЕСОВАЯ 67%-П/Э, 33%-Х/Б, ПОВ. ПЛ.-210 Г/КВ.М. ЦВЕТ: ТЕМНО-СЕРЫЙ С СЕРЫМ РАЗМЕР: С 44-46 ПО 60-62 РОСТ:170-176, 182-188 .";s:6:"parent";s:2:"69";s:4:"durl";s:83:"letnyaya_spetsodezhda/kostyumy_i_kurtki_rabochie/kostyum_favorit_k_pk_tsv_t_ser_ser";s:4:"dtxt";s:504:"Куртка укороченная на поясе, с накладными и внутренними карманами, супатной застёжкой на молнию. Полукомбинезон с внутренними карманами, застёжкой гульфика на молнию. Ткань: смесовая 67&#37;-п/э, 33&#37;-х/б, пов. пл.-210 г/кв.м. Цвет: темно-серый с серым Размер: с 44-46 по 60-62 Рост:170-176, 182-188 .";s:4:"dpic";s:31:"/upload/iblock/c1e/img_3230.jpg";s:11:"preview_pic";s:31:"/upload/iblock/fb8/img_3230.jpg";s:4:"bxid";s:6:"200638";s:5:"alias";s:0:"";s:7:"section";s:5:"11723";}i:60;a:14:{s:2:"id";s:4:"1625";s:3:"act";s:1:"N";s:9:"prod_type";s:0:"";s:4:"name";s:39:"Куртка Мастер син-вас";s:3:"art";s:9:"Кур301";s:6:"search";s:446:"КУРТКА МАСТЕР СИН-ВАС

КУРТКА УКОРОЧЕННАЯ НА ПОЯСЕ С СУПАТНОЙ ЗАСТЕЖКОЙ НА ПУГОВИЦЫ. ПОЛОЧКИ И СПИНКА НА КОКЕТКАХ КОНТРАСТНОГО ЦВЕТА. СВЕРХУ ДВА НАКЛАДНЫХ КАРМАНА НА КЛАПАНАХ, СНИЗУ ДВА НАКЛАДНЫХ С КОСЫМ ВХОДОМ. ЦВЕТ: ТЕМНО-СИНИЙ С ВАСИЛЬКОМ . .";s:6:"parent";s:2:"69";s:4:"durl";s:70:"letnyaya_spetsodezhda/kostyumy_i_kurtki_rabochie/kurtka_master_sin_vas";s:4:"dtxt";s:403:"Куртка укороченная на поясе с супатной застежкой на пуговицы. Полочки и спинка на кокетках контрастного цвета. Сверху два накладных кармана на клапанах, снизу два накладных с косым входом. Цвет: темно-синий с васильком . .";s:4:"dpic";s:31:"/upload/iblock/906/img_3255.jpg";s:11:"preview_pic";s:31:"/upload/iblock/b75/img_3255.jpg";s:4:"bxid";s:6:"200779";s:5:"alias";s:0:"";s:7:"section";s:5:"11723";}i:61;a:14:{s:2:"id";s:4:"1626";s:3:"act";s:1:"N";s:9:"prod_type";s:0:"";s:4:"name";s:43:"Куртка Стандарт син-вас";s:3:"art";s:9:"Кур302";s:6:"search";s:480:"КУРТКА СТАНДАРТ СИН-ВАС

КУРТКА ПРЯМОГО СИЛУЭТА С ЗАСТЁЖКОЙ НА ПУГОВИЦЫ И ФИГУРНЫМИ НАКЛАДНЫМИ КАРМАНАМИ, РУКАВА С МАНЖЕТАМИ НА ПУГОВИЦАХ. БРЮКИ НА ПОЯСЕ, С ПЕРЕДНИМИ НАКЛАДНЫМИ КАРМАНАМИ. СРЕДНИЙ ШОВ БРЮК УСИЛЕН ДВОЙНОЙ СТРОЧКОЙ. ЦВЕТ: ТЕМНО-СИНИЙ С ВАСИЛЬКОМ .";s:6:"parent";s:2:"69";s:4:"durl";s:72:"letnyaya_spetsodezhda/kostyumy_i_kurtki_rabochie/kurtka_standart_sin_vas";s:4:"dtxt";s:433:"Куртка прямого силуэта с застёжкой на пуговицы и фигурными накладными карманами, рукава с манжетами на пуговицах. Брюки на поясе, с передними накладными карманами. Средний шов брюк усилен двойной строчкой. Цвет: темно-синий с васильком .";s:4:"dpic";s:28:"/upload/iblock/65a/14631.jpg";s:11:"preview_pic";s:28:"/upload/iblock/136/14631.jpg";s:4:"bxid";s:6:"200795";s:5:"alias";s:0:"";s:7:"section";s:5:"11723";}i:62;a:14:{s:2:"id";s:4:"1627";s:3:"act";s:1:"N";s:9:"prod_type";s:0:"";s:4:"name";s:54:"Костюм Стандарт женский (к+бр)";s:3:"art";s:9:"Кос209";s:6:"search";s:659:"КОСТЮМ СТАНДАРТ ЖЕНСКИЙ (К+БР)

КУРТКА ПРЯМОГО СИЛУЭТА С ЗАСТЁЖКОЙ НА ПУГОВИЦЫ И ФИГУРНЫМИ НАКЛАДНЫМИ КАРМАНАМИ, РУКАВА С МАНЖЕТАМИ НА ПУГОВИЦАХ. БРЮКИ НА ПОЯСЕ, С ПЕРЕДНИМИ НАКЛАДНЫМИ КАРМАНАМИ. СРЕДНИЙ ШОВ БРЮК УСИЛЕН ДВОЙНОЙ СТРОЧКОЙ. ЦВЕТ: ТЕМНО-СИНИЙ С ВАСИЛЬКОМ (ВОЗМОЖЕН ВАРИАНТ ИЗГОТОВЛЕНИЯ С ЛЮБЫМИ ЦВЕТАМИ) ТКАНЬ: СМЕСОВАЯ 65% П/Э, 35% Х/Б, ПЛ. 215 Г/:З МИ ВУ .";s:6:"parent";s:2:"69";s:4:"durl";s:79:"letnyaya_spetsodezhda/kostyumy_i_kurtki_rabochie/kostyum_standart_zhenskiy_k_br";s:4:"dtxt";s:617:"Куртка прямого силуэта с застёжкой на пуговицы и фигурными накладными карманами, рукава с манжетами на пуговицах. Брюки на поясе, с передними накладными карманами. Средний шов брюк усилен двойной строчкой. Цвет: темно-синий с васильком &#40;возможен вариант изготовления с любыми цветами&#41; Ткань: смесовая 65&#37; п/э, 35&#37; х/б, пл. 215 г/:З Ми Ву .";s:4:"dpic";s:27:"/upload/iblock/b84/2970.jpg";s:11:"preview_pic";s:27:"/upload/iblock/377/2970.jpg";s:4:"bxid";s:6:"201963";s:5:"alias";s:0:"";s:7:"section";s:5:"11723";}i:63;a:14:{s:2:"id";s:4:"1628";s:3:"act";s:1:"N";s:9:"prod_type";s:0:"";s:4:"name";s:60:"Костюм Дока (к+п/к) цв.т.син/желтый";s:3:"art";s:9:"Кос815";s:6:"search";s:2514:"КОСТЮМ ДОКА (К+П/К) ЦВ.Т.СИН/ЖЕЛТЫЙ

КОМПЛЕКТАЦИЯ: КУРТКА + ПОЛУКОМБИНЕЗОН. КУРТКА С ЦЕНТРАЛЬНОЙ СУПАТНОЙ ЗАСТЕЖКОЙ, С ПРИТАЧНЫМИ ПРЯМЫМИ КОКЕТКАМИ ПОЛОЧЕК И СПИНКИ, С ДВУМЯ НАГРУДНЫМИ НАКЛАДНЫМИ КАРМАНАМИ С КЛАПАНАМИ И НИЖНИМИ НАКЛАДНЫМИ КАРМАНАМИ СО СКОШЕННЫМ ВХОДОМ. РУКАВА ВТАЧНЫЕ ДВУХШОВНЫЕ, С ЦЕЛЬНОКРОЕНОЙ МАНЖЕТОЙ, РЕГУЛИРУЮЩЕЙСЯ ДВУМЯ ПУГОВИЦАМИ. В ВЕРХНЕЙ ЧАСТИ ЛЕВОГО РУКАВА НАКЛАДНОЙ КАРМАН С МОЛНИЕЙ. ВОРОТНИК ВТАЧНОЙ, ОТЛОЖНОЙ. НИЖНЯЯ ЧАСТЬ КЛАПАНОВ, НИЖНИЙ ВОРОТНИК ВЫПОЛНЕНЫ ИЗ ОТДЕЛОЧНОЙ ТКАНИ, ОБРАЗУЯ КАНТ НА ЛИЦЕВОЙ СТОРОНЕ.. ПО НИЗУ КУРТКИ ПРИТАЧНОЙ ПОЯС С УЧАСТКАМИ ЭЛАСТИЧНОЙ ТЕСЬМЫ В ОБЛАСТИ БОКОВЫХ ШВОВ. ПОЛУКОМБИНЕЗОН С ЗАСТЕЖКОЙ ГУЛЬФИКА НА ТРИ ПУГОВИЦЫ И ПЕТЛИ И ЗАСТЕЖКОЙ В ЛЕВОМ БОКОВОМ ШВЕ НА ДВЕ ПУГОВИЦЫ И ПЕТЛИ, С БОКОВЫМИ КАРМАНАМИ В БОКОВЫХ ШВАХ С НАКЛОННЫМ ВХОДОМ. НА ПРАВОЙ ЗАДНЕЙ ПОЛОВИНКЕ ПЯТИУГОЛЬНЫЙ НАКЛАДНОЙ КАРМАН И НАКЛАДНОЙ КАРМАН ДЛЯ ИНСТРУМЕНТОВ. МЕЖДУ НАКЛАДНЫМ КАРМАНОМ ЗАДНЕЙ ПОЛОВИНКИ ПОЛУКОМБИНЕЗОНА И ПРАВЫМ БОКОВЫМ ШВОМ РАСПОЛОЖЕНА ШЛЕВКА ИЗ ОТДЕЛОЧНОЙ ТКАНИ. СПЕРЕДИ К ПОЯСУ ПРИТАЧАНА ГРУДКА С НАКЛАДНЫМ КАРМАНОМ С КЛАПАНОМ, ЗАСТЕГИВАЮЩИМСЯ НА ПЕТЛЮ И ПУГОВИЦУ НИЖНЯЯ ЧАСТЬ КЛАПАНА ИЗ ОТДЕЛОЧНОЙ ТКАНИ, ОБРАЗУЯ КАНТ НА ЛИЦЕВОЙ СТОРОНЕ.. БРЕТЕЛИ С УЧАСТКОМ ЭЛАСТИЧНОЙ ТЕСЬМЫ СЗАДИ ПРИСТЕГИВАЮТСЯ К ГРУДКЕ КАРАБИНАМИ. ЦВЕТ: Т.СИНИЙ С ЛИМОННОЙ ОТДЕЛКОЙ ТКАНЬ: СМЕСОВАЯ ПЛ. 210 ГР./КВ.М. РАЗМЕР: 44-46 ПО 60-62 РОСТ: 170-176, 182-188";s:6:"parent";s:2:"69";s:4:"durl";s:85:"letnyaya_spetsodezhda/kostyumy_i_kurtki_rabochie/kostyum_doka_k_p_k_tsv_t_sin_zheltyy";s:4:"dtxt";s:2454:"Комплектация: куртка &#43; полукомбинезон. КУРТКА с центральной супатной застежкой, с притачными прямыми кокетками полочек и спинки, с двумя нагрудными накладными карманами с клапанами и нижними накладными карманами со скошенным входом. Рукава втачные двухшовные, с цельнокроеной манжетой, регулирующейся двумя пуговицами. В верхней части левого рукава накладной карман с молнией. Воротник втачной, отложной. Нижняя часть клапанов, нижний воротник выполнены из отделочной ткани, образуя кант на лицевой стороне.. По низу куртки притачной пояс с участками эластичной тесьмы в области боковых швов. Полукомбинезон с застежкой гульфика на три пуговицы и петли и застежкой в левом боковом шве на две пуговицы и петли, с боковыми карманами в боковых швах с наклонным входом. На правой задней половинке пятиугольный накладной карман и накладной карман для инструментов. Между накладным карманом задней половинки полукомбинезона и правым боковым швом расположена шлевка из отделочной ткани. Спереди к поясу притачана грудка с накладным карманом с клапаном, застегивающимся на петлю и пуговицу Нижняя часть клапана из отделочной ткани, образуя кант на лицевой стороне.. Бретели с участком эластичной тесьмы сзади пристегиваются к грудке карабинами. Цвет: т.синий с лимонной отделкой Ткань: смесовая пл. 210 гр./кВ.м. Размер: 44-46 по 60-62 Рост: 170-176, 182-188";s:4:"dpic";s:28:"/upload/iblock/753/16540.jpg";s:11:"preview_pic";s:28:"/upload/iblock/388/16540.jpg";s:4:"bxid";s:6:"201964";s:5:"alias";s:0:"";s:7:"section";s:5:"11723";}i:64;a:14:{s:2:"id";s:4:"1572";s:3:"act";s:1:"N";s:9:"prod_type";s:0:"";s:4:"name";s:56:"Халат Авангард женский (син/кр)";s:3:"art";s:9:"Хал569";s:6:"search";s:581:"ХАЛАТ АВАНГАРД ЖЕНСКИЙ (СИН/КР)
.ОПИСАНИЕ - СКРЫТАЯ ЗАСТЕЖКА НА ПУГОВИЦЫ - КАРМАНЫ С ХЛЯСТИКАМИ ДЛЯ УДОБСТВА РАССТЕГИВАНИЯ - РЕГУЛИРОВКА ОБЪЕМА ПО ТАЛИИ ЦВЕТ: ТЕМНО-СИНИЙ С КРАСНОЙ ОТДЕЛКОЙ ТКАНЬ ВЕРХА: СМЕСОВАЯ (65% ПОЛИЭФИР, 35% ХЛОПОК), ПЛ. 210 ГР/М? РАЗМЕРЫ: С 88-92 ПО 120-124 РОСТ: 158-164, 170-176 ЗАЩИТНЫЕ СВОЙСТВА: МИ З ВУ ГОСТ 12.4.131-83 .";s:6:"parent";s:2:"67";s:4:"durl";s:70:"letnyaya_spetsodezhda/khalaty_rabochie/khalat_avangard_zhenskiy_sin_kr";s:4:"dtxt";s:539:".Описание - скрытая застежка на пуговицы - карманы с хлястиками для удобства расстегивания - регулировка объема по талии Цвет: темно-синий с красной отделкой Ткань верха: смесовая &#40;65&#37; полиэфир, 35&#37; хлопок&#41;, пл. 210 гр/м? Размеры: с 88-92 по 120-124 Рост: 158-164, 170-176 Защитные свойства: Ми З Ву ГОСТ 12.4.131-83 .";s:4:"dpic";s:27:"/upload/iblock/2a7/7640.jpg";s:11:"preview_pic";s:27:"/upload/iblock/0c9/7640.jpg";s:4:"bxid";s:6:"201701";s:5:"alias";s:0:"";s:7:"section";s:5:"11720";}i:65;a:14:{s:2:"id";s:4:"1573";s:3:"act";s:1:"N";s:9:"prod_type";s:0:"";s:4:"name";s:43:"Халат Работница жен рук";s:3:"art";s:9:"Хал202";s:6:"search";s:480:"ХАЛАТ РАБОТНИЦА ЖЕН РУК

.ХАЛАТ С ЦЕНТРАЛЬНОЙ ЗАСТЕЖКОЙ НА ПУГОВИЦЫ. ИМЕЮТСЯ ДВА НАКЛАДНЫЕ БОКОВЫЕ КАРМАНЫ. РУКАВ ТРИ ЧЕТВЕРТИ. ВОРОТНИК, ОБТАЧКА КАРМАНОВ ИЗ ОТДЕЛОЧНОЙ ТКАНИ. ЦВЕТ: СИНИЙ С ВАСИЛЬКОВОЙ ОТДЕЛКОЙ. ТКАНЬ: ТИСИ РАЗМЕР: С 44-46 ПО 70-72 РОСТ: 158-164, 170-176, 182-188 .";s:6:"parent";s:2:"67";s:4:"durl";s:65:"letnyaya_spetsodezhda/khalaty_rabochie/khalat_rabotnitsa_zhen_ruk";s:4:"dtxt";s:433:".Халат с центральной застежкой на пуговицы. Имеются два накладные боковые карманы. Рукав три четверти. Воротник, обтачка карманов из отделочной ткани. Цвет: синий с васильковой отделкой. Ткань: Тиси Размер: с 44-46 по 70-72 Рост: 158-164, 170-176, 182-188 .";s:4:"dpic";s:31:"/upload/iblock/206/img_3866.jpg";s:11:"preview_pic";s:31:"/upload/iblock/836/img_3866.jpg";s:4:"bxid";s:6:"201725";s:5:"alias";s:0:"";s:7:"section";s:5:"11720";}i:66;a:14:{s:2:"id";s:4:"1574";s:3:"act";s:1:"Y";s:9:"prod_type";s:0:"";s:4:"name";s:42:"Халат Технолог женский";s:3:"art";s:9:"Хал220";s:6:"search";s:585:"ХАЛАТ ТЕХНОЛОГ ЖЕНСКИЙ

. ХАЛАТ С ЦЕНТРАЛЬНОЙ ЗАСТЕЖКОЙ НА ПУГОВИЦЫ. ИМЕЮТСЯ НАКЛАДНЫЕ КАРМАНЫ: НАГРУДНЫЙ И ДВА БОКОВЫХ . РУКАВ ДЛИННЫЙ НА МАНЖЕТЕ. ВОРОТНИК, ОБТАЧКА КАРМАНОВ ИЗ ОТДЕЛОЧНОЙ ТКАНИ. ЦВЕТ: СИНИЙ С ВАСИЛЬКОВОЙ ОТДЕЛКОЙ. ТКАНЬ: СМЕСОВАЯ(65% ПОЛИЭФИР, 35% ХЛОПОК) ПЛ.210 Г/М2, ВО РАЗМЕР: С 44-46 ПО 64-66 РОСТ: 158-164, 170-176, 182-188 .";s:6:"parent";s:2:"67";s:4:"durl";s:64:"letnyaya_spetsodezhda/khalaty_rabochie/khalat_tekhnolog_zhenskiy";s:4:"dtxt";s:555:". Халат с центральной застежкой на пуговицы. Имеются накладные карманы: нагрудный и два боковых . Рукав длинный на манжете. Воротник, обтачка карманов из отделочной ткани. Цвет: синий с васильковой отделкой. Ткань: смесовая&#40;65&#37; полиэфир, 35&#37; хлопок&#41; пл.210 г/м2, ВО Размер: с 44-46 по 64-66 Рост: 158-164, 170-176, 182-188 .";s:4:"dpic";s:31:"/upload/iblock/89b/img_3844.jpg";s:11:"preview_pic";s:31:"/upload/iblock/a7f/img_3844.jpg";s:4:"bxid";s:6:"201738";s:5:"alias";s:0:"";s:7:"section";s:5:"11720";}i:67;a:14:{s:2:"id";s:4:"1575";s:3:"act";s:1:"N";s:9:"prod_type";s:0:"";s:4:"name";s:76:"Халат Технолог женский цв.т.серый/красный";s:3:"art";s:9:"Хал224";s:6:"search";s:594:"ХАЛАТ ТЕХНОЛОГ ЖЕНСКИЙ ЦВ.Т.СЕРЫЙ/КРАСНЫЙ
.ПРЯМОГО СИЛУЭТА С ОТЛОЖНЫМ ВОРОТНИКОМ НА ПУГОВИЦАХ. РУКАВ ДЛИННЫЙ. ТРИ НАКЛАДНЫХ КАРМАНА. ПО ВОРОТНИКУ И КАРМАНАМ ОТДЕЛКА ЦВЕТНЫМ КАНТОМ. ПО ЛИНИИ ТАЛИИ РЕГУЛИРУЕТСЯ ХЛЯСТИКОМ. ЦВЕТ: СЕРЫЙ С КРАСНЫМ ТКАНЬ: СМЕСОВАЯ, 23 % - ХЛОПОК, 77 % ПОЛИЭФИР, ПЛ.210 Г/М? РАЗМЕР С 44-46 ПО 60-62 РОСТ: 158-164, 170-176 .";s:6:"parent";s:2:"67";s:4:"durl";s:84:"letnyaya_spetsodezhda/khalaty_rabochie/khalat_tekhnolog_zhenskiy_tsv_t_seryy_krasnyy";s:4:"dtxt";s:524:".Прямого силуэта с отложным воротником на пуговицах. Рукав длинный. Три накладных кармана. По воротнику и карманам отделка цветным кантом. По линии талии регулируется хлястиком. Цвет: серый с красным Ткань: смесовая, 23 &#37; - хлопок, 77 &#37; полиэфир, пл.210 г/м? Размер с 44-46 по 60-62 Рост: 158-164, 170-176 .";s:4:"dpic";s:28:"/upload/iblock/156/12412.jpg";s:11:"preview_pic";s:28:"/upload/iblock/70b/12412.jpg";s:4:"bxid";s:6:"201739";s:5:"alias";s:0:"";s:7:"section";s:5:"11720";}i:68;a:14:{s:2:"id";s:4:"1576";s:3:"act";s:1:"N";s:9:"prod_type";s:0:"";s:4:"name";s:42:"Халат Технолог мужской";s:3:"art";s:9:"Хал221";s:6:"search";s:444:"ХАЛАТ ТЕХНОЛОГ МУЖСКОЙ

.ХАЛАТ МУЖСКОЙ УКОРОЧЕННЫЙ, ПРЯМОГО СИЛУЭТА, С ЦЕНТРАЛЬНОЙ СУПАТНОЙ ЗАСТЕЖКОЙ НА ПУГОВИЦЫ. РУКАВ ДЛИННЫЙ НА МАНЖЕТЕ. ЦВЕТ: ТЕМНО-СИНИЙ ТКАНЬ: СМЕСОВАЯ(65% ПОЛИЭФИР, 35% ХЛОПОК) ПЛ.210 Г/М2, ВО РАЗМЕР: С 44-46 ПО 60-62 РОСТ:170-176, 182-188 .";s:6:"parent";s:2:"67";s:4:"durl";s:64:"letnyaya_spetsodezhda/khalaty_rabochie/khalat_tekhnolog_muzhskoy";s:4:"dtxt";s:414:".Халат мужской укороченный, прямого силуэта, с центральной супатной застежкой на пуговицы. Рукав длинный на манжете. Цвет: темно-синий Ткань: смесовая&#40;65&#37; полиэфир, 35&#37; хлопок&#41; пл.210 г/м2, ВО Размер: с 44-46 по 60-62 Рост:170-176, 182-188 .";s:4:"dpic";s:31:"/upload/iblock/22e/img_3910.jpg";s:11:"preview_pic";s:31:"/upload/iblock/5cf/img_3910.jpg";s:4:"bxid";s:6:"201740";s:5:"alias";s:0:"";s:7:"section";s:5:"11720";}i:69;a:14:{s:2:"id";s:4:"1577";s:3:"act";s:1:"N";s:9:"prod_type";s:0:"";s:4:"name";s:76:"Халат Технолог мужской цв.т.серый/красный";s:3:"art";s:9:"Хал231";s:6:"search";s:549:"ХАЛАТ ТЕХНОЛОГ МУЖСКОЙ ЦВ.Т.СЕРЫЙ/КРАСНЫЙ
ПРЯМОГО СИЛУЭТА С ОТЛОЖНЫМ ВОРОТНИКОМ НА ПУГОВИЦАХ. РУКАВ ДЛИННЫЙ. ТРИ НАКЛАДНЫХ КАРМАНА. КОКЕТКА КРАСНОГО ЦВЕТА. ПО ЛИНИИ ТАЛИИ РЕГУЛИРУЕТСЯ ХЛЯСТИКОМ. ЦВЕТ: СЕРЫЙ С КРАСНЫМ ТКАНЬ: СМЕСОВАЯ, 23 % - ХЛОПОК, 77 % ПОЛИЭФИР, ПЛ.190 Г/М? РАЗМЕР С 44-46 ПО 60-62 РОСТ: 170-176, 182-188 .";s:6:"parent";s:2:"67";s:4:"durl";s:84:"letnyaya_spetsodezhda/khalaty_rabochie/khalat_tekhnolog_muzhskoy_tsv_t_seryy_krasnyy";s:4:"dtxt";s:479:"Прямого силуэта с отложным воротником на пуговицах. Рукав длинный. Три накладных кармана. Кокетка красного цвета. По линии талии регулируется хлястиком. Цвет: серый с красным Ткань: смесовая, 23 &#37; - хлопок, 77 &#37; полиэфир, пл.190 г/м? Размер с 44-46 по 60-62 Рост: 170-176, 182-188 .";s:4:"dpic";s:28:"/upload/iblock/ecf/15492.jpg";s:11:"preview_pic";s:28:"/upload/iblock/f7b/15492.jpg";s:4:"bxid";s:6:"201741";s:5:"alias";s:0:"";s:7:"section";s:5:"11720";}i:70;a:14:{s:2:"id";s:4:"1578";s:3:"act";s:1:"N";s:9:"prod_type";s:0:"";s:4:"name";s:83:"Халат Технолог цв.т.синий/вас св.кант тк.грета";s:3:"art";s:9:"Хал229";s:6:"search";s:412:"ХАЛАТ ТЕХНОЛОГ ЦВ.Т.СИНИЙ/ВАС СВ.КАНТ ТК.ГРЕТА
ПРЯМОГО СИЛУЭТА С ОТЛОЖНЫМ ВОРОТНИКОМ НА ПУГОВИЦАХ. РУКАВ ДЛИННЫЙ. ЧЕТЫРЕ НАКЛАДНЫХ КАРМАНА. ПО ВОРОТНИКУ И КАРМАНАМ КОНТРАСТНАЯ ОТДЕЛКА. ПО ЛИНИИ ТАЛИИ РЕГУЛИРУЕТСЯ ХЛЯСТИКОМ. .";s:6:"parent";s:2:"67";s:4:"durl";s:88:"letnyaya_spetsodezhda/khalaty_rabochie/khalat_tekhnolog_tsv_t_siniy_vas_sv_kant_tk_greta";s:4:"dtxt";s:327:"Прямого силуэта с отложным воротником на пуговицах. Рукав длинный. Четыре накладных кармана. По воротнику и карманам контрастная отделка. По линии талии регулируется хлястиком. .";s:4:"dpic";s:28:"/upload/iblock/2c3/12835.jpg";s:11:"preview_pic";s:28:"/upload/iblock/6fc/12835.jpg";s:4:"bxid";s:6:"201742";s:5:"alias";s:0:"";s:7:"section";s:5:"11720";}i:71;a:14:{s:2:"id";s:4:"1579";s:3:"act";s:1:"N";s:9:"prod_type";s:0:"";s:4:"name";s:42:"Халат синий тк.бязь жен";s:3:"art";s:9:"Хал006";s:6:"search";s:461:"ХАЛАТ СИНИЙ ТК.БЯЗЬ ЖЕН

ХАЛАТ С ЦЕНТРАЛЬНОЙ БОРТОВОЙ ЗАСТЕЖКОЙ НА ПУГОВИЦЫ, С ДВУМЯ БОКОВЫМИ НАКЛАДНЫМИ КАРМАНАМИ, ОДНИМ НАГРУДНЫМ НАКЛАДНЫМ КАРМАНОМ. МАНЖЕТЫ РУКАВОВ НА ПУГОВИЦАХ. СЗАДИ ШЛИЦА. ТКАНЬ: БЯЗЬ (100 % Х/Б) РАЗМЕР: С 44-46 ПО 60-62 РОСТ: С 158-164 ПО 170-176";s:6:"parent";s:2:"67";s:4:"durl";s:64:"letnyaya_spetsodezhda/khalaty_rabochie/khalat_siniy_tk_byaz_zhen";s:4:"dtxt";s:427:"Халат с центральной бортовой застежкой на пуговицы, с двумя боковыми накладными карманами, одним нагрудным накладным карманом. Манжеты рукавов на пуговицах. Сзади шлица. Ткань: бязь &#40;100 &#37; х/б&#41; Размер: с 44-46 по 60-62 Рост: с 158-164 по 170-176";s:4:"dpic";s:28:"/upload/iblock/253/10420.jpg";s:11:"preview_pic";s:28:"/upload/iblock/05d/10420.jpg";s:4:"bxid";s:6:"201767";s:5:"alias";s:0:"";s:7:"section";s:5:"11720";}i:72;a:14:{s:2:"id";s:4:"1580";s:3:"act";s:1:"N";s:9:"prod_type";s:0:"";s:4:"name";s:42:"Халат синий тк.бязь муж";s:3:"art";s:9:"Хал007";s:6:"search";s:461:"ХАЛАТ СИНИЙ ТК.БЯЗЬ МУЖ

ХАЛАТ С ЦЕНТРАЛЬНОЙ БОРТОВОЙ ЗАСТЕЖКОЙ НА ПУГОВИЦЫ, С ДВУМЯ БОКОВЫМИ НАКЛАДНЫМИ КАРМАНАМИ, ОДНИМ НАГРУДНЫМ НАКЛАДНЫМ КАРМАНОМ. МАНЖЕТЫ РУКАВОВ НА ПУГОВИЦАХ. СЗАДИ ШЛИЦА. ТКАНЬ: БЯЗЬ (100 % Х/Б) РАЗМЕР: С 44-46 ПО 60-62 РОСТ: С 170-176 ПО 182-188";s:6:"parent";s:2:"67";s:4:"durl";s:64:"letnyaya_spetsodezhda/khalaty_rabochie/khalat_siniy_tk_byaz_muzh";s:4:"dtxt";s:427:"Халат с центральной бортовой застежкой на пуговицы, с двумя боковыми накладными карманами, одним нагрудным накладным карманом. Манжеты рукавов на пуговицах. Сзади шлица. Ткань: бязь &#40;100 &#37; х/б&#41; Размер: с 44-46 по 60-62 Рост: с 170-176 по 182-188";s:4:"dpic";s:28:"/upload/iblock/c4f/10427.jpg";s:11:"preview_pic";s:28:"/upload/iblock/499/10427.jpg";s:4:"bxid";s:6:"201768";s:5:"alias";s:0:"";s:7:"section";s:5:"11720";}i:73;a:14:{s:2:"id";s:4:"1581";s:3:"act";s:1:"N";s:9:"prod_type";s:0:"";s:4:"name";s:44:"Халат черный тк.бязь муж";s:3:"art";s:9:"Хал005";s:6:"search";s:463:"ХАЛАТ ЧЕРНЫЙ ТК.БЯЗЬ МУЖ

ХАЛАТ С ЦЕНТРАЛЬНОЙ БОРТОВОЙ ЗАСТЕЖКОЙ НА ПУГОВИЦЫ, С ДВУМЯ БОКОВЫМИ НАКЛАДНЫМИ КАРМАНАМИ, ОДНИМ НАГРУДНЫМ НАКЛАДНЫМ КАРМАНОМ. МАНЖЕТЫ РУКАВОВ НА ПУГОВИЦАХ. СЗАДИ ШЛИЦА. ТКАНЬ: БЯЗЬ (100 % Х/Б) РАЗМЕР: С 44-46 ПО 60-62 РОСТ: С 170-176 ПО 182-188";s:6:"parent";s:2:"67";s:4:"durl";s:66:"letnyaya_spetsodezhda/khalaty_rabochie/khalat_chernyy_tk_byaz_muzh";s:4:"dtxt";s:427:"Халат с центральной бортовой застежкой на пуговицы, с двумя боковыми накладными карманами, одним нагрудным накладным карманом. Манжеты рукавов на пуговицах. Сзади шлица. Ткань: бязь &#40;100 &#37; х/б&#41; Размер: с 44-46 по 60-62 Рост: с 170-176 по 182-188";s:4:"dpic";s:28:"/upload/iblock/c7f/15134.jpg";s:11:"preview_pic";s:28:"/upload/iblock/de8/15134.jpg";s:4:"bxid";s:6:"201771";s:5:"alias";s:0:"";s:7:"section";s:5:"11720";}i:74;a:14:{s:2:"id";s:4:"1582";s:3:"act";s:1:"N";s:9:"prod_type";s:0:"";s:4:"name";s:44:"Халат черный тк.бязь жен";s:3:"art";s:9:"Хал004";s:6:"search";s:463:"ХАЛАТ ЧЕРНЫЙ ТК.БЯЗЬ ЖЕН

ХАЛАТ С ЦЕНТРАЛЬНОЙ БОРТОВОЙ ЗАСТЕЖКОЙ НА ПУГОВИЦЫ, С ДВУМЯ БОКОВЫМИ НАКЛАДНЫМИ КАРМАНАМИ, ОДНИМ НАГРУДНЫМ НАКЛАДНЫМ КАРМАНОМ. МАНЖЕТЫ РУКАВОВ НА ПУГОВИЦАХ. СЗАДИ ШЛИЦА. ТКАНЬ: БЯЗЬ (100 % Х/Б) РАЗМЕР: С 44-46 ПО 60-62 РОСТ: С 158-164 ПО 170-176";s:6:"parent";s:2:"67";s:4:"durl";s:66:"letnyaya_spetsodezhda/khalaty_rabochie/khalat_chernyy_tk_byaz_zhen";s:4:"dtxt";s:427:"Халат с центральной бортовой застежкой на пуговицы, с двумя боковыми накладными карманами, одним нагрудным накладным карманом. Манжеты рукавов на пуговицах. Сзади шлица. Ткань: бязь &#40;100 &#37; х/б&#41; Размер: с 44-46 по 60-62 Рост: с 158-164 по 170-176";s:4:"dpic";s:27:"/upload/iblock/d46/8484.jpg";s:11:"preview_pic";s:27:"/upload/iblock/deb/8484.jpg";s:4:"bxid";s:6:"201960";s:5:"alias";s:0:"";s:7:"section";s:5:"11720";}i:75;a:14:{s:2:"id";s:1:"1";s:3:"act";s:1:"N";s:9:"prod_type";s:4:"Од";s:4:"name";s:27:"Костюм+Гудзон-1";s:3:"art";s:9:"Кос402";s:6:"search";s:1211:"КОСТЮМ ГУДЗОН-1

КОСТЮМ СОСТОИТ ИЗ КУРТКИ И БРЮК. КУРТКА С ПРИТАЧНЫМ ПОЯСОМ, С ВТАЧНЫМИ РУКАВАМИ И ВОРОТНИКОМ. ПОЛОЧКИ С БОКОВЫМИ И НАГРУДНЫМИ КАРМАНАМИ, ПРАВЫЙ КАРМАН С КЛАПАНОМ, ЗАСТЕГИВАЮЩИМСЯ НА КНОПКУ. БРЮКИ С БОКОВЫМИ КАРМАНАМИ С ОТРЕЗНЫМ БОЧКОМ. ЗАДНЯЯ ЛЕВАЯ ПОЛОВИНКА БРЮК ОСНАЩЕНА ВЕРХНИМ НАКЛАДНЫМ КАРМАНОМ, ЗАСТЕГИВАЮЩИМСЯ НА КНОПКУ И ОБЪЕМНЫМ БОКОВЫМ КАРМАНОМ. ПРАВАЯ ЗАДНЯЯ ПОЛОВИНКА БРЮК ИМЕЕТ ВЕРХНИЙ НАКЛАДНОЙ КАРМАН И БОКОВОЙ КАРМАН ПОД ИНСТРУМЕНТЫ. СВЕТОВОЗВРАЩАЮЩИЕ ПОЛОСЫ ПО ЛИНИИ ГРУДИ, РУКАВАМ И НИЗУ БРЮЧИН. ЦВЕТ: БЕЖЕВЫЙ С КОРИЧНЕВОЙ ОТДЕЛКОЙ. ТКАНЬ: СМЕСОВАЯ, 35% ХЛ/65% ПЭ, 245 Г/М2, ВО. РАЗМЕР: С 88-92 ПО 120-124. РОСТ: 170-176, 182-188. ГОСТ 27575-87. ТР ТС 019/2011.-";s:6:"parent";s:1:"2";s:4:"durl";s:56:"letnyaya_spetsodezhda/kostyumy_dlya_itr/kostyum_gudzon_1";s:4:"dtxt";s:1190:"Костюм состоит из куртки и брюк. Куртка с притачным поясом, с втачными рукавами и воротником. Полочки с боковыми и нагрудными карманами, правый карман с клапаном, застегивающимся на кнопку. Брюки с боковыми карманами с отрезным бочком. Задняя левая половинка брюк оснащена верхним накладным карманом, застегивающимся на кнопку и объемным боковым карманом. Правая задняя половинка брюк имеет верхний накладной карман и боковой карман под инструменты. Световозвращающие полосы по линии груди, рукавам и низу брючин. Цвет: бежевый с коричневой отделкой. Ткань: смесовая, 35&#37; хл/65&#37; пэ, 245 г/м2, ВО. Размер: с 88-92 по 120-124. Рост: 170-176, 182-188. ГОСТ 27575-87. ТР ТС 019/2011.-";s:4:"dpic";s:31:"/upload/iblock/ece/mg_29151.jpg";s:11:"preview_pic";s:31:"/upload/iblock/3fd/mg_29151.jpg";s:4:"bxid";s:6:"200180";s:5:"alias";s:0:"";s:7:"section";s:5:"11647";}i:76;a:14:{s:2:"id";s:1:"2";s:3:"act";s:1:"N";s:9:"prod_type";s:0:"";s:4:"name";s:28:"Костюм Гудзон-2 ";s:3:"art";s:9:"Кос403";s:6:"search";s:1297:"КОСТЮМ ГУДЗОН-2 

КОСТЮМ СОСТОИТ ИЗ КУРТКИ И ПОЛУКОМБЕНИЗОНА. КУРТКА С ПРИТАЧНЫМ ПОЯСОМ, С ВТАЧНЫМИ РУКАВАМИ И ВОРОТНИКОМ. ПОЛОЧКИ С БОКОВЫМИ И НАГРУДНЫМИ КАРМАНАМИ, ПРАВЫЙ КАРМАН С КЛАПАНОМ, ЗАСТЕГИВАЮЩИМСЯ НА КНОПКУ. ПОЛУКОМБЕНИЗОН С БОКОВЫМИ КАРМАНАМИ С ОТРЕЗНЫМ БОЧКОМ. ЗАДНЯЯ ЛЕВАЯ ПОЛОВИНКА ПОЛУКОМБИНЕЗОНА ОСНАЩЕНА ВЕРХНИМ НАКЛАДНЫМ КАРМАНОМ, ЗАСТЕГИВАЮЩИМСЯ НА КНОПКУ И ОБЪЕМНЫМ БОКОВЫМ КАРМАНОМ. ПРАВАЯ ЗАДНЯЯ ПОЛОВИНКА ПОЛУКОМБЕНИЗОНА ИМЕЕТ ВЕРХНИЙ НАКЛАДНОЙ КАРМАН И БОКОВОЙ КАРМАН ПОД ИНСТРУМЕНТЫ. СВЕТОВОЗВРАЩАЮЩИЕ ПОЛОСЫ ПО ЛИНИИ ГРУДИ, РУКАВАМ И НИЗУ БРЮЧИН. ЦВЕТ: БЕЖЕВЫЙ С КОРИЧНЕВОЙ ОТДЕЛКОЙ. ТКАНЬ: СМЕСОВАЯ, 35% ХЛ/65% ПЭ, 245 Г/М2, ВО. РАЗМЕР: С 88-92 ПО 120-124. РОСТ: 170-176, 182-188. ГОСТ 27575-87. ТР ТС 019/2011.";s:6:"parent";s:1:"2";s:4:"durl";s:56:"letnyaya_spetsodezhda/kostyumy_dlya_itr/kostyum_gudzon_2";s:4:"dtxt";s:1273:"Костюм состоит из куртки и полукомбенизона. Куртка с притачным поясом, с втачными рукавами и воротником. Полочки с боковыми и нагрудными карманами, правый карман с клапаном, застегивающимся на кнопку. Полукомбенизон с боковыми карманами с отрезным бочком. Задняя левая половинка полукомбинезона оснащена верхним накладным карманом, застегивающимся на кнопку и объемным боковым карманом. Правая задняя половинка полукомбенизона имеет верхний накладной карман и боковой карман под инструменты. Световозвращающие полосы по линии груди, рукавам и низу брючин. Цвет: бежевый с коричневой отделкой. Ткань: смесовая, 35&#37; хл/65&#37; пэ, 245 г/м2, ВО. Размер: с 88-92 по 120-124. Рост: 170-176, 182-188. ГОСТ 27575-87. ТР ТС 019/2011.";s:4:"dpic";s:30:"/upload/iblock/48c/mg_2896.jpg";s:11:"preview_pic";s:30:"/upload/iblock/746/mg_2896.jpg";s:4:"bxid";s:6:"200181";s:5:"alias";s:0:"";s:7:"section";s:5:"11647";}i:77;a:14:{s:2:"id";s:1:"3";s:3:"act";s:1:"N";s:9:"prod_type";s:0:"";s:4:"name";s:60:"Костюм Автомеханик ИТР сер/красн";s:3:"art";s:9:"Кос554";s:6:"search";s:1105:"КОСТЮМ АВТОМЕХАНИК ИТР СЕР/КРАСН
КОСТЮМ СОСТОИТ ИЗ КУРТКИ И ПОЛУКОМБИНЕЗОНА. КУРТКА: ЦЕНТРАЛЬНАЯ БОРТОВАЯ ЗАСТЁЖКА НА МОЛНИЮ НАКЛАДНЫЕ КАРМАНЫ С КЛАПАНОМ ПРОРЕЗНЫЕ КАРМАНЫ С ЛИСТОЧКОЙ ПОЛУКОМБИНЕЗОН: ЗАСТЁЖКА НА МОЛНИЮ БРЕТЕЛИ НА ЭЛАСТИЧНОЙ ТЕСЬМЕ С ЗАСТЁЖКОЙ НА ФАСТЕКСЫ НА ГРУДИ НАКЛАДНОЙ КАРМАН С КЛАПАНОМ НАКОЛЕННИКИ ПО ЛИНИИ ТАЛИИ НА СПИНКЕ ЭЛАСТИЧНАЯ ТЕСЬМА РАЗМЕР: С 88-92 ПО 120-124 РОСТ: 170-176, 182-188 ЦВЕТ: СЕРЫЙ С КРАСНОЙ ОТДЕЛКОЙ ТКАНЬ: СМЕСОВАЯ, СТ•2 СОСТАВ: 35% ХЛОПОК, 65% ПОЛИЭФИР, ПЛ. 240 Г/М? ГОСТ 27575-87 ЗАЩИТНЫЕ СВОЙСТВА ЗАЩИТА ОТ ОБЩИХ ПРОИЗВОДСТВЕННЫХ ЗАГРЕЗНЕНИЙЗАЩИТА ОТ ИСТИРАНИЯВОДОУПОРНОСТЬ	 .";s:6:"parent";s:1:"2";s:4:"durl";s:74:"letnyaya_spetsodezhda/kostyumy_dlya_itr/kostyum_avtomekhanik_itr_ser_krasn";s:4:"dtxt";s:1074:"Костюм состоит из куртки и полукомбинезона. Куртка: центральная бортовая застёжка на молнию накладные карманы с клапаном прорезные карманы с листочкой Полукомбинезон: застёжка на молнию бретели на эластичной тесьме с застёжкой на фастексы на груди накладной карман с клапаном наколенники по линии талии на спинке эластичная тесьма Размер: с 88-92 по 120-124 Рост: 170-176, 182-188 Цвет: серый с красной отделкой Ткань: смесовая, СТ•2 Состав: 35&#37; хлопок, 65&#37; полиэфир, пл. 240 г/м? ГОСТ 27575-87 ЗАЩИТНЫЕ СВОЙСТВА Защита от общих производственных загрезненийЗащита от истиранияВодоупорность&nbsp;&nbsp;&nbsp;&nbsp; .";s:4:"dpic";s:27:"/upload/iblock/78b/5748.jpg";s:11:"preview_pic";s:27:"/upload/iblock/fe7/5748.jpg";s:4:"bxid";s:6:"200469";s:5:"alias";s:0:"";s:7:"section";s:5:"11647";}i:78;a:14:{s:2:"id";s:1:"4";s:3:"act";s:1:"N";s:9:"prod_type";s:0:"";s:4:"name";s:40:"Костюм Автосервис ИТР";s:3:"art";s:9:"Кос557";s:6:"search";s:932:"КОСТЮМ АВТОСЕРВИС ИТР
КОСТЮМ СОСТОИТ ИЗ КУРТКИ И ПОЛУКОМБИНЕЗОНА. КУРТКА: • ПРЯМОГО СИЛУЭТА НА КОКЕТКЕ • ЗАСТЁЖКА НА МОЛНИЮ • НАКЛАДНЫЕ КАРМАНЫ • ОТЛОЖНОЙ ВОРОТНИК ПОЛУКОМБИНЕЗОН: • ЗАСТЁЖКА НА МОЛНИЮ • НАКЛАДНЫЕ КАРМАНЫ • НАКОЛЕННИКИ • ПО ТАЛИИ РЕГУЛИРУЕТСЯ ЭЛАСТИЧНОЙ ЛЕНТОЙ РАЗМЕР: С 88-92 ПО 120-124 РОСТ: 170-176, 182-188 ЦВЕТ: ЧЁРНЫЙ С СЕРЫМ И ОРАНЖЕВЫМ ТКАНЬ: СТ-2 СОСТАВ: 35% ХЛОПОК, 65% ПОЛИЭФИР, ПЛ. 240 Г/М? ГОСТ 27575-87 ЗАЩИТНЫЕ СВОЙСТВА ЗАЩИТА ОТ ОБЩИХ ПРОИЗВОДСТВЕННЫХ ЗАГРЕЗНЕНИЙЗАЩИТА ОТ ИСТИРАНИЯВОДОУПОРНОСТЬ	 .";s:6:"parent";s:1:"2";s:4:"durl";s:62:"letnyaya_spetsodezhda/kostyumy_dlya_itr/kostyum_avtoservis_itr";s:4:"dtxt";s:921:"Костюм состоит из куртки и полукомбинезона. Куртка: • прямого силуэта на кокетке • застёжка на молнию • накладные карманы • отложной воротник Полукомбинезон: • застёжка на молнию • накладные карманы • наколенники • по талии регулируется эластичной лентой Размер: с 88-92 по 120-124 Рост: 170-176, 182-188 Цвет: чёрный с серым и оранжевым Ткань: СТ-2 Состав: 35&#37; хлопок, 65&#37; полиэфир, пл. 240 г/м? ГОСТ 27575-87 ЗАЩИТНЫЕ СВОЙСТВА Защита от общих производственных загрезненийЗащита от истиранияВодоупорность&nbsp;&nbsp;&nbsp;&nbsp; .";s:4:"dpic";s:27:"/upload/iblock/5eb/5744.jpg";s:11:"preview_pic";s:27:"/upload/iblock/48a/5744.jpg";s:4:"bxid";s:6:"200472";s:5:"alias";s:0:"";s:7:"section";s:5:"11647";}i:79;a:14:{s:2:"id";s:1:"5";s:3:"act";s:1:"Y";s:9:"prod_type";s:0:"";s:4:"name";s:60:"Костюм Виват (к+бр) сер/черн/красн";s:3:"art";s:9:"Кос244";s:6:"search";s:1262:"КОСТЮМ ВИВАТ (К+БР) СЕР/ЧЕРН/КРАСН
КОСТЮМ ТРЕХЦВЕТНЫЙ, СОСТОИТ ИЗ КУРТКИ И БРЮК. КУРТКА УКОРОЧЕННАЯ С ПРИТАЧНЫМ ПОЯСОМ НА РЕЗИНКЕ С СУПАТНОЙ ЗАСТЕЖКОЙ НА МОЛНИЮ. ПО КОКЕТКАМ, ПОЛОЧКАМ, СПИНКЕ, РУКАВАМ И БРЮЧИНАМ РАСПОЛОЖЕНЫ СВЕТОВОЗВРАЩАЮЩИЕ ПОЛОСЫ, ЧТО ПОЗВОЛЯЕТ ИСПОЛЬЗОВАТЬ КОСТЮМ В УСЛОВИЯХ ПЛОХОЙ ВИДИМОСТИ. НА КУРТКЕ МНОЖЕСТВО ФУНКЦИОНАЛЬНЫХ КАРМАНОВ, В ТОМ ЧИСЛЕ КАРМАН ДЛЯ СРЕДСТВ СВЯЗИ С КЛАПАНОМ НА ЛИПУЧКЕ. БРЮКИ С БОКОВЫМИ НАКЛАДНЫМИ КАРМАНАМИ С УСИЛЕНИЯМИ, ЗАСТЕЖКОЙ ГУЛЬФИК НА МОЛНИЮ. ЦВЕТ:СЕРЫЙ С ЧЕРНОЙ И КРАСНОЙ ОТДЕЛКОЙ, СЕРЫЙ С ЧЕРНОЙ И СВЕТЛО-СЕРОЙ ОТДЕЛКОЙ. ТКАНЬ: БАЛТЕКС2, (65% ПОЛИЭФИР, 35% ХЛОПОК), ПЛ.245 Г/М2, ВО РАЗМЕР:С 88-92 ПО 128-132 РОСТ:158-164,170-176, 182-188 ЗАЩИТНЫЕ СВОЙСТВА: МИ З";s:6:"parent";s:1:"2";s:4:"durl";s:74:"letnyaya_spetsodezhda/kostyumy_dlya_itr/kostyum_vivat_k_br_ser_chern_krasn";s:4:"dtxt";s:1216:"Костюм трехцветный, состоит из куртки и брюк. Куртка укороченная с притачным поясом на резинке с супатной застежкой на молнию. По кокеткам, полочкам, спинке, рукавам и брючинам расположены световозвращающие полосы, что позволяет использовать костюм в условиях плохой видимости. На куртке множество функциональных карманов, в том числе карман для средств связи с клапаном на липучке. Брюки с боковыми накладными карманами с усилениями, застежкой гульфик на молнию. Цвет:серый с черной и красной отделкой, серый с черной и светло-серой отделкой. Ткань: Балтекс2, &#40;65&#37; полиэфир, 35&#37; хлопок&#41;, пл.245 г/м2, ВО Размер:с 88-92 по 128-132 Рост:158-164,170-176, 182-188 Защитные свойства: Ми З";s:4:"dpic";s:28:"/upload/iblock/7db/12201.jpg";s:11:"preview_pic";s:28:"/upload/iblock/7c7/12201.jpg";s:4:"bxid";s:6:"200491";s:5:"alias";s:0:"";s:7:"section";s:5:"11647";}i:80;a:14:{s:2:"id";s:1:"6";s:3:"act";s:1:"N";s:9:"prod_type";s:0:"";s:4:"name";s:59:"Костюм Виват (к+бр) сер/черн/с.сер";s:3:"art";s:9:"Кос259";s:6:"search";s:1263:"КОСТЮМ ВИВАТ (К+БР) СЕР/ЧЕРН/С.СЕР

КОСТЮМ ТРЕХЦВЕТНЫЙ, СОСТОИТ ИЗ КУРТКИ И БРЮК. КУРТКА УКОРОЧЕННАЯ С ПРИТАЧНЫМ ПОЯСОМ НА РЕЗИНКЕ С СУПАТНОЙ ЗАСТЕЖКОЙ НА МОЛНИЮ. ПО КОКЕТКАМ, ПОЛОЧКАМ, СПИНКЕ, РУКАВАМ И БРЮЧИНАМ РАСПОЛОЖЕНЫ СВЕТОВОЗВРАЩАЮЩИЕ ПОЛОСЫ, ЧТО ПОЗВОЛЯЕТ ИСПОЛЬЗОВАТЬ КОСТЮМ В УСЛОВИЯХ ПЛОХОЙ ВИДИМОСТИ. НА КУРТКЕ МНОЖЕСТВО ФУНКЦИОНАЛЬНЫХ КАРМАНОВ, В ТОМ ЧИСЛЕ КАРМАН ДЛЯ СРЕДСТВ СВЯЗИ С КЛАПАНОМ НА ЛИПУЧКЕ. БРЮКИ С БОКОВЫМИ НАКЛАДНЫМИ КАРМАНАМИ С УСИЛЕНИЯМИ, ЗАСТЕЖКОЙ ГУЛЬФИК НА МОЛНИЮ. ЦВЕТ:СЕРЫЙ С ЧЕРНОЙ И КРАСНОЙ ОТДЕЛКОЙ, СЕРЫЙ С ЧЕРНОЙ И СВЕТЛО-СЕРОЙ ОТДЕЛКОЙ. ТКАНЬ: БАЛТЕКС2, (65% ПОЛИЭФИР, 35% ХЛОПОК), ПЛ.245 Г/М2, ВО РАЗМЕР:С 88-92 ПО 128-132 РОСТ:158-164,170-176, 182-188 ЗАЩИТНЫЕ СВОЙСТВА: МИ З";s:6:"parent";s:1:"2";s:4:"durl";s:74:"letnyaya_spetsodezhda/kostyumy_dlya_itr/kostyum_vivat_k_br_ser_chern_s_ser";s:4:"dtxt";s:1216:"Костюм трехцветный, состоит из куртки и брюк. Куртка укороченная с притачным поясом на резинке с супатной застежкой на молнию. По кокеткам, полочкам, спинке, рукавам и брючинам расположены световозвращающие полосы, что позволяет использовать костюм в условиях плохой видимости. На куртке множество функциональных карманов, в том числе карман для средств связи с клапаном на липучке. Брюки с боковыми накладными карманами с усилениями, застежкой гульфик на молнию. Цвет:серый с черной и красной отделкой, серый с черной и светло-серой отделкой. Ткань: Балтекс2, &#40;65&#37; полиэфир, 35&#37; хлопок&#41;, пл.245 г/м2, ВО Размер:с 88-92 по 128-132 Рост:158-164,170-176, 182-188 Защитные свойства: Ми З";s:4:"dpic";s:31:"/upload/iblock/609/img_2899.jpg";s:11:"preview_pic";s:31:"/upload/iblock/a79/img_2899.jpg";s:4:"bxid";s:6:"200492";s:5:"alias";s:0:"";s:7:"section";s:5:"11647";}i:81;a:14:{s:2:"id";s:1:"7";s:3:"act";s:1:"Y";s:9:"prod_type";s:0:"";s:4:"name";s:60:"Костюм Виват (к+пк) сер/черн/красн";s:3:"art";s:9:"Кос452";s:6:"search";s:1321:"КОСТЮМ ВИВАТ (К+ПК) СЕР/ЧЕРН/КРАСН
КОСТЮМ ТРЕХЦВЕТНЫЙ, СОСТОИТ ИЗ КУРТКИ И ПОЛУКОМБИНЕЗОНА. КУРТКА УКОРОЧЕННАЯ С ПРИТАЧНЫМ ПОЯСОМ НА РЕЗИНКЕ С СУПАТНОЙ ЗАСТЕЖКОЙ НА МОЛНИЮ. ПО КОКЕТКАМ, ПОЛОЧКАМ, СПИНКЕ, РУКАВАМ И БРЮЧИНАМ РАСПОЛОЖЕНЫ СВЕТОВОЗВРАЩАЮЩИЕ ПОЛОСЫ, ЧТО ПОЗВОЛЯЕТ ИСПОЛЬЗОВАТЬ КОСТЮМ В УСЛОВИЯХ ПЛОХОЙ ВИДИМОСТИ. НА КУРТКЕ МНОЖЕСТВО ФУНКЦИОНАЛЬНЫХ КАРМАНОВ, В ТОМ ЧИСЛЕ КАРМАН ДЛЯ СРЕДСТВ СВЯЗИ С КЛАПАНОМ НА ЛИПУЧКЕ. ПОЛУКОМБИНЕЗОН С БОКОВЫМИ НАКЛАДНЫМИ КАРМАНАМИ С УСИЛЕНИЯМИ. ПО ТАЛИИ И В БРЕТЕЛЯХ ЭЛАСТИЧНАЯ ЛЕНТА. ЦВЕТ:СЕРЫЙ С ЧЕРНОЙ И КРАСНОЙ ОТДЕЛКОЙ, СЕРЫЙ С ЧЕРНОЙ И СВЕТЛО-СЕРОЙ ОТДЕЛКОЙ. ТКАНЬ: БАЛТЕКС2, (65% ПОЛИЭФИР, 35% ХЛОПОК), ПЛ.245 Г/М2, ВО РАЗМЕР:С 88-92 ПО 128-132 РОСТ:158-164,170-176, 182-188 ЗАЩИТНЫЕ СВОЙСТВА: МИ З";s:6:"parent";s:1:"2";s:4:"durl";s:74:"letnyaya_spetsodezhda/kostyumy_dlya_itr/kostyum_vivat_k_pk_ser_chern_krasn";s:4:"dtxt";s:1275:"Костюм трехцветный, состоит из куртки и полукомбинезона. Куртка укороченная с притачным поясом на резинке с супатной застежкой на молнию. По кокеткам, полочкам, спинке, рукавам и брючинам расположены световозвращающие полосы, что позволяет использовать костюм в условиях плохой видимости. На куртке множество функциональных карманов, в том числе карман для средств связи с клапаном на липучке. Полукомбинезон с боковыми накладными карманами с усилениями. По талии и в бретелях эластичная лента. Цвет:серый с черной и красной отделкой, серый с черной и светло-серой отделкой. Ткань: Балтекс2, &#40;65&#37; полиэфир, 35&#37; хлопок&#41;, пл.245 г/м2, ВО Размер:с 88-92 по 128-132 Рост:158-164,170-176, 182-188 Защитные свойства: Ми З";s:4:"dpic";s:28:"/upload/iblock/c12/10075.jpg";s:11:"preview_pic";s:28:"/upload/iblock/605/10075.jpg";s:4:"bxid";s:6:"200493";s:5:"alias";s:0:"";s:7:"section";s:5:"11647";}i:82;a:14:{s:2:"id";s:1:"8";s:3:"act";s:1:"N";s:9:"prod_type";s:0:"";s:4:"name";s:59:"Костюм Виват (к+пк) сер/черн/с.сер";s:3:"art";s:9:"Кос451";s:6:"search";s:1320:"КОСТЮМ ВИВАТ (К+ПК) СЕР/ЧЕРН/С.СЕР
КОСТЮМ ТРЕХЦВЕТНЫЙ, СОСТОИТ ИЗ КУРТКИ И ПОЛУКОМБИНЕЗОНА. КУРТКА УКОРОЧЕННАЯ С ПРИТАЧНЫМ ПОЯСОМ НА РЕЗИНКЕ С СУПАТНОЙ ЗАСТЕЖКОЙ НА МОЛНИЮ. ПО КОКЕТКАМ, ПОЛОЧКАМ, СПИНКЕ, РУКАВАМ И БРЮЧИНАМ РАСПОЛОЖЕНЫ СВЕТОВОЗВРАЩАЮЩИЕ ПОЛОСЫ, ЧТО ПОЗВОЛЯЕТ ИСПОЛЬЗОВАТЬ КОСТЮМ В УСЛОВИЯХ ПЛОХОЙ ВИДИМОСТИ. НА КУРТКЕ МНОЖЕСТВО ФУНКЦИОНАЛЬНЫХ КАРМАНОВ, В ТОМ ЧИСЛЕ КАРМАН ДЛЯ СРЕДСТВ СВЯЗИ С КЛАПАНОМ НА ЛИПУЧКЕ. ПОЛУКОМБИНЕЗОН С БОКОВЫМИ НАКЛАДНЫМИ КАРМАНАМИ С УСИЛЕНИЯМИ. ПО ТАЛИИ И В БРЕТЕЛЯХ ЭЛАСТИЧНАЯ ЛЕНТА. ЦВЕТ:СЕРЫЙ С ЧЕРНОЙ И КРАСНОЙ ОТДЕЛКОЙ, СЕРЫЙ С ЧЕРНОЙ И СВЕТЛО-СЕРОЙ ОТДЕЛКОЙ. ТКАНЬ: БАЛТЕКС2, (65% ПОЛИЭФИР, 35% ХЛОПОК), ПЛ.245 Г/М2, ВО РАЗМЕР:С 88-92 ПО 128-132 РОСТ:158-164,170-176, 182-188 ЗАЩИТНЫЕ СВОЙСТВА: МИ З";s:6:"parent";s:1:"2";s:4:"durl";s:74:"letnyaya_spetsodezhda/kostyumy_dlya_itr/kostyum_vivat_k_pk_ser_chern_s_ser";s:4:"dtxt";s:1275:"Костюм трехцветный, состоит из куртки и полукомбинезона. Куртка укороченная с притачным поясом на резинке с супатной застежкой на молнию. По кокеткам, полочкам, спинке, рукавам и брючинам расположены световозвращающие полосы, что позволяет использовать костюм в условиях плохой видимости. На куртке множество функциональных карманов, в том числе карман для средств связи с клапаном на липучке. Полукомбинезон с боковыми накладными карманами с усилениями. По талии и в бретелях эластичная лента. Цвет:серый с черной и красной отделкой, серый с черной и светло-серой отделкой. Ткань: Балтекс2, &#40;65&#37; полиэфир, 35&#37; хлопок&#41;, пл.245 г/м2, ВО Размер:с 88-92 по 128-132 Рост:158-164,170-176, 182-188 Защитные свойства: Ми З";s:4:"dpic";s:28:"/upload/iblock/718/10081.jpg";s:11:"preview_pic";s:28:"/upload/iblock/3df/10081.jpg";s:4:"bxid";s:6:"200494";s:5:"alias";s:0:"";s:7:"section";s:5:"11647";}i:83;a:14:{s:2:"id";s:1:"9";s:3:"act";s:1:"N";s:9:"prod_type";s:0:"";s:4:"name";s:41:"Костюм КМ-10 ИТР син+вас";s:3:"art";s:9:"Кос507";s:6:"search";s:1079:"КОСТЮМ КМ-10 ИТР СИН+ВАС

КОСТЮМ СОСТОИТ ИЗ КУРТКИ И ПОЛУКОМБИНЕЗОНА. КУРТКА: • ПОТАЙНАЯ ЗАСТЁЖКА НА ПУГОВИЦЫ • БОКОВЫЕ И НАГРУДНЫЕ КАРМАНЫ • КЛАПАНЫ КАРМАНОВ ЗАСТЁГИВАЮТСЯ НА ЛИПУЧКУ • КОКЕТКА ИЗ КОНТРАСТНОЙ ТКАНИ С ОТДЕЛКОЙ КАНТОМ ПОЛУКОМБИНЕЗОН: • НАКЛАДНЫЕ КАРМАНЫ ДЛЯ ИНСТРУМЕНТОВ • УСИЛЕННАЯ НАКОЛЕННАЯ ЧАСТЬ • ДВОЙНЫЕ ОТДЕЛОЧНЫЕ СТРОЧКИ РАЗМЕР: С 88-92 ПО 120-124 РОСТ: 170-176, 182-188 ЦВЕТ: ВАСИЛЁК С ТЁМНО-СИНЕЙ ОТДЕЛКОЙ ТКАНЬ: СМЕСОВАЯ, СТ-1 СОСТАВ: 35% ХЛОПОК, 65% ПОЛИЭФИР, ПЛ. 210 Г/М? ГОСТ 27575-87 ЗАЩИТНЫЕ СВОЙСТВА ЗАЩИТА ОТ ОБЩИХ ПРОИЗВОДСТВЕННЫХ ЗАГРЕЗНЕНИЙЗАЩИТА ОТ ИСТИРАНИЯВОДОУПОРНОСТЬ	 .";s:6:"parent";s:1:"2";s:4:"durl";s:65:"letnyaya_spetsodezhda/kostyumy_dlya_itr/kostyum_km_10_itr_sin_vas";s:4:"dtxt";s:1065:"Костюм состоит из куртки и полукомбинезона. Куртка: • потайная застёжка на пуговицы • боковые и нагрудные карманы • клапаны карманов застёгиваются на липучку • кокетка из контрастной ткани с отделкой кантом Полукомбинезон: • накладные карманы для инструментов • усиленная наколенная часть • двойные отделочные строчки Размер: с 88-92 по 120-124 Рост: 170-176, 182-188 Цвет: василёк с тёмно-синей отделкой Ткань: смесовая, СТ-1 Состав: 35&#37; хлопок, 65&#37; полиэфир, пл. 210 г/м? ГОСТ 27575-87 ЗАЩИТНЫЕ СВОЙСТВА Защита от общих производственных загрезненийЗащита от истиранияВодоупорность&nbsp;&nbsp;&nbsp;&nbsp; .";s:4:"dpic";s:27:"/upload/iblock/ff8/3046.jpg";s:11:"preview_pic";s:27:"/upload/iblock/d23/3046.jpg";s:4:"bxid";s:6:"200529";s:5:"alias";s:0:"";s:7:"section";s:5:"11647";}i:84;a:14:{s:2:"id";s:2:"10";s:3:"act";s:1:"N";s:9:"prod_type";s:0:"";s:4:"name";s:68:"Костюм Профессионал -2 т.сер/сер/оранж";s:3:"art";s:9:"Кос087";s:6:"search";s:828:"КОСТЮМ ПРОФЕССИОНАЛ -2 Т.СЕР/СЕР/ОРАНЖ
КУРТКА С ПОТАЙНОЙ ЗАСТЕЖКОЙ НА МОЛНИИ И КОНТАКТНОЙ ЛЕНТОЙ. С ДВУМЯ НАГРУДНЫМИ И БОКОВЫМИ КАРМАНАМИ, С УСИЛЕНИЕМ В ОБЛАСТИ ЛОКТЕЙ. РУКАВА НА МАНЖЕТАХ С КОНТАКТНОЙ ЛЕНТОЙ. НА ЛЕВОМ РУКАВЕ РАСПОЛОЖЕН НАКЛАДНОЙ КАРМАН. ПОЛУКОМБИНЕЗОН С УСИЛЕНИЕМ В ОБЛАСТИ КОЛЕН, С НАГРУДНЫМИ И НАВЕСНЫМИ КАРМАНАМИ. ТКАНИ, ИЗ КОТОРЫХ ВЫПОЛНЕНА СПЕЦОДЕЖДА, УСТОЙЧИВЫ К ИСТИРАНИЮ. ТКАНЬ: СМЕСОВАЯ (65% ПОЛИЭФИР, 35% ХЛОПОК) ЦВЕТ: ТЕМНО-СЕРЫЙ .";s:6:"parent";s:1:"2";s:4:"durl";s:79:"letnyaya_spetsodezhda/kostyumy_dlya_itr/kostyum_professional_2_t_ser_ser_oranzh";s:4:"dtxt";s:774:"Куртка с потайной застежкой на молнии и контактной лентой. С двумя нагрудными и боковыми карманами, с усилением в области локтей. Рукава на манжетах с контактной лентой. На левом рукаве расположен накладной карман. Полукомбинезон с усилением в области колен, с нагрудными и навесными карманами. Ткани, из которых выполнена спецодежда, устойчивы к истиранию. Ткань: смесовая &#40;65&#37; полиэфир, 35&#37; хлопок&#41; Цвет: темно-серый .";s:4:"dpic";s:28:"/upload/iblock/9db/14063.jpg";s:11:"preview_pic";s:28:"/upload/iblock/939/14063.jpg";s:4:"bxid";s:6:"200583";s:5:"alias";s:0:"";s:7:"section";s:5:"11647";}i:85;a:14:{s:2:"id";s:2:"11";s:3:"act";s:1:"N";s:9:"prod_type";s:0:"";s:4:"name";s:77:"Куртка Континенталь жен. цв.сер/красн/черн";s:3:"art";s:9:"Кур023";s:6:"search";s:1493:"КУРТКА КОНТИНЕНТАЛЬ ЖЕН. ЦВ.СЕР/КРАСН/ЧЕРН

КУРТКА ЖЕНСКАЯ С ПРИТАЧНЫМ ПОЯСОМ. КУРТКА С ЦЕНТРАЛЬНОЙ БОРТОВОЙ ЗАСТЕЖКОЙ НА МОЛНИЮ. ПОЛОЧКИ, СПИНКА С ПРИТАЧНЫМИ КОКЕТКАМИ, ИЗ КОНТРАСТНОЙ ТКАНИ, ПОЛОЧКИ И СПИНКА С РЕЛЬЕФАМИ, ВЫХОДЯЩИМИ ИЗ ШВА ПРИТАЧИВАНИЯ КОКЕТОК. НА ШВЫ ПРИТАЧИВАНИЯ КОКЕТОК ПОЛОЧЕК, СПИНКИ НАСТРОЧЕНА СВ - ЛЕНТА. НА ПОЛОЧКАХ НАГРУДНЫЕ КАРМАНЫ И БОКОВЫЕ КАРМАНЫ В ШВАХ РЕЛЬЕФОВ, ПРОРЕЗНЫЕ БОКОВЫЕ КАРМАНЫ С МОЛНИЕЙ. НА ПРАВОЙ КАРМАН ДЛЯ БЕЙДЖА. РУКАВА ВТАЧНЫЕ, С ПРИТАЧНЫМИ МАНЖЕТАМИ, ЗАСТЕГИВАЮЩИМИСЯ НА КНОПКУ, ПО ШВАМ СТАЧИВАНИЯ ПЕРЕДНИХ И ЛОКТЕВЫХ ПОЛОВИНОК РУКАВОВ НАСТРОЧЕНА СВ - ЛЕНТА. НА ПОЛОЧКАХ НАСТРОЧЕНА СВ - ЛЕНТА В ОБЛАСТИ БОКОВЫХ КАРМАНОВ. НА ПОЯСЕ ВСТАВКИ С ЭЛАСТИЧНОЙ ТЕСЬМОЙ МАТЕРИАЛ: ТКАНЬ ИНДЕСТРАКТЕБЛ, ПЛ. 245 Г/КВ.М. СОСТАВ: 35% ХЛОПОК, 65% ПОЛИЭФИР ЦВЕТ: СЕРЫЙ, ОТДЕЛКА - КРАСНЫЙ, ЧЕРНЫЙ.";s:6:"parent";s:1:"2";s:4:"durl";s:83:"letnyaya_spetsodezhda/kostyumy_dlya_itr/kurtka_kontinental_zhen_tsv_ser_krasn_chern";s:4:"dtxt";s:1420:"Куртка женская с притачным поясом. Куртка с центральной бортовой застежкой на молнию. Полочки, спинка с притачными кокетками, из контрастной ткани, полочки и спинка с рельефами, выходящими из шва притачивания кокеток. На швы притачивания кокеток полочек, спинки настрочена СВ - лента. На полочках нагрудные карманы и боковые карманы в швах рельефов, прорезные боковые карманы с молнией. На правой карман для бейджа. Рукава втачные, с притачными манжетами, застегивающимися на кнопку, по швам стачивания передних и локтевых половинок рукавов настрочена СВ - лента. На полочках настрочена СВ - лента в области боковых карманов. На поясе вставки с эластичной тесьмой Материал: ткань Индестрактебл, пл. 245 г/кв.м. Состав: 35&#37; хлопок, 65&#37; полиэфир Цвет: серый, отделка - красный, черный.";s:4:"dpic";s:28:"/upload/iblock/0ea/14790.jpg";s:11:"preview_pic";s:28:"/upload/iblock/f67/14790.jpg";s:4:"bxid";s:6:"200776";s:5:"alias";s:0:"";s:7:"section";s:5:"11647";}i:86;a:14:{s:2:"id";s:2:"12";s:3:"act";s:1:"N";s:9:"prod_type";s:0:"";s:4:"name";s:37:"Куртка Континенталь";s:3:"art";s:9:"Кур024";s:6:"search";s:1849:"КУРТКА КОНТИНЕНТАЛЬ

КУРТКА С ПРИТАЧНЫМ ПОЯСОМ, С ЦЕНТРАЛЬНОЙ ПОТАЙНОЙ ЗАСТЕЖКОЙ НА МОЛНИЮ, ТЕКСТИЛЬНУЮ ЗАСТЕЖКУ И ДВЕ КНОПКИ. ВОРОТНИК ОТЛОЖНОЙ. РУКАВА ВТАЧНЫЕ, С МАНЖЕТАМИ, ЗАСТЕГИВАЮЩИЕСЯ НА КНОПКИ, ПО ШВАМ СТАЧИВАНИЯ ПОЛОВИНОК РУКАВОВ СВ - ЛЕНТА. ПОЛОЧКИ И СПИНКА С КОКЕТКАМИ, СВ - ЛЕНТА В ОБЛАСТИ ПРИТАЧИВАНИЯ КОКЕТОК. ПОЛОЧКИ И СПИНКА С РЕЛЬЕФАМИ, ВЫХОДЯЩИМИ ИЗ ШВА ПРИТАЧИВАНИЯ КОКЕТОК. НА ПРАВОЙ ПОЛОЧКЕ ПРОРЕЗНОЙ КАРМАН С МОЛНИЕЙ, НАКЛАДНОЙ ДЛЯ БЕЙДЖА. НА ЛЕВОЙ ПОЛОЧКЕ БОЛЬШОЙ НАКЛАДНОЙ КАРМАН С КЛАПАНОМ, ЗАСТЕГИВАЮЩИЙСЯ НА КНОПКИ, И МАЛЕНЬКИЙ НАКЛАДНОЙ КАРМАН. БОКОВЫЕ КАРМАНЫ В ШВАХ РЕЛЬЕФОВ, НА ЦЕНТРАЛЬНОЙ ЧАСТИ ПОЛОЧЕК ПО НИЗУ, ВЫШЕ ШВА ПРИТАЧИВАНИЯ ПОЯСА, НАСТРОЧЕНА СВ - ЛЕНТА. НА СПИНКЕ ПО НИЗУ, ВЫШЕ ШВА ПРИТАЧИВАНИЯ ПОЯСА, НАСТРОЧЕНА СВ - ЛЕНТА. ПРИТАЧНОЙ ПОЯС СО ВСТАВКАМИ С ЭЛАСТИЧНОЙ ЛЕНТОЙ В ОБЛАСТИ БОКОВЫХ ШВОВ, ДЛЯ РЕГУЛИРОВАНИЯ ОБЪЕМА. МАТЕРИАЛ: ТКАНЬ ИНДЕСТРАКТЕБЛ, ПЛОТНОСТЬ 245 Г/КВ.М. СОСТАВ: 35% ХЛОПОК, 65% ПОЛИЭФИР ЦВЕТ: СЕРЫЙ, ОТДЕЛКА - КРАСНЫЙ, ЧЕРНЫЙ. РАЗМЕР: С 44-46 ПО 60-62 РОСТ: 170-176, 182-188";s:6:"parent";s:1:"2";s:4:"durl";s:58:"letnyaya_spetsodezhda/kostyumy_dlya_itr/kurtka_kontinental";s:4:"dtxt";s:1816:"Куртка с притачным поясом, с центральной потайной застежкой на молнию, текстильную застежку и две кнопки. Воротник отложной. Рукава втачные, с манжетами, застегивающиеся на кнопки, по швам стачивания половинок рукавов СВ - лента. Полочки и спинка с кокетками, СВ - лента в области притачивания кокеток. Полочки и спинка с рельефами, выходящими из шва притачивания кокеток. На правой полочке прорезной карман с молнией, накладной для бейджа. На левой полочке большой накладной карман с клапаном, застегивающийся на кнопки, и маленький накладной карман. Боковые карманы в швах рельефов, на центральной части полочек по низу, выше шва притачивания пояса, настрочена СВ - лента. На спинке по низу, выше шва притачивания пояса, настрочена СВ - лента. Притачной пояс со вставками с эластичной лентой в области боковых швов, для регулирования объема. Материал: ткань Индестрактебл, плотность 245 г/кв.м. Состав: 35&#37; хлопок, 65&#37; полиэфир Цвет: серый, отделка - красный, черный. Размер: с 44-46 по 60-62 Рост: 170-176, 182-188";s:4:"dpic";s:28:"/upload/iblock/37b/14791.jpg";s:11:"preview_pic";s:28:"/upload/iblock/79c/14791.jpg";s:4:"bxid";s:6:"200777";s:5:"alias";s:0:"";s:7:"section";s:5:"11647";}i:87;a:14:{s:2:"id";s:2:"13";s:3:"act";s:1:"N";s:9:"prod_type";s:0:"";s:4:"name";s:53:"Куртка Турбо серый тк. Томбой";s:3:"art";s:9:"Кур673";s:6:"search";s:1015:"КУРТКА ТУРБО СЕРЫЙ ТК. ТОМБОЙ
КУРТКА НА ПОЯСЕ И КОКЕТКЕ, С ЗАСТЕЖКОЙ НА МОЛНИЮ, ВНЕШНЕЙ ПЛАНКОЙ, ВТАЧНЫМ РУКАВОМ НА МАНЖЕТЕ. НАКЛАДНЫЕ КАРМАНЫ - С РАЗДЕЛЕНИЕМ НА СЕКЦИИ &lt;ПОД ИНСТРУМЕНТЫ&gt; И &lt;МОБИЛЬНЫЙ&gt; ТЕЛЕФОН. ШИРИНА КУРТКИ ВНИЗУ РЕГУЛИРУЕТСЯ С ПОМОЩЬЮ ПАТ ПО ПОЯСУ. СПИНКА - С ФИГУРНЫМИ СКЛАДКАМИ. В ОБЛАСТИ ПРОЙМЫ РАСПОЛОЖЕНЫ ВЕНТИЛЯЦИОННЫЕ ОТВЕРСТИЯ. В КАЧЕСТВЕ ОТДЕЛКИ ИСПОЛЬЗУЮТСЯ КАНТ, КОНТРАСТНЫЕ СТРОЧКИ И ЗАКРЕПКИ ЛИМОННОГО ЦВЕТА. ЦВЕТ: СЕРЫЙ ТКАНЬ ВЕРХА: ТОМБОЙ, CARRINGTON, СОСТАВ: 67 %ПОЛИЭФИР, 33 % ХЛОПОК ПЛ. - 245 Г/М2 РАЗМЕР: С 44-46 ПО 60-62 РОСТ:170-176, 182-188";s:6:"parent";s:1:"2";s:4:"durl";s:68:"letnyaya_spetsodezhda/kostyumy_dlya_itr/kurtka_turbo_seryy_tk_tomboy";s:4:"dtxt";s:968:"Куртка на поясе и кокетке, с застежкой на молнию, внешней планкой, втачным рукавом на манжете. Накладные карманы - с разделением на секции &lt;под инструменты&gt; и &lt;мобильный&gt; телефон. Ширина куртки внизу регулируется с помощью пат по поясу. Спинка - с фигурными складками. В области проймы расположены вентиляционные отверстия. В качестве отделки используются кант, контрастные строчки и закрепки лимонного цвета. Цвет: серый Ткань верха: Томбой, Carrington, состав: 67 &#37;полиэфир, 33 &#37; хлопок пл. - 245 г/м2 Размер: с 44-46 по 60-62 Рост:170-176, 182-188";s:4:"dpic";s:28:"/upload/iblock/502/10719.jpg";s:11:"preview_pic";s:28:"/upload/iblock/082/10719.jpg";s:4:"bxid";s:6:"200797";s:5:"alias";s:0:"";s:7:"section";s:5:"11647";}}}}s:8:"end_time";i:1561706364;}