a:2:{s:4:"data";a:8:{s:2:"id";s:2:"65";s:5:"title";s:0:"";s:4:"prop";s:0:"";s:4:"name";s:9:"rukavitsy";s:5:"alias";s:16:"рукавицы";s:6:"parent";s:2:"36";s:7:"parents";a:1:{i:0;a:6:{s:2:"id";s:2:"36";s:5:"title";s:0:"";s:4:"prop";s:0:"";s:4:"name";s:22:"sredstva-zashchity-ruk";s:5:"alias";s:36:"средства защиты рук";s:6:"parent";s:1:"0";}}s:8:"children";a:2:{s:10:"categories";a:0:{}s:8:"products";a:30:{i:0;a:14:{s:2:"id";s:4:"1538";s:3:"act";s:1:"Y";s:9:"prod_type";s:0:"";s:4:"name";s:39:"Рукавицы брезентовые";s:3:"art";s:9:"Рук109";s:6:"search";s:511:"РУКАВИЦЫ БРЕЗЕНТОВЫЕ
БРЕЗЕНТ-420Г/КВМ, НИТЬ АРМИРОВАННАЯ. ИЗГОТОВЛЕНЫ ИЗ БРЕЗЕНТА С ОГНЕУПОРНОЙ ПРОПИТКОЙ. ДВОЙНАЯ СТРОЧКА. ПРЕДНАЗНАЧЕНЫ ДЛЯ ЗАЩИТЫ РУК ОТ ИСКР, БРЫЗГ МЕТАЛЛА И ОТ МЕХАНИЧЕСКИХ ВОЗДЕЙСТВИЙ. ПРИМЕНЯЮТСЯ В МЕТАЛЛУРГИЧЕСКОЙ, ДЕРЕВООБРАБАТЫВАЮЩЕЙ ПРОМЫШЛЕННОСТИ. .";s:6:"parent";s:2:"65";s:4:"durl";s:54:"sredstva-zashchity-ruk/rukavitsy/rukavitsy-brezentovye";s:4:"dtxt";s:470:"Брезент-420г/квм, нить армированная. Изготовлены из брезента с огнеупорной пропиткой. Двойная строчка. Предназначены для защиты рук от искр, брызг металла и от механических воздействий. Применяются в металлургической, деревообрабатывающей промышленности. .";s:4:"dpic";s:27:"/upload/iblock/7a1/2564.jpg";s:11:"preview_pic";s:27:"/upload/iblock/6d3/2564.jpg";s:4:"bxid";s:6:"201296";s:5:"alias";s:0:"";s:7:"section";s:5:"11718";}i:1;a:14:{s:2:"id";s:4:"1539";s:3:"act";s:1:"N";s:9:"prod_type";s:0:"";s:4:"name";s:63:"Рукавицы брезентовые 2нал. пл.480г/м2";s:3:"art";s:9:"Рук101";s:6:"search";s:474:"РУКАВИЦЫ БРЕЗЕНТОВЫЕ 2НАЛ. ПЛ.480Г/М2
РУКАВИЦЫ БРЕЗЕНТОВЫЕ ОП C ДВОЙНЫМ НАЛАДОННИКОМ – БЛАГОДАРЯ ДВОЙНОМУ НАЛАДОННИКУ ДАННЫЕ РУКАВИЦЫ ЗАЩИЩАЮТ ЛАДОННУЮ ЧАСТЬ РУКИ ОТ ВЫСОКИХ ТЕМПЕРАТУР И ИСТИРАЮЩИХ ВОЗДЕЙСТВИЙ. ИСПОЛЬЗУЮТСЯ В СВАРОЧНЫХ И СЛЕСАРНЫХ РАБОТАХ. .";s:6:"parent";s:2:"65";s:4:"durl";s:70:"sredstva-zashchity-ruk/rukavitsy/rukavitsy-brezentovye-2nal-pl-480g-m2";s:4:"dtxt";s:409:"Рукавицы брезентовые ОП c двойным наладонником – благодаря двойному наладоннику данные рукавицы защищают ладонную часть руки от высоких температур и истирающих воздействий. Используются в сварочных и слесарных работах. .";s:4:"dpic";s:28:"/upload/iblock/574/10818.jpg";s:11:"preview_pic";s:28:"/upload/iblock/376/10818.jpg";s:4:"bxid";s:6:"201297";s:5:"alias";s:0:"";s:7:"section";s:5:"11718";}i:2;a:14:{s:2:"id";s:4:"1540";s:3:"act";s:1:"N";s:9:"prod_type";s:0:"";s:4:"name";s:82:"Рукавицы брезентовые с двойным наладонником";s:3:"art";s:9:"Рук104";s:6:"search";s:451:"РУКАВИЦЫ БРЕЗЕНТОВЫЕ С ДВОЙНЫМ НАЛАДОННИКОМ
.РУКАВИЦЫ ДВОЙНОЙ БРЕЗЕНТ МАТЕРИАЛ- БРЕЗЕНТ-420Г/КВМ., С ОП ПРОПИТКОЙ, ДВОЙНОЙ БРЕЗЕНТОВЫЙ НАЛАДОННИК. ДВОЙНАЯ СТРОЧКА. ПРЕДНАЗНАЧЕНЫ ДЛЯ ЗАЩИТЫ РУК ОТ ИСКР, БРЫЗГ МЕТАЛЛА И ОТ МЕХАНИЧЕСКИХ ВОЗДЕЙСТВИЙ .";s:6:"parent";s:2:"65";s:4:"durl";s:77:"sredstva-zashchity-ruk/rukavitsy/rukavitsy-brezentovye-s-dvoynym-naladonnikom";s:4:"dtxt";s:367:".Рукавицы двойной брезент Материал- брезент-420г/квм., с ОП пропиткой, двойной брезентовый наладонник. Двойная строчка. Предназначены для защиты рук от искр, брызг металла и от механических воздействий .";s:4:"dpic";s:27:"/upload/iblock/e3b/2563.jpg";s:11:"preview_pic";s:27:"/upload/iblock/ab0/2563.jpg";s:4:"bxid";s:6:"201298";s:5:"alias";s:0:"";s:7:"section";s:5:"11718";}i:3;a:14:{s:2:"id";s:4:"1541";s:3:"act";s:1:"N";s:9:"prod_type";s:0:"";s:4:"name";s:73:"Рукавицы брезентовые спилковый наладон";s:3:"art";s:9:"Рук102";s:6:"search";s:489:"РУКАВИЦЫ БРЕЗЕНТОВЫЕ СПИЛКОВЫЙ НАЛАДОН
.РУКАВИЦЫ БРЕЗЕНТОВЫЕ СО СПИЛКОВЫМ НАЛАДОННИКОМ ИЗГОТОВЛЕНЫ ИЗ БРЕЗЕНТА С ОГНЕУПОРНОЙ ПРОПИТКОЙ СО СПИЛКОВЫМ НАЛАДОННИКОМ, ДВОЙНАЯ СТРОЧКА. ПРЕДНАЗНАЧЕНЫ ДЛЯ ЗАЩИТЫ РУК ОТ ИСКР, БРЫЗГ МЕТАЛЛА И ОТ МЕХАНИЧЕСКИХ ВОЗДЕЙСТВИЙ. .";s:6:"parent";s:2:"65";s:4:"durl";s:72:"sredstva-zashchity-ruk/rukavitsy/rukavitsy-brezentovye-spilkovyy-naladon";s:4:"dtxt";s:414:".Рукавицы брезентовые со спилковым наладонником Изготовлены из брезента с огнеупорной пропиткой со спилковым наладонником, двойная строчка. Предназначены для защиты рук от искр, брызг металла и от механических воздействий. .";s:4:"dpic";s:27:"/upload/iblock/136/2539.jpg";s:11:"preview_pic";s:27:"/upload/iblock/48d/2539.jpg";s:4:"bxid";s:6:"201299";s:5:"alias";s:0:"";s:7:"section";s:5:"11718";}i:4;a:14:{s:2:"id";s:4:"1542";s:3:"act";s:1:"Y";s:9:"prod_type";s:0:"";s:4:"name";s:65:"Рукавицы двунитка с бр.нал., миткаль";s:3:"art";s:9:"Рук106";s:6:"search";s:565:"РУКАВИЦЫ ДВУНИТКА С БР.НАЛ., МИТКАЛЬ
. РУКАВИЦЫ ДВУНИТКА С БРЕЗЕНТОВЫМ НАЛАДОННИКОМ, МИТКАЛЬ РУКАВИЦЫ Х/Б ИЗ СУРОВОЙ ДВУНИТКИ 240Г/М2 C НАЛАДОННИКОМ ИЗ БРЕЗЕНТА ПЛОТНОСТЬЮ 420Г/М2 С ОГНЕУПОРНОЙ ПРОПИТКОЙ. БЯЗЕВЫЙ ПОДЛАДОННИК. ДВОЙНАЯ СТРОЧКА. ИСПОЛЬЗУЮТСЯ ДЛЯ ЗАЩИТЫ РУК ОТ МЕХАНИЧЕСКИХ ВОЗДЕЙСТВИЙ И ИСТИРАНИЯ. .";s:6:"parent";s:2:"65";s:4:"durl";s:67:"sredstva-zashchity-ruk/rukavitsy/rukavitsy-dvunitka-s-br-nal-mitkal";s:4:"dtxt";s:498:". Рукавицы двунитка с брезентовым наладонником, миткаль Рукавицы х/б из суровой двунитки 240г/м2 c наладонником из брезента плотностью 420г/м2 с огнеупорной пропиткой. Бязевый подладонник. Двойная строчка. Используются для защиты рук от механических воздействий и истирания. .";s:4:"dpic";s:27:"/upload/iblock/cda/2541.jpg";s:11:"preview_pic";s:27:"/upload/iblock/df2/2541.jpg";s:4:"bxid";s:6:"201300";s:5:"alias";s:0:"";s:7:"section";s:5:"11718";}i:5;a:14:{s:2:"id";s:4:"1543";s:3:"act";s:1:"N";s:9:"prod_type";s:0:"";s:4:"name";s:75:"Рукавицы двунитка суровая с 2-м налад. (уп)";s:3:"art";s:9:"Рук107";s:6:"search";s:367:"РУКАВИЦЫ ДВУНИТКА СУРОВАЯ С 2-М НАЛАД. (УП)
.МАТЕРИАЛ: - ДВУНИТКА ОСОБЕННОСТИ: - ОБРАБОТКА ВСЕХ ШВОВ ОВЕРЛОКОМ - ПРОЧНЫЕ АРМИРОВАННЫЕ НИТКИ - ДВУНИТКА ПЛОТНОСТЬ 230 Г/М.КВ. - ТКАНЬ ПОД НАЛАДОННИКОМ ДВУНИТКА .";s:6:"parent";s:2:"65";s:4:"durl";s:75:"sredstva-zashchity-ruk/rukavitsy/rukavitsy-dvunitka-surovaya-s-2-m-nalad-up";s:4:"dtxt";s:290:".Материал: - двунитка Особенности: - обработка всех швов оверлоком - прочные армированные нитки - двунитка плотность 230 г/м.кв. - ткань под наладонником двунитка .";s:4:"dpic";s:28:"/upload/iblock/e10/10886.jpg";s:11:"preview_pic";s:28:"/upload/iblock/ef7/10886.jpg";s:4:"bxid";s:6:"201301";s:5:"alias";s:0:"";s:7:"section";s:5:"11718";}i:6;a:14:{s:2:"id";s:4:"1544";s:3:"act";s:1:"N";s:9:"prod_type";s:0:"";s:4:"name";s:21:"Рукавицы КР";s:3:"art";s:9:"Рук108";s:6:"search";s:386:"РУКАВИЦЫ КР
МАТЕРИАЛ-100% ХЛОПОК С НАЧЁСОМ, ПОКРЫТИЕ -НАТУРАЛЬНЫЙ ЛАТЕКС. ПРЕДНАЗНАЧЕНЫ ДЛЯ ЗАЩИТЫ РУК ОТ ВОДЫ, РАСТВОРОВ КИСЛОТ(ДО 50%) И ЩЕЛОЧЕЙ (ДО 50%), РАСТВОРОВ СОЛЕЙ, СПИРТОВ, КЕТОНОВ, МЕХАНИЧЕСКИХ ВОЗДЕЙСТВИЙ. .";s:6:"parent";s:2:"65";s:4:"durl";s:45:"sredstva-zashchity-ruk/rukavitsy/rukavitsy-kr";s:4:"dtxt";s:391:"Материал-100&#37; хлопок с начёсом, покрытие -натуральный латекс. Предназначены для защиты рук от воды, растворов кислот&#40;до 50&#37;&#41; и щелочей &#40;до 50&#37;&#41;, растворов солей, спиртов, кетонов, механических воздействий. .";s:4:"dpic";s:27:"/upload/iblock/c8e/2546.jpg";s:11:"preview_pic";s:27:"/upload/iblock/433/2546.jpg";s:4:"bxid";s:6:"201302";s:5:"alias";s:0:"";s:7:"section";s:5:"11718";}i:7;a:14:{s:2:"id";s:4:"1545";s:3:"act";s:1:"N";s:9:"prod_type";s:0:"";s:4:"name";s:50:"Рукавицы нагольные меховые";s:3:"art";s:9:"Рук202";s:6:"search";s:339:"РУКАВИЦЫ НАГОЛЬНЫЕ МЕХОВЫЕ

.РУКАВИЦЫ НАГОЛЬНЫЕ МЕХОВЫЕ МАТЕРИАЛ: СПИЛОК НАТУРАЛЬНЫЙ ГЛАДКИЙ, УТЕПЛИТЕЛЬ- МЕХ НАТУРАЛЬНАЯ ОВЧИНА. КОМФОРТНЫ ПРИ РАБОТАХ В УСЛОВИЯХ НИЗКИХ ТЕМПЕРАТУР. .";s:6:"parent";s:2:"65";s:4:"durl";s:60:"sredstva-zashchity-ruk/rukavitsy/rukavitsy-nagolnye-mekhovye";s:4:"dtxt";s:285:".Рукавицы нагольные меховые Материал: спилок натуральный гладкий, утеплитель- мех натуральная овчина. Комфортны при работах в условиях низких температур. .";s:4:"dpic";s:31:"/upload/iblock/c60/img_2992.jpg";s:11:"preview_pic";s:31:"/upload/iblock/8a0/img_2992.jpg";s:4:"bxid";s:6:"201303";s:5:"alias";s:0:"";s:7:"section";s:5:"11718";}i:8;a:14:{s:2:"id";s:4:"1546";s:3:"act";s:1:"N";s:9:"prod_type";s:0:"";s:4:"name";s:77:"Рукавицы натуральный мех (верх-тк.Оксфорд)";s:3:"art";s:9:"Рук204";s:6:"search";s:543:"РУКАВИЦЫ НАТУРАЛЬНЫЙ МЕХ (ВЕРХ-ТК.ОКСФОРД)
.РУКАВИЦЫ НАТУРАЛЬНЫЙ МЕХ (ВЕРХ ТК ОКСФОРД) РУКАВИЦЫ ДЛЯ ВСЕХ ВИДОВ МЕХАНИЧЕСКИХ РАБОТ В ЗИМНИХ УСЛОВИЯХ. ВЛАГОСТОЙКИЕ, НАТУРАЛЬНЫЙ МЕХ ИДЕАЛЬНО ЗАЩИЩАЕТ РУКИ ОТ ПОНИЖЕННЫХ ТЕМПЕРАТУР. МАНЖЕТ ЗАВОРАЧИВАЕТСЯ, ЧТО УЛУЧШАЕТ КОМФОРТНОСТЬ В ИСПОЛЬЗОВАНИИ. .";s:6:"parent";s:2:"65";s:4:"durl";s:75:"sredstva-zashchity-ruk/rukavitsy/rukavitsy-naturalnyy-mekh-verkh-tk-oksford";s:4:"dtxt";s:472:".Рукавицы натуральный мех &#40;верх тк Оксфорд&#41; Рукавицы для всех видов механических работ в зимних условиях. Влагостойкие, натуральный мех идеально защищает руки от пониженных температур. Манжет заворачивается, что улучшает комфортность в использовании. .";s:4:"dpic";s:27:"/upload/iblock/b77/9277.jpg";s:11:"preview_pic";s:27:"/upload/iblock/080/9277.jpg";s:4:"bxid";s:6:"201304";s:5:"alias";s:0:"";s:7:"section";s:5:"11718";}i:9;a:14:{s:2:"id";s:4:"1547";s:3:"act";s:1:"N";s:9:"prod_type";s:0:"";s:4:"name";s:79:"Рукавицы натуральный мех (верх.тк.Смесовка)";s:3:"art";s:9:"Рук205";s:6:"search";s:484:"РУКАВИЦЫ НАТУРАЛЬНЫЙ МЕХ (ВЕРХ.ТК.СМЕСОВКА)

РУКАВИЦЫ НАТУРАЛЬНЫЙ МЕХ (ВЕРХ ТК.СМЕСОВАЯ) РУКАВИЦЫ ДЛЯ ВСЕХ ВИДОВ МЕХАНИЧЕСКИХ РАБОТ В ЗИМНИХ УСЛОВИЯХ. ИЗГОТОВЛЕНЫ ИЗ СМЕСОВОЙ ТКАНИ, УТЕПЛИТЕЛЬ - НАТУРАЛЬНЫЙ МЕХ, НИЖНИЙ КРАЙ ОБРАБОТАН ПОДГИБ, ПРОШИТЫ ДВОЙНЫМ ШВОМ. .";s:6:"parent";s:2:"65";s:4:"durl";s:76:"sredstva-zashchity-ruk/rukavitsy/rukavitsy-naturalnyy-mekh-verkh-tk-smesovka";s:4:"dtxt";s:409:"Рукавицы натуральный мех &#40;верх тк.Смесовая&#41; Рукавицы для всех видов механических работ в зимних условиях. Изготовлены из смесовой ткани, утеплитель - натуральный мех, нижний край обработан подгиб, прошиты двойным швом. .";s:4:"dpic";s:27:"/upload/iblock/8e2/9103.jpg";s:11:"preview_pic";s:27:"/upload/iblock/fa2/9103.jpg";s:4:"bxid";s:6:"201305";s:5:"alias";s:0:"";s:7:"section";s:5:"11718";}i:10;a:14:{s:2:"id";s:4:"1548";s:3:"act";s:1:"Y";s:9:"prod_type";s:0:"";s:4:"name";s:41:"Рукавицы с ПВХ наладон";s:3:"art";s:9:"Рук111";s:6:"search";s:332:"РУКАВИЦЫ С ПВХ НАЛАДОН
.РУКАВИЦЫ С ПВХ НАЛАДОННИКОМ МАТЕРИАЛ - ДВУНИТКА, НАЛАДОННИК ПВХ, ЧТО УЛУЧШАЕТ СЦЕПНЫЕ СВОЙСТВА, ГИППОАЛЛЕРГЕННЫ, ЗАЩИЩАЮТ РУКИ ОТ МЕХАНИЧЕСКИХ ВОЗДЕЙСТВИЙ. .";s:6:"parent";s:2:"65";s:4:"durl";s:57:"sredstva-zashchity-ruk/rukavitsy/rukavitsy-s-pvkh-naladon";s:4:"dtxt";s:289:".Рукавицы с ПВХ наладонником Материал - двунитка, наладонник ПВХ, что улучшает сцепные свойства, гиппоаллергенны, защищают руки от механических воздействий. .";s:4:"dpic";s:27:"/upload/iblock/075/2551.jpg";s:11:"preview_pic";s:27:"/upload/iblock/6ca/2551.jpg";s:4:"bxid";s:6:"201306";s:5:"alias";s:0:"";s:7:"section";s:5:"11718";}i:11;a:14:{s:2:"id";s:4:"1549";s:3:"act";s:1:"Y";s:9:"prod_type";s:0:"";s:4:"name";s:74:"Рукавицы смесовые с брезентовым наладон";s:3:"art";s:9:"Рук113";s:6:"search";s:511:"РУКАВИЦЫ СМЕСОВЫЕ С БРЕЗЕНТОВЫМ НАЛАДОН
.РУКАВИЦЫ СМЕСОВЫЕ С БРЕЗЕНТОВЫМ НАЛАДОННИКОМ ЗАЩИЩАЮТ РУКИ ОТ МЕХАНИЧЕСКИХ ВОЗДЕЙСТВИЙ. ИЗГОТОВЛЕНЫ ИЗ СМЕСОВОЙ ТКАНИ , ЛАДОННАЯ ЧАСТЬ УСИЛЕНА БРЕЗЕНТОМ. ДВОЙНОЙ ШОВ, ОВЕРЛОК. ПРИМЕНЕНИЕ В ЛЕСНОЙ ДЕРЕВООБРАБАТЫВАЮШЕЙ ПРОМЫШЛЕННОСТИ. .";s:6:"parent";s:2:"65";s:4:"durl";s:73:"sredstva-zashchity-ruk/rukavitsy/rukavitsy-smesovye-s-brezentovym-naladon";s:4:"dtxt";s:435:".Рукавицы смесовые с брезентовым наладонником Защищают руки от механических воздействий. Изготовлены из смесовой ткани , ладонная часть усилена брезентом. Двойной шов, оверлок. Применение в лесной деревообрабатываюшей промышленности. .";s:4:"dpic";s:27:"/upload/iblock/9fe/2553.jpg";s:11:"preview_pic";s:27:"/upload/iblock/104/2553.jpg";s:4:"bxid";s:6:"201307";s:5:"alias";s:0:"";s:7:"section";s:5:"11718";}i:12;a:14:{s:2:"id";s:4:"1550";s:3:"act";s:1:"N";s:9:"prod_type";s:0:"";s:4:"name";s:66:"Рукавицы смесовые с двойным наладон";s:3:"art";s:9:"Рук114";s:6:"search";s:521:"РУКАВИЦЫ СМЕСОВЫЕ С ДВОЙНЫМ НАЛАДОН

.РУКАВИЦЫ СМЕСОВЫЕ С ДВОЙНЫМ НАЛАДОННИКОМ ИЗГОТОВЛЕНЫ ИЗ МЕЖЛЕКАЛЬНЫХ ВЫПАДОВ ПЛОТНЫХ СМЕСОВЫХ ТКАНЕЙ, ИСПОЛЬЗУЕМЫХ ПРИ ПОШИВЕ СПЕЦОДЕЖДЫ. ДВОЙНОЙ НАЛАДОННИК. ДВОЙНАЯ СТРОЧКА. ПРЕДНАЗНАЧЕНЫ ДЛЯ ЗАЩИТЫ ОТ ИСТИРАНИЯ И МЕХАНИЧЕСКИХ ВОЗДЕЙСТВИЙ. .";s:6:"parent";s:2:"65";s:4:"durl";s:69:"sredstva-zashchity-ruk/rukavitsy/rukavitsy-smesovye-s-dvoynym-naladon";s:4:"dtxt";s:451:".Рукавицы смесовые с двойным наладонником Изготовлены из межлекальных выпадов плотных смесовых тканей, используемых при пошиве спецодежды. Двойной наладонник. Двойная строчка. Предназначены для защиты от истирания и механических воздействий. .";s:4:"dpic";s:27:"/upload/iblock/a7b/2545.jpg";s:11:"preview_pic";s:27:"/upload/iblock/288/2545.jpg";s:4:"bxid";s:6:"201308";s:5:"alias";s:0:"";s:7:"section";s:5:"11718";}i:13;a:14:{s:2:"id";s:4:"1551";s:3:"act";s:1:"N";s:9:"prod_type";s:0:"";s:4:"name";s:67:"Рукавицы смесовые спилковый наладон";s:3:"art";s:9:"Рук117";s:6:"search";s:499:"РУКАВИЦЫ СМЕСОВЫЕ СПИЛКОВЫЙ НАЛАДОН
. РУКАВИЦЫ СМЕСОВЫЕ СО СПИЛКОВЫМ НАЛАДОННИКОМ ЗАЩИЩАЮТ РУКИ ОТ МЕХАНИЧЕСКИХ ВОЗДЕЙСТВИЙ. ИЗГОТОВЛЕНЫ ИЗ СМЕСОВОЙ ТКАНИ , ЛАДОННАЯ ЧАСТЬ УСИЛЕНА СПИЛКОМ. ДВОЙНОЙ ШОВ, ОВЕРЛОК. ПРИМЕНЕНИЕ В ЛЕСНОЙ ДЕРЕВООБРАБАТЫВАЮШЕЙ ПРОМЫШЛЕННОСТИ. .";s:6:"parent";s:2:"65";s:4:"durl";s:69:"sredstva-zashchity-ruk/rukavitsy/rukavitsy-smesovye-spilkovyy-naladon";s:4:"dtxt";s:430:". Рукавицы смесовые со спилковым наладонником Защищают руки от механических воздействий. Изготовлены из смесовой ткани , ладонная часть усилена спилком. Двойной шов, оверлок. Применение в лесной деревообрабатываюшей промышленности. .";s:4:"dpic";s:27:"/upload/iblock/9a9/7112.jpg";s:11:"preview_pic";s:27:"/upload/iblock/2f0/7112.jpg";s:4:"bxid";s:6:"201309";s:5:"alias";s:0:"";s:7:"section";s:5:"11718";}i:14;a:14:{s:2:"id";s:4:"1552";s:3:"act";s:1:"N";s:9:"prod_type";s:0:"";s:4:"name";s:35:"Рукавицы спилковые";s:3:"art";s:9:"Рук119";s:6:"search";s:37:"РУКАВИЦЫ СПИЛКОВЫЕ
";s:6:"parent";s:2:"65";s:4:"durl";s:52:"sredstva-zashchity-ruk/rukavitsy/rukavitsy-spilkovye";s:4:"dtxt";s:0:"";s:4:"dpic";s:27:"/upload/iblock/1d8/2531.jpg";s:11:"preview_pic";s:27:"/upload/iblock/93e/2531.jpg";s:4:"bxid";s:6:"201310";s:5:"alias";s:0:"";s:7:"section";s:5:"11718";}i:15;a:14:{s:2:"id";s:4:"1553";s:3:"act";s:1:"N";s:9:"prod_type";s:0:"";s:4:"name";s:70:"Рукавицы спилковые серые Экстра-2 27 см.";s:3:"art";s:9:"Рук118";s:6:"search";s:600:"РУКАВИЦЫ СПИЛКОВЫЕ СЕРЫЕ ЭКСТРА-2 27 СМ.
.РУКАВИЦЫ СПИЛКОВЫЕ СЕРЫЕ ЭКСТРА-2 27СМ РУКАВИЦЫ ИЗГОТОВЛЕНЫ ИЗ СПИЛКА КОЖЕВЕННОГО, ШВЫ ПРОШИТЫ ДВУМЯ СТРОЧКАМИ, НИТЬ АРМИРОВАННАЯ. ПРЕДНАЗНАЧЕНЫ ДЛЯ ЗАЩИТЫ РУК ОТ ПОВЫШЕННЫХ ТЕМПЕРАТУР, ОТ МЕХАНИЧЕСКИХ ВОЗДЕЙСТВИЙ. ПРИМЕНЯЮТСЯ В МЕТАЛЛУРГИЧЕСКОЙ, ДЕРЕВООБРАБАТЫВАЮЩЕЙ ПРОМЫШЛЕННОСТИ. .";s:6:"parent";s:2:"65";s:4:"durl";s:73:"sredstva-zashchity-ruk/rukavitsy/rukavitsy-spilkovye-serye-ekstra-2-27-sm";s:4:"dtxt";s:528:".Рукавицы спилковые серые Экстра-2 27см Рукавицы изготовлены из спилка кожевенного, швы прошиты двумя строчками, нить армированная. Предназначены для защиты рук от повышенных температур, от механических воздействий. Применяются в металлургической, деревообрабатывающей промышленности. .";s:4:"dpic";s:27:"/upload/iblock/254/2532.jpg";s:11:"preview_pic";s:27:"/upload/iblock/92f/2532.jpg";s:4:"bxid";s:6:"201311";s:5:"alias";s:0:"";s:7:"section";s:5:"11718";}i:16;a:14:{s:2:"id";s:4:"1554";s:3:"act";s:1:"N";s:9:"prod_type";s:0:"";s:4:"name";s:84:"Рукавицы суконные с брезентовым наладонником";s:3:"art";s:9:"Рук206";s:6:"search";s:166:"РУКАВИЦЫ СУКОННЫЕ С БРЕЗЕНТОВЫМ НАЛАДОННИКОМ
.РУКАВИЦЫ СУКОННЫЕ С ДВОЙНЫМ НАЛАДОННИКОМ. .";s:6:"parent";s:2:"65";s:4:"durl";s:78:"sredstva-zashchity-ruk/rukavitsy/rukavitsy-sukonnye-s-brezentovym-naladonnikom";s:4:"dtxt";s:80:".Рукавицы суконные с двойным наладонником. .";s:4:"dpic";s:27:"/upload/iblock/ecf/9480.jpg";s:11:"preview_pic";s:27:"/upload/iblock/ba4/9480.jpg";s:4:"bxid";s:6:"201312";s:5:"alias";s:0:"";s:7:"section";s:5:"11718";}i:17;a:14:{s:2:"id";s:4:"1555";s:3:"act";s:1:"N";s:9:"prod_type";s:0:"";s:4:"name";s:83:"Рукавицы суконные с двойным наладонником (уп)";s:3:"art";s:9:"Рук207";s:6:"search";s:847:"РУКАВИЦЫ СУКОННЫЕ С ДВОЙНЫМ НАЛАДОННИКОМ (УП)
.РУКАВИЦЫ ИЗ СУКНА С ДВОЙНЫМ НАЛАДОННИКОМ, ПЛОТНОСТЬЮ 760 Г/М2 ПРЕДНАЗНАЧЕНЫ ДЛЯ ВЫПОЛНЕНИЯ СЛЕСАРНЫХ, МОНТАЖНЫХ, РЕМОНТНЫХ, СТРОИТЕЛЬНЫХ ИЛИ ПОГРУЗОЧНО-РАЗГРУЗОЧНЫХ РАБОТ НА ОТКРЫТОМ ВОЗДУХЕ В ВЕСЕННЕЕ И ОСЕННЕЕ ВРЕМЯ, ЛИБО В ПРОИЗВОДСТВЕННЫХ ПОМЕЩЕНИЯХ. ХОРОШО ЗАЩИЩАЮТ ОТ ВЫСОКИХ ТЕМПЕРАТУР, НАГРЕТЫХ ПОВЕРХНОСТЕЙ И ИСКР И БРЫЗГ РАСПЛАВЛЕННОГО МЕТАЛЛА. ОБЛАДАЮТ ХОРОШИМИ ЭКСПЛУАТАЦИОННЫМИ ДАННЫМИ. ГОСТ 12.4.010-75 . .";s:6:"parent";s:2:"65";s:4:"durl";s:77:"sredstva-zashchity-ruk/rukavitsy/rukavitsy-sukonnye-s-dvoynym-naladonnikom-up";s:4:"dtxt";s:762:".Рукавицы из сукна с двойным наладонником, плотностью 760 г/м2 предназначены для выполнения слесарных, монтажных, ремонтных, строительных или погрузочно-разгрузочных работ на открытом воздухе в весеннее и осеннее время, либо в производственных помещениях. Хорошо защищают от высоких температур, нагретых поверхностей и искр и брызг расплавленного металла. Обладают хорошими эксплуатационными данными. ГОСТ 12.4.010-75 . .";s:4:"dpic";s:28:"/upload/iblock/fb2/12368.jpg";s:11:"preview_pic";s:28:"/upload/iblock/e5a/12368.jpg";s:4:"bxid";s:6:"201313";s:5:"alias";s:0:"";s:7:"section";s:5:"11718";}i:18;a:14:{s:2:"id";s:4:"1556";s:3:"act";s:1:"Y";s:9:"prod_type";s:0:"";s:4:"name";s:71:"Рукавицы суконные с огнеуп.пропит ЛЮКС";s:3:"art";s:9:"Рук208";s:6:"search";s:541:"РУКАВИЦЫ СУКОННЫЕ С ОГНЕУП.ПРОПИТ ЛЮКС

.РУКАВИЦЫ СУКОННЫЕ С ОГНЕУПОРНОЙ ПРОПИТКОЙ ЛЮКС ИЗГОТОВЛЕНЫ ИЗ ПЛОТНОГО ШИНЕЛЬНОГО СУКНА. ОБЕСПЕЧИВАЮТ ЗАЩИТУ ОТ ИСКР И БРЫЗГ РАСПЛАВЛЕННОГО МЕТАЛЛА. ПОДХОДЯТ ДЛЯ РАБОТЫ В ГОРЯЧИХ ЦЕХАХ. ТАК ЖЕ МОГУТ ИСПОЛЬЗОВАТЬСЯ ДЛЯ ЗАЩИТЫ ОТ ПОНИЖЕННЫХ ТЕМПЕРАТУР. .";s:6:"parent";s:2:"65";s:4:"durl";s:73:"sredstva-zashchity-ruk/rukavitsy/rukavitsy-sukonnye-s-ogneup-propit-lyuks";s:4:"dtxt";s:466:".Рукавицы суконные с огнеупорной пропиткой ЛЮКС Изготовлены из плотного шинельного сукна. Обеспечивают защиту от искр и брызг расплавленного металла. Подходят для работы в горячих цехах. Так же могут использоваться для защиты от пониженных температур. .";s:4:"dpic";s:27:"/upload/iblock/c4b/9325.jpg";s:11:"preview_pic";s:27:"/upload/iblock/2f5/9325.jpg";s:4:"bxid";s:6:"201314";s:5:"alias";s:0:"";s:7:"section";s:5:"11718";}i:19;a:14:{s:2:"id";s:4:"1557";s:3:"act";s:1:"N";s:9:"prod_type";s:0:"";s:4:"name";s:56:"Рукавицы трехпалые утепленные";s:3:"art";s:9:"Рук200";s:6:"search";s:553:"РУКАВИЦЫ ТРЕХПАЛЫЕ УТЕПЛЕННЫЕ

РУКАВИЦЫУТЕПЛЕННЫЕ ГЛАДКОКРАШЕНЫЕ СТРЕМЯ НАПАЛКАМИ (ТРЕХПАЛЫЕ) ТИП В. РАЗМЕР 2 МАТЕРИАЛ: ВЕРХ: КРАШЕННАЯ ДВУНИТКА, ДИАГОНАЛЬ, САРЖА. УТЕПЛИТЕЛЬ: ВАТИН П. Ш. ПЛ. 250-280 ГР.М2. ПОДКЛАДКА МИТКАЛЬ, БЯЗЬ. ЗАЩИТА ОТ МЕХАНИЧЕСКОГО ВОЗДЕЙСТВИЯ (ОТ ИСТИРАНИЯ) И ПОНИЖЕННЫХ ТЕМПЕРАТУР. .";s:6:"parent";s:2:"65";s:4:"durl";s:64:"sredstva-zashchity-ruk/rukavitsy/rukavitsy-trekhpalye-uteplennye";s:4:"dtxt";s:509:"Рукавицыутепленные гладкокрашеные стремя напалками &#40;трехпалые&#41; тип В. Размер 2 Материал: Верх: Крашенная двунитка, диагональ, саржа. Утеплитель: Ватин П. Ш. пл. 250-280 гр.м2. подкладка миткаль, бязь. Защита от механического воздействия &#40;от истирания&#41; и пониженных температур. .";s:4:"dpic";s:27:"/upload/iblock/e19/2542.jpg";s:11:"preview_pic";s:27:"/upload/iblock/965/2542.jpg";s:4:"bxid";s:6:"201315";s:5:"alias";s:0:"";s:7:"section";s:5:"11718";}i:20;a:14:{s:2:"id";s:4:"1558";s:3:"act";s:1:"Y";s:9:"prod_type";s:0:"";s:4:"name";s:62:"Рукавицы утепленные Комфорт с ПВХ";s:3:"art";s:9:"Рук222";s:6:"search";s:1021:"РУКАВИЦЫ УТЕПЛЕННЫЕ КОМФОРТ С ПВХ

ИСПОЛЬЗУЕТСЯ ТЕХНОЛОГИЯ COMFORTSHIELD, КОТОРАЯ ОБЕСПЕЧИВАЕТ МАКСИМАЛЬНЫЙ КОМФОРТ И СВОБОДУ ДВИЖЕНИЙ. УТЕПЛИТЕЛЬ ВАТИН ПШ, НАЛАДОННИК ПВХ, ПОДКЛАДКА ФЛИС (ТРИКОТАЖ). НА ЗАПЯСТЬЕ ВШИТА РЕЗИНКА И ДОПОЛНИТЕЛЬНАЯ РЕГУЛИРОВКА РЕМЕННОЙ ЛЕНТОЙ СО СКОБАМИ (ПОЛУКОЛЬЦА), РУКАВИЦЫ СОЕДИНЕНЫ МЕЖДУ СОБОЙ ЗАМКОМ. ОЧЕНЬ УДОБНЫЕ. ВСЕ ИСПОЛЬЗУЕМЫЕ МАТЕРИАЛЫ ИЗГОТОВЛЕНЫ В РОССИИ (Г. ИВАНОВО). ТКАНЬ ВЕРХА: ХБ С ДОБАВЛЕНИЕМ ПОЛИЭФИРА. УТЕПЛИТЕЛЬ: ВАТИН ПОЛУШЕРСТЯНОЙ. ПОДКЛАДКА ХБ С ДОБАВЛЕНИЕМ ПОЛИЭФИРА ПРЕДНАЗНАЧЕНЫ ДЛЯ 2 КЛИМАТИЧЕСКОЙ ЗОНЫ";s:6:"parent";s:2:"65";s:4:"durl";s:68:"sredstva-zashchity-ruk/rukavitsy/rukavitsy-uteplennye-komfort-s-pvkh";s:4:"dtxt";s:979:"Используется технология Comfortshield, которая обеспечивает максимальный комфорт и свободу движений. Утеплитель ватин ПШ, наладонник ПВХ, подкладка флис &#40;трикотаж&#41;. На запястье вшита резинка и дополнительная регулировка ременной лентой со скобами &#40;полукольца&#41;, рукавицы соединены между собой замком. Очень удобные. Все используемые материалы изготовлены в России &#40;г. Иваново&#41;. Ткань верха: ХБ с добавлением полиэфира. Утеплитель: Ватин полушерстяной. Подкладка ХБ с добавлением полиэфира Предназначены для 2 климатической зоны";s:4:"dpic";s:28:"/upload/iblock/285/15728.jpg";s:11:"preview_pic";s:28:"/upload/iblock/45e/15728.jpg";s:4:"bxid";s:6:"201316";s:5:"alias";s:0:"";s:7:"section";s:5:"11718";}i:21;a:14:{s:2:"id";s:4:"1559";s:3:"act";s:1:"Y";s:9:"prod_type";s:0:"";s:4:"name";s:82:"Рукавицы утепленные иск.мехом с брез.наладон";s:3:"art";s:9:"Рук212";s:6:"search";s:530:"РУКАВИЦЫ УТЕПЛЕННЫЕ ИСК.МЕХОМ С БРЕЗ.НАЛАДОН
.РУКАВИЦЫ УТЕПЛЕННЫЕ (ИСКУССТВЕННЫЙ МЕХ) С БРЕЗЕНТОВЫМ НАЛАДОННИКОМ ПРИМЕНЯЮТСЯ ДЛЯ РАБОТ В УСЛОВИЯХ ПОНИЖЕННЫХ И ПОВЫШЕННЫХ ТЕМПЕРАТУР, ЗАЩИЩАЮТ РУКИ ОТ МЕХАНИЧЕСКИ ВОЗДЕЙСТВИЙ РАЗЛИЧНОГО РОДА. ТКАНЬ - СМЕСОВАЯ, НАЛАДОННИК- БРЕЗЕНТ 420 Г/КВМ. .";s:6:"parent";s:2:"65";s:4:"durl";s:79:"sredstva-zashchity-ruk/rukavitsy/rukavitsy-uteplennye-isk-mekhom-s-brez-naladon";s:4:"dtxt";s:454:".Рукавицы утепленные &#40;искусственный мех&#41; с брезентовым наладонником Применяются для работ в условиях пониженных и повышенных температур, защищают руки от механически воздействий различного рода. Ткань - смесовая, наладонник- брезент 420 г/квм. .";s:4:"dpic";s:27:"/upload/iblock/133/9502.jpg";s:11:"preview_pic";s:27:"/upload/iblock/385/9502.jpg";s:4:"bxid";s:6:"201317";s:5:"alias";s:0:"";s:7:"section";s:5:"11718";}i:22;a:14:{s:2:"id";s:4:"1560";s:3:"act";s:1:"Y";s:9:"prod_type";s:0:"";s:4:"name";s:75:"Рукавицы утепленные искусственным мехом";s:3:"art";s:9:"Рук213";s:6:"search";s:539:"РУКАВИЦЫ УТЕПЛЕННЫЕ ИСКУССТВЕННЫМ МЕХОМ
РУКАВИЦЫ УТЕПЛЕННЫЕ (ИСКУССТВЕННЫЙ МЕХ) ТКАНЬ - ДИАГОНАЛЬ, УТЕПЛИТЕЛЬ ИСКУССТВЕННЫЙ МЕХ. . ПРИМЕНЯЮТСЯ ДЛЯ РАБОТ В УСЛОВИЯХ ПОНИЖЕННЫХ ТЕМПЕРАТУР, ЗАЩИЩАЮТ РУКИ ОТ МЕХАНИЧЕСКИ ВОЗДЕЙСТВИЙ РАЗЛИЧНОГО РОДА. НИЖНИЙ КРАЙ ОБРАБОТАН ОВЕРЛОКОМ, ДВОЙНОЙ ШОВ. .";s:6:"parent";s:2:"65";s:4:"durl";s:74:"sredstva-zashchity-ruk/rukavitsy/rukavitsy-uteplennye-iskusstvennym-mekhom";s:4:"dtxt";s:470:"Рукавицы утепленные &#40;искусственный мех&#41; Ткань - диагональ, утеплитель искусственный мех. . Применяются для работ в условиях пониженных температур, защищают руки от механически воздействий различного рода. Нижний край обработан оверлоком, двойной шов. .";s:4:"dpic";s:27:"/upload/iblock/edd/2560.jpg";s:11:"preview_pic";s:27:"/upload/iblock/2ca/2560.jpg";s:4:"bxid";s:6:"201318";s:5:"alias";s:0:"";s:7:"section";s:5:"11718";}i:23;a:14:{s:2:"id";s:4:"1561";s:3:"act";s:1:"Y";s:9:"prod_type";s:0:"";s:4:"name";s:70:"Рукавицы утепленные с брезент.наладон";s:3:"art";s:9:"Рук214";s:6:"search";s:603:"РУКАВИЦЫ УТЕПЛЕННЫЕ С БРЕЗЕНТ.НАЛАДОН
.РУКАВИЦЫ УТЕПЛЕННЫЕ (ВАТИН) С БРЕЗЕНТОВЫМ НАЛАДОННИКОМ ТКАНЬ - СМЕСОВАЯ, УТЕПЛИТЕЛЬ- ВАТИН 300Г/КВМ., НАЛАДОННИК - БРЕЗЕНТ 420Г/КВМ. НИЖНИЙ КРАЙ ОБРАБОТАН ОВЕРЛОКОМ, ДВОЙНОЙ ШОВ. ПРИМЕНЯЮТСЯ ДЛЯ РАБОТ В УСЛОВИЯХ ПОНИЖЕННЫХ ТЕМПЕРАТУР, ЗАЩИЩАЮТ РУКИ ОТ МЕХАНИЧЕСКИ ВОЗДЕЙСТВИЙ РАЗЛИЧНОГО РОДА. .";s:6:"parent";s:2:"65";s:4:"durl";s:71:"sredstva-zashchity-ruk/rukavitsy/rukavitsy-uteplennye-s-brezent-naladon";s:4:"dtxt";s:539:".Рукавицы утепленные &#40;ватин&#41; с брезентовым наладонником Ткань - смесовая, утеплитель- ватин 300г/квм., наладонник - брезент 420г/квм. Нижний край обработан оверлоком, двойной шов. Применяются для работ в условиях пониженных температур, защищают руки от механически воздействий различного рода. .";s:4:"dpic";s:27:"/upload/iblock/9be/2557.jpg";s:11:"preview_pic";s:27:"/upload/iblock/ed5/2557.jpg";s:4:"bxid";s:6:"201319";s:5:"alias";s:0:"";s:7:"section";s:5:"11718";}i:24;a:14:{s:2:"id";s:4:"1562";s:3:"act";s:1:"N";s:9:"prod_type";s:0:"";s:4:"name";s:62:"Рукавицы утепленные с ПВХ наладон";s:3:"art";s:9:"Рук216";s:6:"search";s:677:"РУКАВИЦЫ УТЕПЛЕННЫЕ С ПВХ НАЛАДОН
.РУКАВИЦЫ УТЕПЛЕННЫЕ (ВАТИН) С ПВХ НАЛАДОННИКОМ РУКАВИЦЫ УТЕПЛЁННЫЕ: МАТЕРИАЛ - ТК. ДВУНИТКА, УТЕПЛИТЕЛЬ-ВАТИН. ПВХ-НАЛОДОННИК, УЛУЧШАЕТ СЦЕПНЫЕ СВОЙСТВА. НИЖНИЙ КРАЙ ПОДГИБ, ДВОЙНОЙ ШОВ. ПРИМЕНЯЮТСЯ ДЛЯ РАБОТ В УСЛОВИЯХ ПОНИЖЕННЫХ ТЕМПЕРАТУР, А ТАКЖЕ ЗАЩИЩАЮТ РУКИ ОТ ПОВЫШЕННЫХ ТЕМПЕРАТУР И МЕХАНИЧЕСКИХ ВОЗДЕЙСТВИЙ РАЗЛИЧНОГО РОДА .";s:6:"parent";s:2:"65";s:4:"durl";s:68:"sredstva-zashchity-ruk/rukavitsy/rukavitsy-uteplennye-s-pvkh-naladon";s:4:"dtxt";s:621:".Рукавицы утепленные &#40;ватин&#41; с ПВХ наладонником Рукавицы утеплённые: материал - тк. двунитка, утеплитель-ватин. ПВХ-налодонник, улучшает сцепные свойства. Нижний край подгиб, двойной шов. Применяются для работ в условиях пониженных температур, а также защищают руки от повышенных температур и механических воздействий различного рода .";s:4:"dpic";s:27:"/upload/iblock/c8a/2558.jpg";s:11:"preview_pic";s:27:"/upload/iblock/700/2558.jpg";s:4:"bxid";s:6:"201320";s:5:"alias";s:0:"";s:7:"section";s:5:"11718";}i:25;a:14:{s:2:"id";s:4:"1563";s:3:"act";s:1:"Y";s:9:"prod_type";s:0:"";s:4:"name";s:84:"Рукавицы утепленные, ватин-1слой, край-оверлог";s:3:"art";s:9:"Рук210";s:6:"search";s:671:"РУКАВИЦЫ УТЕПЛЕННЫЕ, ВАТИН-1СЛОЙ, КРАЙ-ОВЕРЛОГ
.РУКАВИЦЫ УТЕПЛЕННЫЕ (ВАТИН) РУКАВИЦЫ УТЕПЛЁННЫЕ: МАТЕРИАЛ- ДИАГОНАЛЬ, УТЕПЛИТЕЛЬ- ВАТИН 300Г/КВМ, РАЗМЕР 2. НИЖНИЙ КРАЙ ОБРАБОТАН ОВЕРЛОКОМ, ДВОЙНОЙ ШОВ, НИТЬ АРМИРОВАННАЯ. ПРИМЕНЯЮТСЯ ДЛЯ РАБОТ В УСЛОВИЯХ ПОНИЖЕННЫХ ТЕМПЕРАТУР, А ТАКЖЕ ЗАЩИЩАЮТ РУКИ ОТ ПОВЫШЕННЫХ ТЕМПЕРАТУР И МЕХАНИЧЕСКИХ ВОЗДЕЙСТВИЙ РАЗЛИЧНОГО РОДА. .";s:6:"parent";s:2:"65";s:4:"durl";s:78:"sredstva-zashchity-ruk/rukavitsy/rukavitsy-uteplennye-vatin-1sloy-kray-overlog";s:4:"dtxt";s:593:".Рукавицы утепленные &#40;ватин&#41; Рукавицы утеплённые: материал- диагональ, утеплитель- ватин 300г/квм, размер 2. Нижний край обработан оверлоком, двойной шов, нить армированная. Применяются для работ в условиях пониженных температур, а также защищают руки от повышенных температур и механических воздействий различного рода. .";s:4:"dpic";s:27:"/upload/iblock/754/2559.jpg";s:11:"preview_pic";s:27:"/upload/iblock/77b/2559.jpg";s:4:"bxid";s:6:"201321";s:5:"alias";s:0:"";s:7:"section";s:5:"11718";}i:26;a:14:{s:2:"id";s:4:"1564";s:3:"act";s:1:"N";s:9:"prod_type";s:0:"";s:4:"name";s:82:"Рукавицы утепленные, ватин-2слоя, край-подгиб";s:3:"art";s:9:"Рук211";s:6:"search";s:774:"РУКАВИЦЫ УТЕПЛЕННЫЕ, ВАТИН-2СЛОЯ, КРАЙ-ПОДГИБ
РУКАВИЦЫ УТЕПЛЕННЫЕ ВАТНЫЕ ЛЮКС (ДИАГОНАЛЬ/ ВАТИН 2 СЛОЯ/ БЯЗЬ) УТЕПЛЕННЫЙ ВАРИАНТ РУКАВИЦ ДЛЯ ВЫПОЛНЕНИЯ РАБОТ ПРИ ОТРИЦАТЕЛЬНЫХ ТЕМПЕРАТУРАХ. РУКАВИЦЫ ВАТНЫЕ НАДЕЖНО СОГРЕВАЮТ РУКИ И ОДНОВРЕМЕННО НЕ ПОЗВОЛЯЮТ ИМ ИЗЛИШНЕ ПОТЕТЬ. ДОЛГОВЕЧНЫ, УСТОЙЧИВЫ К РАЗРЫВАМ И СТИРАНИЮ. ВЫПУСКАЮТСЯ УНИВЕРСАЛЬНОГО РАЗМЕРА, ЛЕГКО СНИМАЮТСЯ ВО ВРЕМЯ ВОЗНИКНОВЕНИЯ КРАЙНЕЙ НЕОБХОДИМОСТИ. .";s:6:"parent";s:2:"65";s:4:"durl";s:78:"sredstva-zashchity-ruk/rukavitsy/rukavitsy-uteplennye-vatin-2sloya-kray-podgib";s:4:"dtxt";s:698:"Рукавицы утепленные ватные ЛЮКС &#40;диагональ/ ватин 2 слоя/ бязь&#41; Утепленный вариант рукавиц для выполнения работ при отрицательных температурах. Рукавицы ватные надежно согревают руки и одновременно не позволяют им излишне потеть. Долговечны, устойчивы к разрывам и стиранию. Выпускаются универсального размера, легко снимаются во время возникновения крайней необходимости. .";s:4:"dpic";s:27:"/upload/iblock/c9f/8883.jpg";s:11:"preview_pic";s:27:"/upload/iblock/1a4/8883.jpg";s:4:"bxid";s:6:"201322";s:5:"alias";s:0:"";s:7:"section";s:5:"11718";}i:27;a:14:{s:2:"id";s:4:"1565";s:3:"act";s:1:"N";s:9:"prod_type";s:0:"";s:4:"name";s:57:"Рукавицы Х/Б с суконным наладон";s:3:"art";s:9:"Рук121";s:6:"search";s:513:"РУКАВИЦЫ Х/Б С СУКОННЫМ НАЛАДОН

.РУКАВИЦЫ Х/Б С СУКОННЫМ НАЛАДОННИКОМ ЗАЩИЩАЮТ РУКИ ОТ МЕХАНИЧЕСКИХ ВОЗДЕЙСТВИЙ. ИЗГОТОВЛЕНЫ ИЗ СМЕСОВОЙ ТКАНИ С ДВОЙНОЙ ОТСТРОЧКОЙ. ЛАДОННАЯ ЧАСТЬ УСИЛЕНА СПИЛКОМ. ДВОЙНОЙ ШОВ, ОВЕРЛОК. ПРИМЕНЕНИЕ В ЛЕСНОЙ ДЕРЕВООБРАБАТЫВАЮШЕЙ ПРОМЫШЛЕННОСТИ. .";s:6:"parent";s:2:"65";s:4:"durl";s:66:"sredstva-zashchity-ruk/rukavitsy/rukavitsy-kh-b-s-sukonnym-naladon";s:4:"dtxt";s:452:".Рукавицы х/б с суконным наладонником Защищают руки от механических воздействий. Изготовлены из смесовой ткани с двойной отстрочкой. Ладонная часть усилена спилком. Двойной шов, оверлок. Применение в лесной деревообрабатываюшей промышленности. .";s:4:"dpic";s:27:"/upload/iblock/06e/9575.jpg";s:11:"preview_pic";s:27:"/upload/iblock/be2/9575.jpg";s:4:"bxid";s:6:"201323";s:5:"alias";s:0:"";s:7:"section";s:5:"11718";}i:28;a:14:{s:2:"id";s:4:"1566";s:3:"act";s:1:"N";s:9:"prod_type";s:0:"";s:4:"name";s:79:"Рукавицы шерстяной мех ЛЮКС (верх-тк. Грета)";s:3:"art";s:9:"Рук221";s:6:"search";s:736:"РУКАВИЦЫ ШЕРСТЯНОЙ МЕХ ЛЮКС (ВЕРХ-ТК. ГРЕТА)
.РУКАВИЦЫ УТЕПЛЕННЫЕ ШЕРСТЯНОЙ МЕХ ЛЮКС (ГРЕТА/ ШЕРСТЯНОЙ МЕХ) РУКАВИЦЫ ПОЗВОЛЯЮТ, ДАЖЕ ПРИ ОЧЕНЬ СИЛЬНОМ МОРОЗЕ, СОХРАНЯТЬ РУКИ В ТЕПЛЕ И КОМФОРТЕ. РУКАВИЦЫ ИЗГОТАВЛИВАЮТСЯ С ВКЛАДЫШАМИ ИЗ ШЕРСТЯНОГО МЕХА, ВЫПОЛНЕННЫМИ ПО СОВРЕМЕННЫМ ТЕХНОЛОГИЯМ ИЗ НАТУРАЛЬНОЙ ШЕРСТИ ОВЦЫ И МЕРИНОСА, С СОХРАНЕНИЕМ И УЛУЧШЕНИЕМ ТЕПЛОЗАЩИТНЫХ СВОЙСТВ НАТУРАЛЬНОЙ ОВЧИНЫ. .";s:6:"parent";s:2:"65";s:4:"durl";s:80:"sredstva-zashchity-ruk/rukavitsy/rukavitsy-sherstyanoy-mekh-lyuks-verkh-tk-greta";s:4:"dtxt";s:663:".Рукавицы утепленные шерстяной мех ЛЮКС &#40;Грета/ шерстяной мех&#41; Рукавицы позволяют, даже при очень сильном морозе, сохранять руки в тепле и комфорте. Рукавицы изготавливаются с вкладышами из шерстяного меха, выполненными по современным технологиям из натуральной шерсти овцы и мериноса, с сохранением и улучшением теплозащитных свойств натуральной овчины. .";s:4:"dpic";s:28:"/upload/iblock/bd6/15585.jpg";s:11:"preview_pic";s:28:"/upload/iblock/04e/15585.jpg";s:4:"bxid";s:6:"201324";s:5:"alias";s:0:"";s:7:"section";s:5:"11718";}i:29;a:14:{s:2:"id";s:4:"1567";s:3:"act";s:1:"Y";s:9:"prod_type";s:0:"";s:4:"name";s:74:"Рукавицы шерстяной мех (верх-тк. Оксфорд)";s:3:"art";s:9:"Рук217";s:6:"search";s:580:"РУКАВИЦЫ ШЕРСТЯНОЙ МЕХ (ВЕРХ-ТК. ОКСФОРД)
.РУКАВИЦЫ ШЕРСТЯНОЙ МЕХ РУКАВИЦЫ ДЛЯ ВСЕХ ВИДОВ МЕХАНИЧЕСКИХ РАБОТ В ЗИМНИХ УСЛОВИЯХ. ИЗГОТОВЛЕНЫ ИЗ ТКАНИ ОКСФОРД, УТЕПЛИТЕЛЬ - ШЕРСТЯНОЙ МЕХ. ВЛАГОСТОЙКИЕ, ИДЕАЛЬНО ЗАЩИЩАЮТ РУКИ ОТ ПОНИЖЕННЫХ ТЕМПЕРАТУР. МАНЖЕТ ЗАВОРАЧИВАЕТСЯ, ЧТО УЛУЧШАЕТ КОМФОРТНОСТЬ В ИСПОЛЬЗОВАНИИ. .";s:6:"parent";s:2:"65";s:4:"durl";s:76:"sredstva-zashchity-ruk/rukavitsy/rukavitsy-sherstyanoy-mekh-verkh-tk-oksford";s:4:"dtxt";s:504:".Рукавицы шерстяной мех Рукавицы для всех видов механических работ в зимних условиях. Изготовлены из ткани Оксфорд, утеплитель - шерстяной мех. Влагостойкие, идеально защищают руки от пониженных температур. Манжет заворачивается, что улучшает комфортность в использовании. .";s:4:"dpic";s:28:"/upload/iblock/c04/11626.jpg";s:11:"preview_pic";s:28:"/upload/iblock/765/11626.jpg";s:4:"bxid";s:6:"201325";s:5:"alias";s:0:"";s:7:"section";s:5:"11718";}}}}s:8:"end_time";i:1562333729;}