a:2:{s:4:"data";a:8:{s:2:"id";s:2:"71";s:5:"title";s:0:"";s:4:"prop";s:0:"";s:5:"alias";s:13:"letnyaya-obuv";s:4:"name";s:21:"летняя обув";s:6:"parent";s:2:"70";s:7:"parents";a:1:{i:0;a:6:{s:2:"id";s:2:"70";s:5:"title";s:0:"";s:4:"prop";s:0:"";s:5:"alias";s:21:"obuv-marki-roverboots";s:4:"name";s:32:"обувь марки ROVERBOOTS";s:6:"parent";s:1:"0";}}s:8:"children";a:2:{s:10:"categories";a:0:{}s:8:"products";a:25:{i:0;a:20:{s:2:"id";s:4:"1629";s:3:"act";s:1:"Y";s:9:"prod_type";s:0:"";s:4:"name";s:42:"Ботинки для ИТР МС23 (МП)";s:3:"art";s:14:"БотМС23М";s:4:"sort";s:3:"100";s:6:"search";s:1439:"БОТИНКИ ДЛЯ ИТР МС23 (МП)

МАТЕРИАЛ ВЕРХА:КОЖА ЮФТЕВАЯ ДЛЯ ВЕРХА ОБУВИ ХРОМОВОГО ДУБЛЕНИЯ, ТЕРМОУСТОЙЧИВАЯ ПОДОШВА ЛИТЬЕВОГО МЕТОДА КРЕПЛЕНИЯ: ОДНОСЛОЙНЫЙ ПОЛИУРЕТАН (ПУ); В МОДЕЛИ УСТАНОВЛЕН МЕТАЛЛИЧЕСКИЙ ПОДНОСОК (МУН 200). ЗАЩИТНЫЕ СВОЙСТВА ПОДОШВЫ: ЗАЩИТА ОТ НЕФТИ, НЕФТЕПРОДУКТОВ, КИСЛОТ, ЩЕЛОЧЕЙ, НЕТОКСИЧНОЙ ПЫЛИ. САМООЧИЩАЮЩИЙСЯ ПРОТЕКТОР С АНТИСКОЛЬЗЯЩИМ ПОКРЫТИЕМ. ТЕРМОСТОЙКОСТЬ В ЗАВИСИМОСТИ ОТ НАКЛАДКИ: ПРИ ХОДЬБЕ +130С, С НАКЛАДКОЙ ИЗ ТЕРМОСТОЙКОЙ НЕПОРИСТОЙ РЕЗИНЫ ДО +200С, В СТАТИЧЕСКОМ ПОЛОЖЕНИИ +100С, МОРОЗОСТОЙКОСТЬ ДО -45С. СФЕРА ПРИМЕНЕНИЯ: БОТИНКИ РЕКОМЕНДУЮТСЯ ДЛЯ НЕФТЕГАЗОВОГО КОМПЛЕКСА, МЕТАЛЛУРГИИ, ПИЩЕВОЙ ПРОМЫШЛЕННОСТИ, СТРОИТЕЛЬНОГО КОМПЛЕКСА, СЕЛЬСКОГО ХОЗЯЙСТВА, ГОРНОДОБЫВАЮЩЕЙ И ХИМИЧЕСКОЙ ПРОМЫШЛЕННОСТИ. ВЫСОТА ОБУВИ 95 ММ РАЗМЕРЫ С 38 ПО 47 ВКЛЮЧИТЕЛЬНО";s:6:"parent";s:2:"71";s:4:"durl";s:60:"obuv-marki-roverboots/letnyaya-obuv/botinki-dlya-itr-ms23-mp";s:4:"dtxt";s:1421:"Материал верха:кожа юфтевая для верха обуви хромового дубления, термоустойчивая Подошва литьевого метода крепления: однослойный полиуретан &#40;ПУ&#41;; В модели установлен металлический подносок &#40;МУН 200&#41;. Защитные свойства подошвы: защита от нефти, нефтепродуктов, кислот, щелочей, нетоксичной пыли. Самоочищающийся протектор с антискользящим покрытием. Термостойкость в зависимости от накладки: при ходьбе &#43;130С, с накладкой из термостойкой непористой резины до &#43;200С, в статическом положении &#43;100С, морозостойкость до -45С. Сфера применения: ботинки рекомендуются для нефтегазового комплекса, металлургии, пищевой промышленности, строительного комплекса, сельского хозяйства, горнодобывающей и химической промышленности. Высота обуви 95 мм Размеры с 38 по 47 включительно";s:4:"dpic";s:14:"/708/14758.jpg";s:11:"preview_pic";s:14:"/5b3/14758.jpg";s:4:"bxid";s:6:"202059";s:5:"alias";s:24:"botinki-dlya-itr-ms23-mp";s:7:"section";s:5:"11727";s:5:"title";s:0:"";s:11:"description";s:0:"";s:8:"keywords";s:0:"";s:5:"price";s:1:"0";s:9:"old-price";s:1:"0";}i:1;a:20:{s:2:"id";s:4:"1630";s:3:"act";s:1:"N";s:9:"prod_type";s:0:"";s:4:"name";s:35:"Ботинки для ИТР МС23";s:3:"art";s:12:"БотМС23";s:4:"sort";s:3:"100";s:6:"search";s:1432:"БОТИНКИ ДЛЯ ИТР МС23

МАТЕРИАЛ ВЕРХА:КОЖА ЮФТЕВАЯ ДЛЯ ВЕРХА ОБУВИ ХРОМОВОГО ДУБЛЕНИЯ, ТЕРМОУСТОЙЧИВАЯ ПОДОШВА ЛИТЬЕВОГО МЕТОДА КРЕПЛЕНИЯ: А) ОДНОСЛОЙНЫЙ ПОЛИУРЕТАН (ПУ); В БАЗОВЫХ МОДЕЛЯХ УСТАНОВЛЕН УСИЛЕННЫЙ ПОДНОСОК. ЗАЩИТНЫЕ СВОЙСТВА ПОДОШВЫ: ЗАЩИТА ОТ НЕФТИ, НЕФТЕПРОДУКТОВ, КИСЛОТ, ЩЕЛОЧЕЙ, НЕТОКСИЧНОЙ ПЫЛИ. САМООЧИЩАЮЩИЙСЯ ПРОТЕКТОР С АНТИСКОЛЬЗЯЩИМ ПОКРЫТИЕМ. ТЕРМОСТОЙКОСТЬ В ЗАВИСИМОСТИ ОТ НАКЛАДКИ: ПРИ ХОДЬБЕ +130С, С НАКЛАДКОЙ ИЗ ТЕРМОСТОЙКОЙ НЕПОРИСТОЙ РЕЗИНЫ ДО +200С, В СТАТИЧЕСКОМ ПОЛОЖЕНИИ +100С, МОРОЗОСТОЙКОСТЬ ДО -45С. СФЕРА ПРИМЕНЕНИЯ: БОТИНКИ РЕКОМЕНДУЮТСЯ ДЛЯ НЕФТЕГАЗОВОГО КОМПЛЕКСА, МЕТАЛЛУРГИИ, ПИЩЕВОЙ ПРОМЫШЛЕННОСТИ, СТРОИТЕЛЬНОГО КОМПЛЕКСА, СЕЛЬСКОГО ХОЗЯЙСТВА, ГОРНОДОБЫВАЮЩЕЙ И ХИМИЧЕСКОЙ ПРОМЫШЛЕННОСТИ. ВЫСОТА ОБУВИ 95 ММ РАЗМЕРЫ С 38 ПО 47 ВКЛЮЧИТЕЛЬНО";s:6:"parent";s:2:"71";s:4:"durl";s:57:"obuv-marki-roverboots/letnyaya-obuv/botinki-dlya-itr-ms23";s:4:"dtxt";s:1417:"Материал верха:кожа юфтевая для верха обуви хромового дубления, термоустойчивая Подошва литьевого метода крепления: а&#41; однослойный полиуретан &#40;ПУ&#41;; В базовых моделях установлен усиленный подносок. Защитные свойства подошвы: защита от нефти, нефтепродуктов, кислот, щелочей, нетоксичной пыли. Самоочищающийся протектор с антискользящим покрытием. Термостойкость в зависимости от накладки: при ходьбе &#43;130С, с накладкой из термостойкой непористой резины до &#43;200С, в статическом положении &#43;100С, морозостойкость до -45С. Сфера применения: ботинки рекомендуются для нефтегазового комплекса, металлургии, пищевой промышленности, строительного комплекса, сельского хозяйства, горнодобывающей и химической промышленности. Высота обуви 95 мм Размеры с 38 по 47 включительно";s:4:"dpic";s:14:"/301/15314.jpg";s:11:"preview_pic";s:14:"/86e/15314.jpg";s:4:"bxid";s:6:"202060";s:5:"alias";s:21:"botinki-dlya-itr-ms23";s:7:"section";s:5:"11727";s:5:"title";s:0:"";s:11:"description";s:0:"";s:8:"keywords";s:0:"";s:5:"price";s:1:"0";s:9:"old-price";s:1:"0";}i:2;a:20:{s:2:"id";s:4:"1631";s:3:"act";s:1:"Y";s:9:"prod_type";s:0:"";s:4:"name";s:35:"Ботинки рабочие МС1";s:3:"art";s:11:"БотМС1";s:4:"sort";s:3:"100";s:6:"search";s:1503:"БОТИНКИ РАБОЧИЕ МС1

МАТЕРИАЛ ВЕРХА:КОЖА ЮФТЕВАЯ ДЛЯ ВЕРХА ОБУВИ ХРОМОВОГО ДУБЛЕНИЯ, ТЕРМОУСТОЙЧИВАЯ ПОДОШВА ЛИТЬЕВОГО МЕТОДА КРЕПЛЕНИЯ: ПУ + ТПУ - ДВОЙНАЯ ПОДОШВА: ПОЛИУРЕТАН + НАКЛАДКА ИЗ ТЕРМОПОЛИУРЕТАНА; В БАЗОВЫХ МОДЕЛЯХ УСТАНОВЛЕН УСИЛЕННЫЙ ПОДНОСОК. ЗАЩИТНЫЕ СВОЙСТВА ПОДОШВЫ: ЗАЩИТА ОТ НЕФТИ, НЕФТЕПРОДУКТОВ, КИСЛОТ, ЩЕЛОЧЕЙ, НЕТОКСИЧНОЙ ПЫЛИ. САМООЧИЩАЮЩИЙСЯ ПРОТЕКТОР С АНТИСКОЛЬЗЯЩИМ ПОКРЫТИЕМ. ТЕРМОСТОЙКОСТЬ В ЗАВИСИМОСТИ ОТ НАКЛАДКИ: ПРИ ХОДЬБЕ +130С, С НАКЛАДКОЙ ИЗ ТЕРМОСТОЙКОЙ НЕПОРИСТОЙ РЕЗИНЫ ДО +200С, В СТАТИЧЕСКОМ ПОЛОЖЕНИИ +100С, МОРОЗОСТОЙКОСТЬ ДО -45С. СФЕРА ПРИМЕНЕНИЯ: БОТИНКИ РЕКОМЕНДУЮТСЯ ДЛЯ НЕФТЕГАЗОВОГО КОМПЛЕКСА, МЕТАЛЛУРГИИ, ПИЩЕВОЙ ПРОМЫШЛЕННОСТИ, СТРОИТЕЛЬНОГО КОМПЛЕКСА, СЕЛЬСКОГО ХОЗЯЙСТВА, ГОРНОДОБЫВАЮЩЕЙ И ХИМИЧЕСКОЙ ПРОМЫШЛЕННОСТИ. ВЫСОТА ОБУВИ 110 ММ РАЗМЕРЫ С 38 ПО 47 ВКЛЮЧИТЕЛЬНО";s:6:"parent";s:2:"71";s:4:"durl";s:56:"obuv-marki-roverboots/letnyaya-obuv/botinki-rabochie-ms1";s:4:"dtxt";s:1484:"Материал верха:кожа юфтевая для верха обуви хромового дубления, термоустойчивая Подошва литьевого метода крепления: ПУ &#43; ТПУ - двойная подошва: полиуретан &#43; накладка из термополиуретана; В базовых моделях установлен усиленный подносок. Защитные свойства подошвы: защита от нефти, нефтепродуктов, кислот, щелочей, нетоксичной пыли. Самоочищающийся протектор с антискользящим покрытием. Термостойкость в зависимости от накладки: при ходьбе &#43;130С, с накладкой из термостойкой непористой резины до &#43;200С, в статическом положении &#43;100С, морозостойкость до -45С. Сфера применения: ботинки рекомендуются для нефтегазового комплекса, металлургии, пищевой промышленности, строительного комплекса, сельского хозяйства, горнодобывающей и химической промышленности. Высота обуви 110 мм Размеры с 38 по 47 включительно";s:4:"dpic";s:13:"/f6a/7273.jpg";s:11:"preview_pic";s:13:"/b43/7273.jpg";s:4:"bxid";s:6:"202061";s:5:"alias";s:20:"botinki-rabochie-ms1";s:7:"section";s:5:"11727";s:5:"title";s:0:"";s:11:"description";s:0:"";s:8:"keywords";s:0:"";s:5:"price";s:1:"0";s:9:"old-price";s:1:"0";}i:3;a:20:{s:2:"id";s:4:"1632";s:3:"act";s:1:"Y";s:9:"prod_type";s:0:"";s:4:"name";s:44:"Ботинки рабочие МС1-1 (МП)";s:3:"art";s:15:"БотМС1_1М";s:4:"sort";s:3:"100";s:6:"search";s:1371:"БОТИНКИ РАБОЧИЕ МС1-1 (МП)

МАТЕРИАЛ ВЕРХА: КОЖА ЮФТЕВАЯ ДЛЯ ВЕРХА ОБУВИ ХРОМОВОГО ДУБЛЕНИЯ, ТЕРМОУСТОЙЧИВАЯ. ПОДОШВА ЛИТЬЕВОГО МЕТОДА КРЕПЛЕНИЯ: ПУ + ТПУ - ДВОЙНАЯ ПОДОШВА: ПОЛИУРЕТАН + НАКЛАДКА ИЗ ТЕРМОПОЛИУРЕТАНА; В МОДЕЛИ УСТАНОВЛЕН МЕТАЛЛИЧЕСКИЙ ПОДНОСКА (МУН 200). ЗАЩИТНЫЕ СВОЙСТВА ПОДОШВЫ: ЗАЩИТА ОТ НЕФТИ, НЕФТЕПРОДУКТОВ, КИСЛОТ, ЩЕЛОЧЕЙ, НЕТОКСИЧНОЙ ПЫЛИ. САМООЧИЩАЮЩИЙСЯ ПРОТЕКТОР С АНТИСКОЛЬЗЯЩИМ ПОКРЫТИЕМ. ТЕРМОСТОЙКОСТЬ: ПРИ ХОДЬБЕ +130С, В СТАТИЧЕСКОМ ПОЛОЖЕНИИ +100С, МОРОЗОСТОЙКОСТЬ ДО -45С. СФЕРА ПРИМЕНЕНИЯ: БОТИНКИ РЕКОМЕНДУЮТСЯ ДЛЯ НЕФТЕГАЗОВОГО КОМПЛЕКСА, МЕТАЛЛУРГИИ, ПИЩЕВОЙ ПРОМЫШЛЕННОСТИ, СТРОИТЕЛЬНОГО КОМПЛЕКСА, СЕЛЬСКОГО ХОЗЯЙСТВА, ГОРНОДОБЫВАЮЩЕЙ И ХИМИЧЕСКОЙ ПРОМЫШЛЕННОСТИ. ВЫСОТА ОБУВИ 110 ММ РАЗМЕРЫ С 38 ПО 46 ВКЛЮЧИТЕЛЬНО";s:6:"parent";s:2:"71";s:4:"durl";s:61:"obuv-marki-roverboots/letnyaya-obuv/botinki-rabochie-ms1-1-mp";s:4:"dtxt";s:1347:"Материал верха: кожа юфтевая для верха обуви хромового дубления, термоустойчивая. Подошва литьевого метода крепления: ПУ &#43; ТПУ - двойная подошва: полиуретан &#43; накладка из термополиуретана; В модели установлен металлический подноска &#40;МУН 200&#41;. Защитные свойства подошвы: защита от нефти, нефтепродуктов, кислот, щелочей, нетоксичной пыли. Самоочищающийся протектор с антискользящим покрытием. Термостойкость: при ходьбе &#43;130С, в статическом положении &#43;100С, морозостойкость до -45С. Сфера применения: ботинки рекомендуются для нефтегазового комплекса, металлургии, пищевой промышленности, строительного комплекса, сельского хозяйства, горнодобывающей и химической промышленности. Высота обуви 110 мм Размеры с 38 по 46 включительно";s:4:"dpic";s:13:"/731/9714.jpg";s:11:"preview_pic";s:13:"/114/9714.jpg";s:4:"bxid";s:6:"202062";s:5:"alias";s:25:"botinki-rabochie-ms1-1-mp";s:7:"section";s:5:"11727";s:5:"title";s:0:"";s:11:"description";s:0:"";s:8:"keywords";s:0:"";s:5:"price";s:1:"0";s:9:"old-price";s:1:"0";}i:4;a:20:{s:2:"id";s:4:"1633";s:3:"act";s:1:"Y";s:9:"prod_type";s:0:"";s:4:"name";s:35:"Ботинки рабочие МС3";s:3:"art";s:11:"БотМС3";s:4:"sort";s:3:"100";s:6:"search";s:1111:"БОТИНКИ РАБОЧИЕ МС3

МАТЕРИАЛ ВЕРХА: КОЖА ЮФТЕВАЯ ДЛЯ ВЕРХА ОБУВИ ХРОМОВОГО ДУБЛЕНИЯ, ТЕРМОУСТОЙЧИВАЯ ПОДОШВА ЛИТЬЕВОГО МЕТОДА КРЕПЛЕНИЯ: ОДНОСЛОЙНЫЙ ПОЛИУРЕТАН (ПУ). В БАЗОВЫХ МОДЕЛЯХ УСТАНОВЛЕН УСИЛЕННЫЙ ПОДНОСОК. ЗАЩИТНЫЕ СВОЙСТВА ПОДОШВЫ: ЗАЩИТА ОТ НЕФТИ, НЕФТЕПРОДУКТОВ, КИСЛОТ, ЩЕЛОЧЕЙ, НЕТОКСИЧНОЙ ПЫЛИ. ТЕРМОСТОЙКОСТЬ: ДО +45С, МОРОЗОСТОЙКОСТЬ ДО -20С. СФЕРА ПРИМЕНЕНИЯ: БОТИНКИ РЕКОМЕНДУЮТСЯ ДЛЯ НЕФТЕГАЗОВОГО КОМПЛЕКСА, МЕТАЛЛУРГИИ, ПИЩЕВОЙ ПРОМЫШЛЕННОСТИ, СТРОИТЕЛЬНОГО КОМПЛЕКСА, СЕЛЬСКОГО ХОЗЯЙСТВА, ГОРНОДОБЫВАЮЩЕЙ И ХИМИЧЕСКОЙ ПРОМЫШЛЕННОСТИ. ВЫСОТА ОБУВИ 95 ММ РАЗМЕРЫ С 38 ПО 46 ВКЛЮЧИТЕЛЬНО";s:6:"parent";s:2:"71";s:4:"durl";s:56:"obuv-marki-roverboots/letnyaya-obuv/botinki-rabochie-ms3";s:4:"dtxt";s:1084:"Материал верха: кожа юфтевая для верха обуви хромового дубления, термоустойчивая Подошва литьевого метода крепления: однослойный полиуретан &#40;ПУ&#41;. В базовых моделях установлен усиленный подносок. Защитные свойства подошвы: защита от нефти, нефтепродуктов, кислот, щелочей, нетоксичной пыли. Термостойкость: до &#43;45С, морозостойкость до -20С. Сфера применения: ботинки рекомендуются для нефтегазового комплекса, металлургии, пищевой промышленности, строительного комплекса, сельского хозяйства, горнодобывающей и химической промышленности. Высота обуви 95 мм Размеры с 38 по 46 включительно";s:4:"dpic";s:13:"/e7b/7434.jpg";s:11:"preview_pic";s:13:"/56e/7434.jpg";s:4:"bxid";s:6:"202067";s:5:"alias";s:20:"botinki-rabochie-ms3";s:7:"section";s:5:"11727";s:5:"title";s:0:"";s:11:"description";s:0:"";s:8:"keywords";s:0:"";s:5:"price";s:1:"0";s:9:"old-price";s:1:"0";}i:5;a:20:{s:2:"id";s:4:"1634";s:3:"act";s:1:"Y";s:9:"prod_type";s:0:"";s:4:"name";s:36:"Ботинки рабочие МС43";s:3:"art";s:12:"БотМС43";s:4:"sort";s:3:"100";s:6:"search";s:1264:"БОТИНКИ РАБОЧИЕ МС43

МАТЕРИАЛ ВЕРХА: КОЖА ЮФТЕВАЯ ДЛЯ ВЕРХА ОБУВИ ХРОМОВОГО ДУБЛЕНИЯ, ТЕРМОУСТОЙЧИВАЯ ПОДОШВА ЛИТЬЕВОГО МЕТОДА КРЕПЛЕНИЯ: ОДНОСЛОЙНЫЙ ПОЛИУРЕТАН (ПУ); ЗАЩИТНЫЕ СВОЙСТВА ПОДОШВЫ: ЗАЩИТА ОТ НЕФТИ, НЕФТЕПРОДУКТОВ, КИСЛОТ, ЩЕЛОЧЕЙ, НЕТОКСИЧНОЙ ПЫЛИ. САМООЧИЩАЮЩИЙСЯ ПРОТЕКТОР С АНТИСКОЛЬЗЯЩИМ ПОКРЫТИЕМ. ТЕРМОСТОЙКОСТЬ В ЗАВИСИМОСТИ ОТ ВИДА НАКЛАДКИ: ПРИ ХОДЬБЕ +130С, В СТАТИЧЕСКОМ ПОЛОЖЕНИИ +100С, МОРОЗОСТОЙКОСТЬ ДО -45С. СФЕРА ПРИМЕНЕНИЯ: БОТИНКИ ЖЕНСКИЕ РЕКОМЕНДУЮТСЯ ДЛЯ НЕФТЕГАЗОВОГО КОМПЛЕКСА, МЕТАЛЛУРГИИ, ПИЩЕВОЙ ПРОМЫШЛЕННОСТИ, СТРОИТЕЛЬНОГО КОМПЛЕКСА, СЕЛЬСКОГО ХОЗЯЙСТВА, ГОРНОДОБЫВАЮЩЕЙ И ХИМИЧЕСКОЙ ПРОМЫШЛЕННОСТИ. ВЫСОТА ОБУВИ 90 ММ РАЗМЕРЫ С 35 ПО 40 ВКЛЮЧИТЕЛЬНО";s:6:"parent";s:2:"71";s:4:"durl";s:57:"obuv-marki-roverboots/letnyaya-obuv/botinki-rabochie-ms43";s:4:"dtxt";s:1240:"Материал верха: кожа юфтевая для верха обуви хромового дубления, термоустойчивая Подошва литьевого метода крепления: однослойный полиуретан &#40;ПУ&#41;; Защитные свойства подошвы: защита от нефти, нефтепродуктов, кислот, щелочей, нетоксичной пыли. Самоочищающийся протектор с антискользящим покрытием. Термостойкость в зависимости от вида накладки: при ходьбе &#43;130С, в статическом положении &#43;100С, морозостойкость до -45С. Сфера применения: ботинки женские рекомендуются для нефтегазового комплекса, металлургии, пищевой промышленности, строительного комплекса, сельского хозяйства, горнодобывающей и химической промышленности. Высота обуви 90 мм Размеры с 35 по 40 включительно";s:4:"dpic";s:13:"/5b2/7692.jpg";s:11:"preview_pic";s:13:"/41e/7692.jpg";s:4:"bxid";s:6:"202069";s:5:"alias";s:21:"botinki-rabochie-ms43";s:7:"section";s:5:"11727";s:5:"title";s:0:"";s:11:"description";s:0:"";s:8:"keywords";s:0:"";s:5:"price";s:1:"0";s:9:"old-price";s:1:"0";}i:6;a:20:{s:2:"id";s:4:"1635";s:3:"act";s:1:"Y";s:9:"prod_type";s:0:"";s:4:"name";s:73:"Ботинки с высоким берцем (юфть-кирза) МС7";s:3:"art";s:25:"БотМС7_Ю-КИРЗА";s:4:"sort";s:3:"100";s:6:"search";s:1156:"БОТИНКИ С ВЫСОКИМ БЕРЦЕМ (ЮФТЬ-КИРЗА) МС7

МАТЕРИАЛ ВЕРХА: КОЖА ЮФТЕВАЯ ДЛЯ ВЕРХА ОБУВИ ХРОМОВОГО ДУБЛЕНИЯ, ТЕРМОУСТОЙЧИВАЯ + МАТЕРИАЛ ИЗ ПРОРЕЗИНЕННЫХ ТКАНЕЙ ДЛЯ ГОЛЕНИЩ ОБУВИ.. ПОДОШВА ЛИТЬЕВОГО МЕТОДА КРЕПЛЕНИЯ: ОДНОСЛОЙНЫЙ ПОЛИУРЕТАН (ПУ). В БАЗОВЫХ МОДЕЛЯХ УСТАНОВЛЕН УСИЛЕННЫЙ ПОДНОСОК. ЗАЩИТНЫЕ СВОЙСТВА ПОДОШВЫ: ЗАЩИТА ОТ НЕФТИ, НЕФТЕПРОДУКТОВ, КИСЛОТ, ЩЕЛОЧЕЙ, НЕТОКСИЧНОЙ ПЫЛИ. ТЕРМОСТОЙКОСТЬ: ДО +45С, МОРОЗОСТОЙКОСТЬ ДО -20С. СФЕРА ПРИМЕНЕНИЯ: БОТИНКИ С ВЫСОКИМИ БЕРЦАМИ РЕКОМЕНДУЮТСЯ ДЛЯ СОТРУДНИКОВ ОХРАННЫХ ПРЕДПРИЯТИЙ, А ТАК ЖЕ УНИВЕРСАЛЬНЫ ДЛЯ ДРУГИХ ВИДОВ ПРОИЗВОДСТВ. ВЫСОТА ОБУВИ 210 ММ РАЗМЕРЫ С 38 ПО 46 ВКЛЮЧИТЕЛЬНО";s:6:"parent";s:2:"71";s:4:"durl";s:76:"obuv-marki-roverboots/letnyaya-obuv/botinki-s-vysokim-bertsem-yuft-kirza-ms7";s:4:"dtxt";s:1095:"Материал верха: кожа юфтевая для верха обуви хромового дубления, термоустойчивая &#43; материал из прорезиненных тканей для голенищ обуви.. Подошва литьевого метода крепления: однослойный полиуретан &#40;ПУ&#41;. В базовых моделях установлен усиленный подносок. Защитные свойства подошвы: защита от нефти, нефтепродуктов, кислот, щелочей, нетоксичной пыли. Термостойкость: до &#43;45С, морозостойкость до -20С. Сфера применения: ботинки с высокими берцами рекомендуются для сотрудников охранных предприятий, а так же универсальны для других видов производств. Высота обуви 210 мм Размеры с 38 по 46 включительно";s:4:"dpic";s:13:"/475/9862.jpg";s:11:"preview_pic";s:13:"/f64/9862.jpg";s:4:"bxid";s:6:"202071";s:5:"alias";s:40:"botinki-s-vysokim-bertsem-yuft-kirza-ms7";s:7:"section";s:5:"11727";s:5:"title";s:0:"";s:11:"description";s:0:"";s:8:"keywords";s:0:"";s:5:"price";s:1:"0";s:9:"old-price";s:1:"0";}i:7;a:20:{s:2:"id";s:4:"1636";s:3:"act";s:1:"Y";s:9:"prod_type";s:0:"";s:4:"name";s:76:"Ботинки с высоким берцем (юфть-кордура)МС7";s:3:"art";s:29:"БотМС7_Ю-КОРДУРА";s:4:"sort";s:3:"100";s:6:"search";s:1081:"БОТИНКИ С ВЫСОКИМ БЕРЦЕМ (ЮФТЬ-КОРДУРА)МС7

МАТЕРИАЛ ВЕРХА: КОЖА ЮФТЕВАЯ ДЛЯ ВЕРХА ОБУВИ ХРОМОВОГО ДУБЛЕНИЯ, ТЕРМОУСТОЙЧИВАЯ + КОРДУРА. ПОДОШВА ЛИТЬЕВОГО МЕТОДА КРЕПЛЕНИЯ: ОДНОСЛОЙНЫЙ ПОЛИУРЕТАН (ПУ). В БАЗОВЫХ МОДЕЛЯХ УСТАНОВЛЕН УСИЛЕННЫЙ ПОДНОСОК. ЗАЩИТНЫЕ СВОЙСТВА ПОДОШВЫ: ЗАЩИТА ОТ НЕФТИ, НЕФТЕПРОДУКТОВ, КИСЛОТ, ЩЕЛОЧЕЙ, НЕТОКСИЧНОЙ ПЫЛИ. ТЕРМОСТОЙКОСТЬ: ДО +45°С, МОРОЗОСТОЙКОСТЬ ДО -20°С. СФЕРА ПРИМЕНЕНИЯ: БОТИНКИ С ВЫСОКИМИ БЕРЦАМИ РЕКОМЕНДУЮТСЯ ДЛЯ СОТРУДНИКОВ ОХРАННЫХ ПРЕДПРИЯТИЙ, А ТАКЖЕ УНИВЕРСАЛЬНЫ ДЛЯ ДРУГИХ ВИДОВ ПРОИЗВОДСТВ. ВЫСОТА ОБУВИ 210 ММ РАЗМЕРЫ С 38 ПО 46 ВКЛЮЧИТЕЛЬНО";s:6:"parent";s:2:"71";s:4:"durl";s:78:"obuv-marki-roverboots/letnyaya-obuv/botinki-s-vysokim-bertsem-yuft-kordura-ms7";s:4:"dtxt";s:1017:"Материал верха: кожа юфтевая для верха обуви хромового дубления, термоустойчивая &#43; кордура. Подошва литьевого метода крепления: однослойный полиуретан &#40;ПУ&#41;. В базовых моделях установлен усиленный подносок. Защитные свойства подошвы: защита от нефти, нефтепродуктов, кислот, щелочей, нетоксичной пыли. Термостойкость: до &#43;45°С, морозостойкость до -20°С. Сфера применения: ботинки с высокими берцами рекомендуются для сотрудников охранных предприятий, а также универсальны для других видов производств. Высота обуви 210 мм Размеры с 38 по 46 включительно";s:4:"dpic";s:13:"/391/9867.jpg";s:11:"preview_pic";s:13:"/435/9867.jpg";s:4:"bxid";s:6:"202072";s:5:"alias";s:42:"botinki-s-vysokim-bertsem-yuft-kordura-ms7";s:7:"section";s:5:"11727";s:5:"title";s:0:"";s:11:"description";s:0:"";s:8:"keywords";s:0:"";s:5:"price";s:1:"0";s:9:"old-price";s:1:"0";}i:8;a:20:{s:2:"id";s:4:"1637";s:3:"act";s:1:"N";s:9:"prod_type";s:0:"";s:4:"name";s:59:"Ботинки с высоким берцем МС14 (МП)";s:3:"art";s:16:"БотМС14МП";s:4:"sort";s:3:"100";s:6:"search";s:1605:"БОТИНКИ С ВЫСОКИМ БЕРЦЕМ МС14 (МП)

МАТЕРИАЛ ВЕРХА: КОЖА ЮФТЕВАЯ ДЛЯ ВЕРХА ОБУВИ ХРОМОВОГО ДУБЛЕНИЯ, ТЕРМОУСТОЙЧИВАЯ ПОДОШВА ЛИТЬЕВОГО МЕТОДА КРЕПЛЕНИЯ: ОДНОСЛОЙНЫЙ ПОЛИУРЕТАН (ПУ); УСТАНОВЛЕН МЕТАЛЛИЧЕСКИЙ ПОДНОСКА (МУН 200). ЗАЩИТНЫЕ СВОЙСТВА ПОДОШВЫ: ЗАЩИТА ОТ НЕФТИ, НЕФТЕПРОДУКТОВ, КИСЛОТ, ЩЕЛОЧЕЙ, НЕТОКСИЧНОЙ ПЫЛИ. САМООЧИЩАЮЩИЙСЯ ПРОТЕКТОР С АНТИСКОЛЬЗЯЩИМ ПОКРЫТИЕМ. ТЕРМОСТОЙКОСТЬ В ЗАВИСИМОСТИ ОТ ВИДА НАКЛАДКИ: ПРИ ХОДЬБЕ +130С С НАКЛАДКОЙ ИЗ ТЕРМОСТОЙКОЙ НЕПОРИСТОЙ РЕЗИНЫ ДО +200С, В СТАТИЧЕСКОМ ПОЛОЖЕНИИ +100С, МОРОЗОСТОЙКОСТЬ ДО -45С. СФЕРА ПРИМЕНЕНИЯ: БОТИНКИ С ВЫСОКИМИ БЕРЦАМИ РЕКОМЕНДУЮТСЯ ДЛЯ СОТРУДНИКОВ ОХРАННЫХ ПРЕДПРИЯТИЙ,А ТАК ЖЕ УНИВЕРСАЛЬНЫ ДЛЯ ДРУГИХ ВИДОВ ПРОИЗВОДСТВ. КОНСТРУКЦИЯ ЗАГОТОВКИ ТИПА КОНВЕРТ (С НАСТРОЧЕННЫМИ БЕРЦАМИ) ПОЗВОЛЯЕТ ИСПОЛЬЗОВАНИЕ ДАННОЙ ОБУВИ ЛЮДЬМИ С РАЗЛИЧНЫМИ ВЗЪЕМАМИ СТОПЫ. ВЫСОТА ОБУВИ 230 ММ РАЗМЕРЫ С 38 ПО 47 ВКЛЮЧИТЕЛЬНО";s:6:"parent";s:2:"71";s:4:"durl";s:69:"obuv-marki-roverboots/letnyaya-obuv/botinki-s-vysokim-bertsem-ms14-mp";s:4:"dtxt";s:1578:"Материал верха: кожа юфтевая для верха обуви хромового дубления, термоустойчивая Подошва литьевого метода крепления: однослойный полиуретан &#40;ПУ&#41;; Установлен металлический подноска &#40;МУН 200&#41;. Защитные свойства подошвы: защита от нефти, нефтепродуктов, кислот, щелочей, нетоксичной пыли. Самоочищающийся протектор с антискользящим покрытием. Термостойкость в зависимости от вида накладки: при ходьбе &#43;130С с накладкой из термостойкой непористой резины до &#43;200С, в статическом положении &#43;100С, морозостойкость до -45С. Сфера применения: ботинки с высокими берцами рекомендуются для сотрудников охранных предприятий,а так же универсальны для других видов производств. Конструкция заготовки типа конверт &#40;с настроченными берцами&#41; позволяет использование данной обуви людьми с различными взъемами стопы. Высота обуви 230 мм Размеры с 38 по 47 включительно";s:4:"dpic";s:14:"/a85/13614.jpg";s:11:"preview_pic";s:14:"/3f4/13614.jpg";s:4:"bxid";s:6:"202073";s:5:"alias";s:33:"botinki-s-vysokim-bertsem-ms14-mp";s:7:"section";s:5:"11727";s:5:"title";s:0:"";s:11:"description";s:0:"";s:8:"keywords";s:0:"";s:5:"price";s:1:"0";s:9:"old-price";s:1:"0";}i:9;a:20:{s:2:"id";s:4:"1638";s:3:"act";s:1:"Y";s:9:"prod_type";s:0:"";s:4:"name";s:52:"Ботинки с высоким берцем МС14";s:3:"art";s:12:"БотМС14";s:4:"sort";s:3:"100";s:6:"search";s:1609:"БОТИНКИ С ВЫСОКИМ БЕРЦЕМ МС14

МАТЕРИАЛ ВЕРХА: КОЖА ЮФТЕВАЯ ДЛЯ ВЕРХА ОБУВИ ХРОМОВОГО ДУБЛЕНИЯ, ТЕРМОУСТОЙЧИВАЯ ПОДОШВА ЛИТЬЕВОГО МЕТОДА КРЕПЛЕНИЯ: ОДНОСЛОЙНЫЙ ПОЛИУРЕТАН (ПУ); В БАЗОВЫХ МОДЕЛЯХ УСТАНОВЛЕН УСИЛЕННЫЙ ПОДНОСОК ЗАЩИТНЫЕ СВОЙСТВА ПОДОШВЫ: ЗАЩИТА ОТ НЕФТИ, НЕФТЕПРОДУКТОВ, КИСЛОТ, ЩЕЛОЧЕЙ, НЕТОКСИЧНОЙ ПЫЛИ. САМООЧИЩАЮЩИЙСЯ ПРОТЕКТОР С АНТИСКОЛЬЗЯЩИМ ПОКРЫТИЕМ. ТЕРМОСТОЙКОСТЬ В ЗАВИСИМОСТИ ОТ ВИДА НАКЛАДКИ: ПРИ ХОДЬБЕ +130С С НАКЛАДКОЙ ИЗ ТЕРМОСТОЙКОЙ НЕПОРИСТОЙ РЕЗИНЫ ДО +200С, В СТАТИЧЕСКОМ ПОЛОЖЕНИИ +100С, МОРОЗОСТОЙКОСТЬ ДО -45С. СФЕРА ПРИМЕНЕНИЯ: БОТИНКИ С ВЫСОКИМИ БЕРЦАМИ РЕКОМЕНДУЮТСЯ ДЛЯ СОТРУДНИКОВ ОХРАННЫХ ПРЕДПРИЯТИЙ,А ТАК ЖЕ УНИВЕРСАЛЬНЫ ДЛЯ ДРУГИХ ВИДОВ ПРОИЗВОДСТВ. КОНСТРУКЦИЯ ЗАГОТОВКИ ТИПА КОНВЕРТ (С НАСТРОЧЕННЫМИ БЕРЦАМИ) ПОЗВОЛЯЕТ ИСПОЛЬЗОВАНИЕ ДАННОЙ ОБУВИ ЛЮДЬМИ С РАЗЛИЧНЫМИ ВЗЪЕМАМИ СТОПЫ. ВЫСОТА ОБУВИ 230 ММ РАЗМЕРЫ С 38 ПО 47 ВКЛЮЧИТЕЛЬНО";s:6:"parent";s:2:"71";s:4:"durl";s:66:"obuv-marki-roverboots/letnyaya-obuv/botinki-s-vysokim-bertsem-ms14";s:4:"dtxt";s:1581:"Материал верха: кожа юфтевая для верха обуви хромового дубления, термоустойчивая Подошва литьевого метода крепления: однослойный полиуретан &#40;ПУ&#41;; В базовых моделях установлен усиленный подносок Защитные свойства подошвы: защита от нефти, нефтепродуктов, кислот, щелочей, нетоксичной пыли. Самоочищающийся протектор с антискользящим покрытием. Термостойкость в зависимости от вида накладки: при ходьбе &#43;130С с накладкой из термостойкой непористой резины до &#43;200С, в статическом положении &#43;100С, морозостойкость до -45С. Сфера применения: ботинки с высокими берцами рекомендуются для сотрудников охранных предприятий,а так же универсальны для других видов производств. Конструкция заготовки типа конверт &#40;с настроченными берцами&#41; позволяет использование данной обуви людьми с различными взъемами стопы. Высота обуви 230 мм Размеры с 38 по 47 включительно";s:4:"dpic";s:13:"/246/9359.jpg";s:11:"preview_pic";s:13:"/244/9359.jpg";s:4:"bxid";s:6:"207190";s:5:"alias";s:30:"botinki-s-vysokim-bertsem-ms14";s:7:"section";s:5:"11727";s:5:"title";s:0:"";s:11:"description";s:0:"";s:8:"keywords";s:0:"";s:5:"price";s:1:"0";s:9:"old-price";s:1:"0";}i:10;a:20:{s:2:"id";s:4:"1639";s:3:"act";s:1:"Y";s:9:"prod_type";s:0:"";s:4:"name";s:52:"Ботинки с высоким берцем МС31";s:3:"art";s:12:"БотМС31";s:4:"sort";s:3:"100";s:6:"search";s:1040:"БОТИНКИ С ВЫСОКИМ БЕРЦЕМ МС31

МАТЕРИАЛ ВЕРХА: КОЖА ЮФТЕВАЯ ДЛЯ ВЕРХА ОБУВИ ХРОМОВОГО ДУБЛЕНИЯ, ТЕРМОУСТОЙЧИВАЯ. ПОДОШВА ЛИТЬЕВОГО МЕТОДА КРЕПЛЕНИЯ: ОДНОСЛОЙНЫЙ ПОЛИУРЕТАН (ПУ). В БАЗОВЫХ МОДЕЛЯХ УСТАНОВЛЕН УСИЛЕННЫЙ ПОДНОСОК. ЗАЩИТНЫЕ СВОЙСТВА ПОДОШВЫ: ЗАЩИТА ОТ НЕФТИ, НЕФТЕПРОДУКТОВ, КИСЛОТ, ЩЕЛОЧЕЙ, НЕТОКСИЧНОЙ ПЫЛИ. ТЕРМОСТОЙКОСТЬ: ДО +45°С, МОРОЗОСТОЙКОСТЬ ДО -20°С. СФЕРА ПРИМЕНЕНИЯ: БОТИНКИ С ВЫСОКИМИ БЕРЦАМИ РЕКОМЕНДУЮТСЯ ДЛЯ СОТРУДНИКОВ ОХРАННЫХ ПРЕДПРИЯТИЙ, А ТАКЖЕ УНИВЕРСАЛЬНЫ ДЛЯ ДРУГИХ ВИДОВ ПРОИЗВОДСТВ. ВЫСОТА ОБУВИ 210 ММ РАЗМЕРЫ С 38 ПО 46 ВКЛЮЧИТЕЛЬНО";s:6:"parent";s:2:"71";s:4:"durl";s:66:"obuv-marki-roverboots/letnyaya-obuv/botinki-s-vysokim-bertsem-ms31";s:4:"dtxt";s:996:"Материал верха: кожа юфтевая для верха обуви хромового дубления, термоустойчивая. Подошва литьевого метода крепления: однослойный полиуретан &#40;ПУ&#41;. В базовых моделях установлен усиленный подносок. Защитные свойства подошвы: защита от нефти, нефтепродуктов, кислот, щелочей, нетоксичной пыли. Термостойкость: до &#43;45°С, морозостойкость до -20°С. Сфера применения: ботинки с высокими берцами рекомендуются для сотрудников охранных предприятий, а также универсальны для других видов производств. Высота обуви 210 мм Размеры с 38 по 46 включительно";s:4:"dpic";s:13:"/a01/7753.jpg";s:11:"preview_pic";s:13:"/828/7753.jpg";s:4:"bxid";s:6:"202077";s:5:"alias";s:30:"botinki-s-vysokim-bertsem-ms31";s:7:"section";s:5:"11727";s:5:"title";s:0:"";s:11:"description";s:0:"";s:8:"keywords";s:0:"";s:5:"price";s:1:"0";s:9:"old-price";s:1:"0";}i:11;a:20:{s:2:"id";s:4:"1640";s:3:"act";s:1:"N";s:9:"prod_type";s:0:"";s:4:"name";s:45:"Ботинки сварщика МС16 (МП)";s:3:"art";s:16:"БотМС16МП";s:4:"sort";s:3:"100";s:6:"search";s:1732:"БОТИНКИ СВАРЩИКА МС16 (МП)

МАТЕРИАЛ ВЕРХА: КОЖА ЮФТЕВАЯ ДЛЯ ВЕРХА ОБУВИ ХРОМОВОГО ДУБЛЕНИЯ, ТЕРМОУСТОЙЧИВАЯ ПОДОШВА ЛИТЬЕВОГО МЕТОДА КРЕПЛЕНИЯ: ПОЛИУРЕТАН (ПУ) С НАКЛАДКОЙ ИЗ НЕПОРИСТОЙ РЕЗИНЫ. УСТАНОВЛЕН МЕТАЛЛИЧЕСКИЙ ПОДНОСОК (МУН 200). ПОДСЛАДКА - СУКНО ИЛИ Х/Б ТКАНЬ. ДОПОЛНИТЕЛЬНАЯ ЗАЩИТА: ГЛУХОЙ КЛАПАН ДОПОЛНИТЕЛЬНОГО ЗАКРЫТ НАКЛАДКОЙ (НАРУЖНЫМ ЯЗЫКОМ), ЧТО ИСКЛЮЧАЕТ ПОПАДАНИЕ ВНУТРЬ МЕЛКИХ ПРЕДМЕТОВ, ОКАЛИНЫ, БРЫЗГ, ПЫЛИ. МЯГКИЙ КАНТ ЗАЩИЩАЕТ ОТ БОКОВЫХ УДАРОВ. ЗАЩИТНЫЕ СВОЙСТВА ПОДОШВЫ: САМООЧИЩАЮЩИЙСЯ ПРОТЕКТОР С АНТИСКОЛЬЗЯЩИМ ПОКРЫТИЕМ. ТЕРМОСТОЙКОСТЬ ПРИ ХОДЬБЕ С НАКЛАДКАМИ ИЗ ТЕРМОСТОЙКОЙ НЕПОРИСТОЙ РЕЗИНЫ ДО +200С, В СТАТИЧЕСКОМ ПОЛОЖЕНИИ +100С, МОРОЗОСТОЙКОСТЬ ДО -45С. СФЕРА ПРИМЕНЕНИЯ: БОТИНКИ РЕКОМЕНДУЮТСЯ ДЛЯ ПРЕДПРИЯТИЯ МЕТАЛЛООБРАБОТКИ, СУДОРЕМОНТА, СТРОИТЕЛЬСТВА И ДРУГИХ ОТРАСЛЕЙ, РАЗРАБОТАНЫ ДЛЯ РАБОЧИХ СПЕЦИАЛЬНОСТЕЙ, СВЯЗАННЫХ С ВОЗДЕЙСТВИЕМ ПОВЫШЕННЫХ ТЕМПЕРАТУТ. ВЫСОТА ОБУВИ 120 ММ РАЗМЕРЫ С 40 ПО 47 ВКЛЮЧИТЕЛЬНО";s:6:"parent";s:2:"71";s:4:"durl";s:63:"obuv-marki-roverboots/letnyaya-obuv/botinki-svarshchika-ms16-mp";s:4:"dtxt";s:1715:"Материал верха: кожа юфтевая для верха обуви хромового дубления, термоустойчивая Подошва литьевого метода крепления: полиуретан &#40;ПУ&#41; с накладкой из непористой резины. Установлен металлический подносок &#40;МУН 200&#41;. Подсладка - сукно или х/б ткань. Дополнительная защита: глухой клапан дополнительного закрыт накладкой &#40;наружным языком&#41;, что исключает попадание внутрь мелких предметов, окалины, брызг, пыли. Мягкий кант защищает от боковых ударов. Защитные свойства подошвы: Самоочищающийся протектор с антискользящим покрытием. Термостойкость при ходьбе с накладками из термостойкой непористой резины до &#43;200С, в статическом положении &#43;100С, морозостойкость до -45С. Сфера применения: ботинки рекомендуются для предприятия металлообработки, судоремонта, строительства и других отраслей, разработаны для рабочих специальностей, связанных с воздействием повышенных температут. Высота обуви 120 мм Размеры с 40 по 47 включительно";s:4:"dpic";s:14:"/7cb/10159.jpg";s:11:"preview_pic";s:14:"/78d/10159.jpg";s:4:"bxid";s:6:"202078";s:5:"alias";s:27:"botinki-svarshchika-ms16-mp";s:7:"section";s:5:"11727";s:5:"title";s:0:"";s:11:"description";s:0:"";s:8:"keywords";s:0:"";s:5:"price";s:1:"0";s:9:"old-price";s:1:"0";}i:12;a:20:{s:2:"id";s:4:"1641";s:3:"act";s:1:"N";s:9:"prod_type";s:0:"";s:4:"name";s:44:"Полуботинки рабочие МС24";s:3:"art";s:12:"ПолМС24";s:4:"sort";s:3:"100";s:6:"search";s:1132:"ПОЛУБОТИНКИ РАБОЧИЕ МС24

МАТЕРИАЛ ВЕРХА: КОЖА ЮФТЕВАЯ ДЛЯ ВЕРХА ОБУВИ ХРОМОВОГО ДУБЛЕНИЯ, ТЕРМОУСТОЙЧИВАЯ ПОДОШВА ЛИТЬЕВОГО МЕТОДА КРЕПЛЕНИЯ: ОДНОСЛОЙНЫЙ ПОЛИУРЕТАН (ПУ). В БАЗОВЫХ МОДЕЛЯХ УСТАНОВЛЕН УСИЛЕННЫЙ ПОДНОСОК. ЗАЩИТНЫЕ СВОЙСТВА ПОДОШВЫ: ЗАЩИТА ОТ НЕФТИ, НЕФТЕПРОДУКТОВ, КИСЛОТ, ЩЕЛОЧЕЙ, НЕТОКСИЧНОЙ ПЫЛИ. ТЕРМОСТОЙКОСТЬ: ДО +45С, МОРОЗОСТОЙКОСТЬ ДО -20С. СФЕРА ПРИМЕНЕНИЯ: ПОЛУБОТИНКИ РЕКОМЕНДОВАНЫ ДЛЯ ЗАЩИТЫ ОТ ОБЩЕПРОИЗВОДСТВЕННЫХ ЗАГРЯЗНЕНИЙ, МЕХАНИЧЕСКИХ ВОЗДЕЙСТВИЙ И АГРЕССИВНЫХ СРЕД. ОТЛИЧНАЯ МОДЕЛЬ ДЛЯ ИНЖЕНЕРНО-ТЕХНИЧЕСКОГО ПЕРСОНАЛА ПРЕДПРИЯТИЙ. ВЫСОТА ОБУВИ 70 ММ РАЗМЕРЫ С 38 ПО 46 ВКЛЮЧИТЕЛЬНО";s:6:"parent";s:2:"71";s:4:"durl";s:61:"obuv-marki-roverboots/letnyaya-obuv/polubotinki-rabochie-ms24";s:4:"dtxt";s:1096:"Материал верха: кожа юфтевая для верха обуви хромового дубления, термоустойчивая Подошва литьевого метода крепления: однослойный полиуретан &#40;ПУ&#41;. В базовых моделях установлен усиленный подносок. Защитные свойства подошвы: защита от нефти, нефтепродуктов, кислот, щелочей, нетоксичной пыли. Термостойкость: до &#43;45С, морозостойкость до -20С. Сфера применения: полуботинки рекомендованы для защиты от общепроизводственных загрязнений, механических воздействий и агрессивных сред. Отличная модель для инженерно-технического персонала предприятий. Высота обуви 70 мм Размеры с 38 по 46 включительно";s:4:"dpic";s:13:"/398/7443.jpg";s:11:"preview_pic";s:13:"/6c1/7443.jpg";s:4:"bxid";s:6:"202079";s:5:"alias";s:25:"polubotinki-rabochie-ms24";s:7:"section";s:5:"11727";s:5:"title";s:0:"";s:11:"description";s:0:"";s:8:"keywords";s:0:"";s:5:"price";s:1:"0";s:9:"old-price";s:1:"0";}i:13;a:20:{s:2:"id";s:4:"1642";s:3:"act";s:1:"Y";s:9:"prod_type";s:0:"";s:4:"name";s:44:"Полуботинки рабочие МС69";s:3:"art";s:12:"ПолМС69";s:4:"sort";s:3:"100";s:6:"search";s:1207:"ПОЛУБОТИНКИ РАБОЧИЕ МС69

МАТЕРИАЛ ВЕРХА: КОЖА ЮФТЕВАЯ ДЛЯ ВЕРХА ОБУВИ ХРОМОВОГО ДУБЛЕНИЯ, ТЕРМОУСТОЙЧИВАЯ ПОДОШВА ЛИТЬЕВОГО МЕТОДА КРЕПЛЕНИЯ: ОДНОСЛОЙНЫЙ ПОЛИУРЕТАН; ЗАЩИТНЫЕ СВОЙСТВА ПОДОШВЫ: ЗАЩИТА ОТ НЕФТИ, НЕФТЕПРОДУКТОВ, КИСЛОТ, ЩЕЛОЧЕЙ, НЕТОКСИЧНОЙ ПЫЛИ, САМООЧИЩАЮЩИЙСЯ ПРОТЕКТОР. ТЕРМОСТОЙКОСТЬ В ЗАВИСИМОСТИ ОТ ВИДА НАКЛАДКИ: ПРИ ХОДЬБЕ +130С, В СТАТИЧЕСКОМ ПОЛОЖЕНИИ +100С, МОРОЗОСТОЙКОСТЬ ДО -45С. СФЕРА ПРИМЕНЕНИЯ: ПОЛУБОТИНКИ РЕКОМЕНДУЮТСЯ ДЛЯ НЕФТЕГАЗОВОГО КОМПЛЕКСА, МЕТАЛЛУРГИИ, ПИЩЕВОЙ ПРОМЫШЛЕННОСТИ, СТРОИТЕЛЬНОГО КОМПЛЕКСА, СЕЛЬСКОГО ХОЗЯЙСТВА, ГОРНОДОБЫВАЮЩЕЙ И ХИМИЧЕСКОЙ ПРОМЫШЛЕННОСТИ. ВЫСОТА ОБУВИ 84 ММ РАЗМЕРЫ С 35 ПО 46 ВКЛЮЧИТЕЛЬНО";s:6:"parent";s:2:"71";s:4:"durl";s:61:"obuv-marki-roverboots/letnyaya-obuv/polubotinki-rabochie-ms69";s:4:"dtxt";s:1167:"Материал верха: кожа юфтевая для верха обуви хромового дубления, термоустойчивая Подошва литьевого метода крепления: однослойный полиуретан; Защитные свойства подошвы: защита от нефти, нефтепродуктов, кислот, щелочей, нетоксичной пыли, самоочищающийся протектор. Термостойкость в зависимости от вида накладки: при ходьбе &#43;130С, в статическом положении &#43;100С, морозостойкость до -45С. Сфера применения: полуботинки рекомендуются для нефтегазового комплекса, металлургии, пищевой промышленности, строительного комплекса, сельского хозяйства, горнодобывающей и химической промышленности. Высота обуви 84 мм Размеры с 35 по 46 включительно";s:4:"dpic";s:13:"/736/7898.jpg";s:11:"preview_pic";s:13:"/ea5/7898.jpg";s:4:"bxid";s:6:"202080";s:5:"alias";s:25:"polubotinki-rabochie-ms69";s:7:"section";s:5:"11727";s:5:"title";s:0:"";s:11:"description";s:0:"";s:8:"keywords";s:0:"";s:5:"price";s:1:"0";s:9:"old-price";s:1:"0";}i:14;a:20:{s:2:"id";s:4:"1643";s:3:"act";s:1:"N";s:9:"prod_type";s:0:"";s:4:"name";s:78:"Полуботинки рабочие с МП и перфорацией МС62";s:3:"art";s:12:"СанМС62";s:4:"sort";s:3:"100";s:6:"search";s:1410:"ПОЛУБОТИНКИ РАБОЧИЕ С МП И ПЕРФОРАЦИЕЙ МС62

МАТЕРИАЛ ВЕРХА: КОЖА ЮФТЕВАЯ ДЛЯ ВЕРХА ОБУВИ ХРОМОВОГО ДУБЛЕНИЯ, ТЕРМОУСТОЙЧИВАЯ. ПОДОШВА ЛИТЬЕВОГО МЕТОДА КРЕПЛЕНИЯ: ПУ - ОДНОСЛОЙНАЯ ПОДОШВА ИЗ ПОЛИУРЕТАНА; УСТАНОВЛЕН МЕТАЛЛИЧЕСКИЙ ПОДНОСКА (МУН 200). ЗАЩИТНЫЕ СВОЙСТВА ПОДОШВЫ: ЗАЩИТА ОТ НЕФТИ, НЕФТЕПРОДУКТОВ, КИСЛОТ, ЩЕЛОЧЕЙ, НЕТОКСИЧНОЙ ПЫЛИ. ТЕРМОСТОЙКОСТЬ В ЗАВИСИМОСТИ ОТ ВИДА НАКЛАДКИ: ПРИ ХОДЬБЕ +130°С, С НАКЛАДКОЙ ИЗ ТЕРМОСТОЙКОЙ НЕПОРИСТОЙ РЕЗИНЫ ДО +200°С; В СТАТИЧЕСКОМ ПОЛОЖЕНИИ +100°С, МОРОЗОСТОЙКОСТЬ ДО -45°С. СФЕРА ПРИМЕНЕНИЯ: ПОЛУБОТИНКИ РЕКОМЕНДОВАНЫ ДЛЯ ЗАЩИТЫ ОТ ОБЩЕПРОИЗВОДСТВЕННЫХ ЗАГРЯЗНЕНИЙ, МЕХАНИЧЕСКИХ ВОЗДЕЙСТВИЙ И АГРЕССИВНЫХ СРЕД. ОТЛИЧНАЯ МОДЕЛЬ ДЛЯ ИНЖЕНЕРНО-ТЕХНИЧЕСКОГО ПЕРСОНАЛА ПРЕДПРИЯТИЙ. ВЫСОТА ОБУВИ 84 ММ РАЗМЕРЫ С 38 ПО 46 ВКЛЮЧИТЕЛЬНО";s:6:"parent";s:2:"71";s:4:"durl";s:81:"obuv-marki-roverboots/letnyaya-obuv/polubotinki-rabochie-s-mp-i-perforatsiey-ms62";s:4:"dtxt";s:1348:"Материал верха: кожа юфтевая для верха обуви хромового дубления, термоустойчивая. Подошва литьевого метода крепления: ПУ - однослойная подошва из полиуретана; Установлен металлический подноска &#40;МУН 200&#41;. Защитные свойства подошвы: защита от нефти, нефтепродуктов, кислот, щелочей, нетоксичной пыли. Термостойкость в зависимости от вида накладки: при ходьбе &#43;130°С, с накладкой из термостойкой непористой резины до &#43;200°С; в статическом положении &#43;100°С, морозостойкость до -45°С. Сфера применения: полуботинки рекомендованы для защиты от общепроизводственных загрязнений, механических воздействий и агрессивных сред. Отличная модель для инженерно-технического персонала предприятий. Высота обуви 84 мм Размеры с 38 по 46 включительно";s:4:"dpic";s:14:"/c07/15775.jpg";s:11:"preview_pic";s:14:"/70e/15775.jpg";s:4:"bxid";s:6:"202081";s:5:"alias";s:45:"polubotinki-rabochie-s-mp-i-perforatsiey-ms62";s:7:"section";s:5:"11727";s:5:"title";s:0:"";s:11:"description";s:0:"";s:8:"keywords";s:0:"";s:5:"price";s:1:"0";s:9:"old-price";s:1:"0";}i:15;a:20:{s:2:"id";s:4:"1644";s:3:"act";s:1:"Y";s:9:"prod_type";s:0:"";s:4:"name";s:103:"Полуботинки рабочие с перфорацией (сандалии) МС28 облегч.";s:3:"art";s:12:"СанМС28";s:4:"sort";s:3:"100";s:6:"search";s:1359:"ПОЛУБОТИНКИ РАБОЧИЕ С ПЕРФОРАЦИЕЙ (САНДАЛИИ) МС28 ОБЛЕГЧ.

МАТЕРИАЛ ВЕРХА: КОЖА ЮФТЕВАЯ ДЛЯ ВЕРХА ОБУВИ ХРОМОВОГО ДУБЛЕНИЯ, ТЕРМОУСТОЙЧИВАЯ ПОДОШВА ЛИТЬЕВОГО МЕТОДА КРЕПЛЕНИЯ: ПОЛИУРЕТАН (ПУ). В БАЗОВЫХ МОДЕЛЯХ УСТАНОВЛЕН УСИЛЕННЫЙ ПОДНОСОК. ЗАЩИТНЫЕ СВОЙСТВА ПОДОШВЫ: ЗАЩИТА ОТ НЕФТИ, НЕФТЕПРОДУКТОВ, КИСЛОТ, ЩЕЛОЧЕЙ, НЕТОКСИЧНОЙ ПЫЛИ. ТЕРМОСТОЙКОСТЬ: ДО +45С, МОРОЗОСТОЙКОСТЬ ДО -20С. СФЕРА ПРИМЕНЕНИЯ: МОДЕЛЬ РЕКОМЕНДОВАНА ДЛЯ РАБОТНИКОВ ЧИСТЫХ ПРОИЗВОДСТВ, СКЛАДСКИХ ХОЗЯЙСТВ, А ТАК ЖЕ ДЛЯ ИНЖЕНЕРНО-ТЕХНИЧЕСКИХ И АДМИНИСТРАТИВНЫХ РАБОТНИКОВ. ФИКСАЦИЯ НА НОГЕ ОСУЩЕСТВЛЯЕТСЯ С ПОМОЩЬЮ ПОДЪЕМНОГО РЕМНЯ, А ПЕРФОРАЦИЯ НА ДЕТАЛЯХ ПОЗВОЛЯЕТ ОСУЩЕСТВИТЬ ВЕНТИЛЯЦИЮ ВНУТРИОБУВНОГО ПРОСТРАНСТВА. ВЫСОТА МОДЕЛИ 66 ММ РАЗМЕРЫ С 38 ПО 46 ВКЛЮЧИТЕЛЬНО";s:6:"parent";s:2:"71";s:4:"durl";s:93:"obuv-marki-roverboots/letnyaya-obuv/polubotinki-rabochie-s-perforatsiey-sandalii-ms28-oblegch";s:4:"dtxt";s:1264:"Материал верха: кожа юфтевая для верха обуви хромового дубления, термоустойчивая Подошва литьевого метода крепления: полиуретан &#40;ПУ&#41;. В базовых моделях установлен усиленный подносок. Защитные свойства подошвы: защита от нефти, нефтепродуктов, кислот, щелочей, нетоксичной пыли. Термостойкость: до &#43;45С, морозостойкость до -20С. Сфера применения: модель рекомендована для работников чистых производств, складских хозяйств, а так же для инженерно-технических и административных работников. Фиксация на ноге осуществляется с помощью подъемного ремня, а перфорация на деталях позволяет осуществить вентиляцию внутриобувного пространства. Высота модели 66 мм Размеры с 38 по 46 включительно";s:4:"dpic";s:14:"/770/10228.jpg";s:11:"preview_pic";s:14:"/bb9/10228.jpg";s:4:"bxid";s:6:"202082";s:5:"alias";s:57:"polubotinki-rabochie-s-perforatsiey-sandalii-ms28-oblegch";s:7:"section";s:5:"11727";s:5:"title";s:0:"";s:11:"description";s:0:"";s:8:"keywords";s:0:"";s:5:"price";s:1:"0";s:9:"old-price";s:1:"0";}i:16;a:20:{s:2:"id";s:4:"1645";s:3:"act";s:1:"Y";s:9:"prod_type";s:0:"";s:4:"name";s:89:"Полуботинки рабочие с перфорацией (сандалии) МС68";s:3:"art";s:12:"СанМС68";s:4:"sort";s:3:"100";s:6:"search";s:1227:"ПОЛУБОТИНКИ РАБОЧИЕ С ПЕРФОРАЦИЕЙ (САНДАЛИИ) МС68

МАТЕРИАЛ ВЕРХА: КОЖА ЮФТЕВАЯ ДЛЯ ВЕРХА ОБУВИ ХРОМОВОГО ДУБЛЕНИЯ, ТЕРМОУСТОЙЧИВАЯ ПОДОШВА ЛИТЬЕВОГО МЕТОДА КРЕПЛЕНИЯ: ОДНОСЛОЙНЫЙ ПОЛИУРЕТАН; ЗАЩИТНЫЕ СВОЙСТВА ПОДОШВЫ: ЗАЩИТА ОТ НЕФТИ, НЕФТЕПРОДУКТОВ, КИСЛОТ, ЩЕЛОЧЕЙ, НЕТОКСИЧНОЙ ПЫЛИ. ТЕРМОСТОЙКОСТЬ В ЗАВИСИМОСТИ ОТ ВИДА НАКЛАДКИ: ПРИ ХОДЬБЕ +130С, В СТАТИЧЕСКОМ ПОЛОЖЕНИИ +100С, МОРОЗОСТОЙКОСТЬ ДО -45С. СФЕРА ПРИМЕНЕНИЯ: ПОЛУБОТИНКИ С ПЕРФОРАЦИЕЙ РЕКОМЕНДУЮТСЯ ДЛЯ НЕФТЕГАЗОВОГО КОМПЛЕКСА, МЕТАЛЛУРГИИ, ПИЩЕВОЙ ПРОМЫШЛЕННОСТИ, СТРОИТЕЛЬНОГО КОМПЛЕКСА, СЕЛЬСКОГО ХОЗЯЙСТВА, ГОРНОДОБЫВАЮЩЕЙ И ХИМИЧЕСКОЙ ПРОМЫШЛЕННОСТИ. ВЫСОТА ОБУВИ 80 ММ РАЗМЕРЫ С 35 ПО 46 ВКЛЮЧИТЕЛЬНО";s:6:"parent";s:2:"71";s:4:"durl";s:85:"obuv-marki-roverboots/letnyaya-obuv/polubotinki-rabochie-s-perforatsiey-sandalii-ms68";s:4:"dtxt";s:1142:"Материал верха: кожа юфтевая для верха обуви хромового дубления, термоустойчивая Подошва литьевого метода крепления: однослойный полиуретан; Защитные свойства подошвы: защита от нефти, нефтепродуктов, кислот, щелочей, нетоксичной пыли. Термостойкость в зависимости от вида накладки: при ходьбе &#43;130С, в статическом положении &#43;100С, морозостойкость до -45С. Сфера применения: полуботинки с перфорацией рекомендуются для нефтегазового комплекса, металлургии, пищевой промышленности, строительного комплекса, сельского хозяйства, горнодобывающей и химической промышленности. Высота обуви 80 мм Размеры с 35 по 46 включительно";s:4:"dpic";s:13:"/bb1/7264.jpg";s:11:"preview_pic";s:13:"/499/7264.jpg";s:4:"bxid";s:6:"202083";s:5:"alias";s:49:"polubotinki-rabochie-s-perforatsiey-sandalii-ms68";s:7:"section";s:5:"11727";s:5:"title";s:0:"";s:11:"description";s:0:"";s:8:"keywords";s:0:"";s:5:"price";s:1:"0";s:9:"old-price";s:1:"0";}i:17;a:20:{s:2:"id";s:4:"1646";s:3:"act";s:1:"Y";s:9:"prod_type";s:0:"";s:4:"name";s:38:"Сапоги литейщика (МП)";s:3:"art";s:17:"СапМС38_МП";s:4:"sort";s:3:"100";s:6:"search";s:1918:"САПОГИ ЛИТЕЙЩИКА (МП)

МАТЕРИАЛ ВЕРХА: КОЖА ЮФТЕВАЯ ДЛЯ ВЕРХА ОБУВИ ХРОМОВОГО ДУБЛЕНИЯ, ТЕРМОУСТОЙЧИВАЯ ПОДОШВА ЛИТЬЕВОГО МЕТОДА КРЕПЛЕНИЯ: ПОЛИУРЕТАН (ПУ) С НАКЛАДКОЙ ИЗ НЕПОРИСТОЙ РЕЗИНЫ. УСТАНОВЛЕН МЕТАЛЛИЧЕСКИЙ ПОДНОСОК (МУН200). ПОДКЛАДКА - СУКНО ДОПОЛНИТЕЛЬНАЯ ЗАЩИТА: КОЖАНОЕ ГОЛЕНИЩЕ ПО ВЕРХУ СТЯНУТО ШИРОКОЙ ЭЛАСТИЧОЙ ЛЕНТОЙ ДЛЯ ПРЕДОТВРАЩЕНИЯ ПОПАДАНИЯ ИСКР И БРЫЗГ РАСПЛАВЛЕННОГО МЕТАЛЛА, ОКАЛИНЫ ВНУТРЬ ОБУВИ. МАНЖЕТА СНАБЖЕНА СПЕЦИАЛЬНЫМИ КОЖАННЫМИ НАКЛАДКАМИ ДЛЯ УДОБСТВА НАДЕВАНИЯ ОБУВИ. ЗАЩИТНЫЕ СВОЙСТВА ПОДОШВЫ: ЗАЩИТА ОТ НЕФТИ, НЕФТЕПРОДУКТОВ, КИСЛОТ, ЩЕЛОЧЕЙ, НЕТОКСИЧНОЙ ПЫЛИ. САМООЧИЩАЮЩИЙСЯ ПРОТЕКТОР С АНТИСКОЛЬЗЯЩИМ ПОКРЫТИЕМ. ТЕРМОСТОЙКОСТЬ ПРИ ХОДЬБЕ С НАКЛАДКОЙ ИЗ ТЕРМОСТОЙКОЙ НЕПОРИСТОЙ РЕЗИНЫ ДО +200С, В СТАТИЧЕСКОМ ПОЛОЖЕНИИ +100С, МОРОЗОСТОЙКОСТЬ ДО -45С СФЕРА ПРИМЕНЕНИЯ: САПОГИ РЕКОМЕНДУЮТСЯ ДЛЯ ПРЕДПРИЯТИЙ МЕТАЛЛООБРАБОТКИ, СУДОРЕМОНТА, СТРОИТЕЛЬСТВА И ДРУГИХ ОТРАСЛЕЙ, РАЗРАБОТАНЫ ДЛЯ РАБОЧИХ СПЕЦИАЛЬНОСТЕЙ, СВЯЗАННЫХ С ВОЗДЕЙСТВИЕМ ПОВЫШЕННЫХ ТЕМПЕРАТУР. ВЫСОТА ОБУВИ 260ММ РАЗМЕРЫ С 40 ПО 47 ВКЛЮЧИТЕЛЬНО.";s:6:"parent";s:2:"71";s:4:"durl";s:58:"obuv-marki-roverboots/letnyaya-obuv/sapogi-liteyshchika-mp";s:4:"dtxt";s:1900:"Материал верха: кожа юфтевая для верха обуви хромового дубления, термоустойчивая Подошва литьевого метода крепления: полиуретан &#40;ПУ&#41; с накладкой из непористой резины. Установлен металлический подносок &#40;МУН200&#41;. Подкладка - сукно Дополнительная защита: кожаное голенище по верху стянуто широкой эластичой лентой для предотвращения попадания искр и брызг расплавленного металла, окалины внутрь обуви. Манжета снабжена специальными кожанными накладками для удобства надевания обуви. Защитные свойства подошвы: защита от нефти, нефтепродуктов, кислот, щелочей, нетоксичной пыли. Самоочищающийся протектор с антискользящим покрытием. Термостойкость при ходьбе с накладкой из термостойкой непористой резины до &#43;200С, в статическом положении &#43;100С, морозостойкость до -45С Сфера применения: сапоги рекомендуются для предприятий металлообработки, судоремонта, строительства и других отраслей, разработаны для рабочих специальностей, связанных с воздействием повышенных температур. Высота обуви 260мм Размеры с 40 по 47 включительно.";s:4:"dpic";s:14:"/755/12014.jpg";s:11:"preview_pic";s:14:"/156/12014.jpg";s:4:"bxid";s:6:"202084";s:5:"alias";s:22:"sapogi-liteyshchika-mp";s:7:"section";s:5:"11727";s:5:"title";s:0:"";s:11:"description";s:0:"";s:8:"keywords";s:0:"";s:5:"price";s:1:"0";s:9:"old-price";s:1:"0";}i:18;a:20:{s:2:"id";s:4:"1647";s:3:"act";s:1:"Y";s:9:"prod_type";s:0:"";s:4:"name";s:34:"Сапоги рабочие МС26";s:3:"art";s:12:"СапМС26";s:4:"sort";s:3:"100";s:6:"search";s:1286:"САПОГИ РАБОЧИЕ МС26

МАТЕРИАЛ ВЕРХА: КОЖА ЮФТЕВАЯ ДЛЯ ВЕРХА ОБУВИ ХРОМОВОГО ДУБЛЕНИЯ, ТЕРМОУСТОЙЧИВАЯ, МАТЕРИАЛ ИЗ ПРОРЕЗИНЕННЫХ ТКАНЕЙ ДЛЯ ГОЛЕНИЩ ОБУВИ. ПОДОШВА ЛИТЬЕВОГО МЕТОДА КРЕПЛЕНИЯ: ОДНОСЛОЙНЫЙ ПОЛИУРЕТАН (ПУ); В БАЗОВЫХ МОДЕЛЯХ - УСИЛЕННЫЙ ПОДНОСОК ЗАЩИТНЫЕ СВОЙСТВА ПОДОШВЫ: ЗАЩИТА ОТ НЕФТИ, НЕФТЕПРОДУКТОВ, КИСЛОТ, ЩЕЛОЧЕЙ, НЕТОКСИЧНОЙ ПЫЛИ. САМООЧИЩАЮЩИЙСЯ ПРОТЕКТОР С АНТИСКОЛЬЗЯЩИМ ПОКРЫТИЕМ. ТЕРМОСТОЙКОСТЬ В ЗАВИСИМОСТИ ОТ ВИДА НАКЛАДКИ: ПРИ ХОДЬБЕ +130С, С НАКЛАДКАМИ ИЗ ТЕРМОСТОЙКОЙ НЕПОРИСТОЙ РЕЗИНЫ ДО +200С; В СТАТИЧЕСКОМ ПОЛОЖЕНИИ +100С, МОРОЗОСТОЙКОСТЬ ДО -45С. СФЕРА ПРИМЕНЕНИЯ: РЕКОМЕНДУЕТСЯ ДЛЯ НЕФТЕГАЗОВОГО КОМПЛЕКСА, МЕТАЛЛУРГИИ. ВЫСОТА ОБУВИ 330 ММ РАЗМЕРЫ С 38 ПО 47 ВКЛЮЧИТЕЛЬНО";s:6:"parent";s:2:"71";s:4:"durl";s:56:"obuv-marki-roverboots/letnyaya-obuv/sapogi-rabochie-ms26";s:4:"dtxt";s:1268:"Материал верха: кожа юфтевая для верха обуви хромового дубления, термоустойчивая, материал из прорезиненных тканей для голенищ обуви. Подошва литьевого метода крепления: однослойный полиуретан &#40;ПУ&#41;; В базовых моделях - усиленный подносок Защитные свойства подошвы: защита от нефти, нефтепродуктов, кислот, щелочей, нетоксичной пыли. Самоочищающийся протектор с антискользящим покрытием. Термостойкость в зависимости от вида накладки: при ходьбе &#43;130С, с накладками из термостойкой непористой резины до &#43;200С; в статическом положении &#43;100С, морозостойкость до -45С. Сфера применения: рекомендуется для нефтегазового комплекса, металлургии. Высота обуви 330 мм Размеры с 38 по 47 включительно";s:4:"dpic";s:13:"/a16/7265.jpg";s:11:"preview_pic";s:13:"/b4a/7265.jpg";s:4:"bxid";s:6:"202085";s:5:"alias";s:20:"sapogi-rabochie-ms26";s:7:"section";s:5:"11727";s:5:"title";s:0:"";s:11:"description";s:0:"";s:8:"keywords";s:0:"";s:5:"price";s:1:"0";s:9:"old-price";s:1:"0";}i:19;a:20:{s:2:"id";s:4:"1648";s:3:"act";s:1:"Y";s:9:"prod_type";s:0:"";s:4:"name";s:45:"Сапоги рабочие МС26-1М (МП)";s:3:"art";s:16:"СапМС26_1М";s:4:"sort";s:3:"100";s:6:"search";s:1305:"САПОГИ РАБОЧИЕ МС26-1М (МП)

МАТЕРИАЛ ВЕРХА: КОЖА ЮФТЕВАЯ ДЛЯ ВЕРХА ОБУВИ ХРОМОВОГО ДУБЛЕНИЯ, ТЕРМОУСТОЙЧИВАЯ, МАТЕРИАЛ ИЗ ПРОРЕЗИНЕННЫХ ТКАНЕЙ ДЛЯ ГОЛЕНИЩ ОБУВИ. ПОДОШВА ЛИТЬЕВОГО МЕТОДА КРЕПЛЕНИЯ: ОДНОСЛОЙНЫЙ ПОЛИУРЕТАН (ПУ); УСТАНОВЛЕН МЕТАЛЛИЧЕСКИЙ ПОДНОСОК (МУН 200). ЗАЩИТНЫЕ СВОЙСТВА ПОДОШВЫ: ЗАЩИТА ОТ НЕФТИ, НЕФТЕПРОДУКТОВ, КИСЛОТ, ЩЕЛОЧЕЙ, НЕТОКСИЧНОЙ ПЫЛИ. САМООЧИЩАЮЩИЙСЯ ПРОТЕКТОР С АНТИСКОЛЬЗЯЩИМ ПОКРЫТИЕМ. ТЕРМОСТОЙКОСТЬ В ЗАВИСИМОСТИ ОТ ВИДА НАКЛАДКИ: ПРИ ХОДЬБЕ +130С, С НАКЛАДКАМИ ИЗ ТЕРМОСТОЙКОЙ НЕПОРИСТОЙ РЕЗИНЫ ДО +200С; В СТАТИЧЕСКОМ ПОЛОЖЕНИИ +100С, МОРОЗОСТОЙКОСТЬ ДО -45С. СФЕРА ПРИМЕНЕНИЯ: РЕКОМЕНДУЕТСЯ ДЛЯ НЕФТЕГАЗОВОГО КОМПЛЕКСА, МЕТАЛЛУРГИИ. ВЫСОТА ОБУВИ 330 ММ РАЗМЕРЫ С 38 ПО 47 ВКЛЮЧИТЕЛЬНО";s:6:"parent";s:2:"71";s:4:"durl";s:62:"obuv-marki-roverboots/letnyaya-obuv/sapogi-rabochie-ms26-1m-mp";s:4:"dtxt";s:1284:"Материал верха: кожа юфтевая для верха обуви хромового дубления, термоустойчивая, материал из прорезиненных тканей для голенищ обуви. Подошва литьевого метода крепления: однослойный полиуретан &#40;ПУ&#41;; Установлен металлический подносок &#40;МУН 200&#41;. Защитные свойства подошвы: защита от нефти, нефтепродуктов, кислот, щелочей, нетоксичной пыли. Самоочищающийся протектор с антискользящим покрытием. Термостойкость в зависимости от вида накладки: при ходьбе &#43;130С, с накладками из термостойкой непористой резины до &#43;200С; в статическом положении &#43;100С, морозостойкость до -45С. Сфера применения: рекомендуется для нефтегазового комплекса, металлургии. Высота обуви 330 мм Размеры с 38 по 47 включительно";s:4:"dpic";s:13:"/be0/9221.jpg";s:11:"preview_pic";s:13:"/3c5/9221.jpg";s:4:"bxid";s:6:"202086";s:5:"alias";s:26:"sapogi-rabochie-ms26-1m-mp";s:7:"section";s:5:"11727";s:5:"title";s:0:"";s:11:"description";s:0:"";s:8:"keywords";s:0:"";s:5:"price";s:1:"0";s:9:"old-price";s:1:"0";}i:20;a:20:{s:2:"id";s:4:"1649";s:3:"act";s:1:"Y";s:9:"prod_type";s:0:"";s:4:"name";s:34:"Сапоги рабочие МС35";s:3:"art";s:16:"СапМС35_1Г";s:4:"sort";s:3:"100";s:6:"search";s:1289:"САПОГИ РАБОЧИЕ МС35

МАТЕРИАЛ ВЕРХА: КОЖА ЮФТЕВАЯ ДЛЯ ВЕРХА ОБУВИ ХРОМОВОГО ДУБЛЕНИЯ, ТЕРМОУСТОЙЧИВАЯ, МАТЕРИАЛ ИЗ ПРОРЕЗИНЕННЫХ ТКАНЕЙ ДЛЯ ГОЛЕНИЩ ОБУВИ. ПОДОШВА ЛИТЬЕВОГО МЕТОДА КРЕПЛЕНИЯ: А) ОДНОСЛОЙНЫЙ ПОЛИУРЕТАН (ПУ); В БАЗОВЫХ МОДЕЛЯХ - УСИЛЕННЫЙ ПОДНОСОК, ЗАЩИТНЫЕ СВОЙСТВА ПОДОШВЫ: ЗАЩИТА ОТ НЕФТИ, НЕФТЕПРОДУКТОВ, КИСЛОТ, ЩЕЛОЧЕЙ, НЕТОКСИЧНОЙ ПЫЛИ. САМООЧИЩАЮЩИЙСЯ ПРОТЕКТОР С АНТИСКОЛЬЗЯЩИМ ПОКРЫТИЕМ. ТЕРМОСТОЙКОСТЬ В ЗАВИСИМОСТИ ОТ ВИДА НАКЛАДКИ: ПРИ ХОДЬБЕ +130С, С НАКЛАДКОЙ ИЗ ТЕРМОСТОЙКОЙ НЕПОРИСТОЙ РЕЗИНЫ ДО +200С, В СТАТИЧЕСКОМ ПОЛОЖЕНИИ +100С, МОРОЗОСТОЙКОСТЬ ДО -45С. СФЕРА ПРИМЕНЕНИЯ: РЕКОМЕНДУЕТСЯ ДЛЯ НЕФТЕГАЗОВОГО КОМПЛЕКСА, МЕТАЛЛУРГИИ. ВЫСОТА ОБУВИ 260 ММ РАЗМЕРЫ С 38 ПО 47 ВКЛЮЧИТЕЛЬНО";s:6:"parent";s:2:"71";s:4:"durl";s:56:"obuv-marki-roverboots/letnyaya-obuv/sapogi-rabochie-ms35";s:4:"dtxt";s:1275:"Материал верха: кожа юфтевая для верха обуви хромового дубления, термоустойчивая, материал из прорезиненных тканей для голенищ обуви. Подошва литьевого метода крепления: а&#41; однослойный полиуретан &#40;ПУ&#41;; В базовых моделях - усиленный подносок, Защитные свойства подошвы: защита от нефти, нефтепродуктов, кислот, щелочей, нетоксичной пыли. Самоочищающийся протектор с антискользящим покрытием. Термостойкость в зависимости от вида накладки: при ходьбе &#43;130С, с накладкой из термостойкой непористой резины до &#43;200С, в статическом положении &#43;100С, морозостойкость до -45С. Сфера применения: рекомендуется для нефтегазового комплекса, металлургии. Высота обуви 260 мм Размеры с 38 по 47 включительно";s:4:"dpic";s:13:"/e29/7278.jpg";s:11:"preview_pic";s:13:"/1ca/7278.jpg";s:4:"bxid";s:6:"202087";s:5:"alias";s:20:"sapogi-rabochie-ms35";s:7:"section";s:5:"11727";s:5:"title";s:0:"";s:11:"description";s:0:"";s:8:"keywords";s:0:"";s:5:"price";s:1:"0";s:9:"old-price";s:1:"0";}i:21;a:20:{s:2:"id";s:4:"1650";s:3:"act";s:1:"Y";s:9:"prod_type";s:0:"";s:4:"name";s:45:"Сапоги рабочие МС35-1М (МП)";s:3:"art";s:16:"СапМС35_1М";s:4:"sort";s:3:"100";s:6:"search";s:1302:"САПОГИ РАБОЧИЕ МС35-1М (МП)

МАТЕРИАЛ ВЕРХА: КОЖА ЮФТЕВАЯ ДЛЯ ВЕРХА ОБУВИ ХРОМОВОГО ДУБЛЕНИЯ, ТЕРМОУСТОЙЧИВАЯ, МАТЕРИАЛ ИЗ ПРОРЕЗИНЕННЫХ ТКАНЕЙ ДЛЯ ГОЛЕНИЩ ОБУВИ. ПОДОШВА ЛИТЬЕВОГО МЕТОДА КРЕПЛЕНИЯ: ОДНОСЛОЙНЫЙ ПОЛИУРЕТАН (ПУ); УСТАНОВЛЕН МЕТАЛЛИЧЕСКИЙ ПОДНОСОК (МУН 200) ЗАЩИТНЫЕ СВОЙСТВА ПОДОШВЫ: ЗАЩИТА ОТ НЕФТИ, НЕФТЕПРОДУКТОВ, КИСЛОТ, ЩЕЛОЧЕЙ, НЕТОКСИЧНОЙ ПЫЛИ. САМООЧИЩАЮЩИЙСЯ ПРОТЕКТОР С АНТИСКОЛЬЗЯЩИМ ПОКРЫТИЕМ. ТЕРМОСТОЙКОСТЬ В ЗАВИСИМОСТИ ОТ ВИДА НАКЛАДКИ: ПРИ ХОДЬБЕ +130С, С НАКЛАДКОЙ ИЗ ТЕРМОСТОЙКОЙ НЕПОРИСТОЙ РЕЗИНЫ ДО +200С, В СТАТИЧЕСКОМ ПОЛОЖЕНИИ +100С, МОРОЗОСТОЙКОСТЬ ДО -45С. СФЕРА ПРИМЕНЕНИЯ: РЕКОМЕНДУЕТСЯ ДЛЯ НЕФТЕГАЗОВОГО КОМПЛЕКСА, МЕТАЛЛУРГИИ. ВЫСОТА ОБУВИ 260 ММ РАЗМЕРЫ С 38 ПО 47 ВКЛЮЧИТЕЛЬНО";s:6:"parent";s:2:"71";s:4:"durl";s:62:"obuv-marki-roverboots/letnyaya-obuv/sapogi-rabochie-ms35-1m-mp";s:4:"dtxt";s:1281:"Материал верха: кожа юфтевая для верха обуви хромового дубления, термоустойчивая, материал из прорезиненных тканей для голенищ обуви. Подошва литьевого метода крепления: однослойный полиуретан &#40;ПУ&#41;; Установлен металлический подносок &#40;МУН 200&#41; Защитные свойства подошвы: защита от нефти, нефтепродуктов, кислот, щелочей, нетоксичной пыли. Самоочищающийся протектор с антискользящим покрытием. Термостойкость в зависимости от вида накладки: при ходьбе &#43;130С, с накладкой из термостойкой непористой резины до &#43;200С, в статическом положении &#43;100С, морозостойкость до -45С. Сфера применения: рекомендуется для нефтегазового комплекса, металлургии. Высота обуви 260 мм Размеры с 38 по 47 включительно";s:4:"dpic";s:13:"/598/9629.jpg";s:11:"preview_pic";s:13:"/a45/9629.jpg";s:4:"bxid";s:6:"202088";s:5:"alias";s:26:"sapogi-rabochie-ms35-1m-mp";s:7:"section";s:5:"11727";s:5:"title";s:0:"";s:11:"description";s:0:"";s:8:"keywords";s:0:"";s:5:"price";s:1:"0";s:9:"old-price";s:1:"0";}i:22;a:20:{s:2:"id";s:4:"1651";s:3:"act";s:1:"Y";s:9:"prod_type";s:0:"";s:4:"name";s:77:"Сапоги рабочие МС35-1ЮТ (цельноюфтевые, ТПУ)";s:3:"art";s:18:"СапМС35_1ЮТ";s:4:"sort";s:3:"100";s:6:"search";s:1300:"САПОГИ РАБОЧИЕ МС35-1ЮТ (ЦЕЛЬНОЮФТЕВЫЕ, ТПУ)

МАТЕРИАЛ ВЕРХА: КОЖА ЮФТЕВАЯ ДЛЯ ВЕРХА ОБУВИ ХРОМОВОГО ДУБЛЕНИЯ, ТЕРМОУСТОЙЧИВАЯ ПОДОШВА ЛИТЬЕВОГО МЕТОДА КРЕПЛЕНИЯ: ПУ+ТПУ - ДВОЙНАЯ ПОДОШВА: ПОЛИУРЕТАН+НАКЛАДКА ИЗ ТЕРМОПОЛИУРЕТАНА; В БАЗОВЫХ МОДЕЛЯХ - УСИЛЕННЫЙ ПОДНОСОК ЗАЩИТНЫЕ СВОЙСТВА ПОДОШВЫ: ЗАЩИТА ОТ НЕФТИ, НЕФТЕПРОДУКТОВ, КИСЛОТ, ЩЕЛОЧЕЙ, НЕТОКСИЧНОЙ ПЫЛИ. САМООЧИЩАЮЩИЙСЯ ПРОТЕКТОР С АНТИСКОЛЬЗЯЩИМ ПОКРЫТИЕМ. ТЕРМОСТОЙКОСТЬ В ЗАВИСИМОСТИ ОТ ВИДА НАКЛАДКИ: ПРИ ХОДЬБЕ +130С, С НАКЛАДКОЙ ИЗ ТЕРМОСТОЙКОЙ НЕПОРИСТОЙ РЕЗИНЫ ДО +200С, В СТАТИЧЕСКОМ ПОЛОЖЕНИИ +100С, МОРОЗОСТОЙКОСТЬ ДО -45С. СФЕРА ПРИМЕНЕНИЯ: РЕКОМЕНДУЕТСЯ ДЛЯ НЕФТЕГАЗОВОГО КОМПЛЕКСА, МЕТАЛЛУРГИИ. ВЫСОТА ОБУВИ 260 ММ РАЗМЕРЫ С 38 ПО 47 ВКЛЮЧИТЕЛЬНО";s:6:"parent";s:2:"71";s:4:"durl";s:80:"obuv-marki-roverboots/letnyaya-obuv/sapogi-rabochie-ms35-1yut-tselnoyuftevye-tpu";s:4:"dtxt";s:1239:"Материал верха: кожа юфтевая для верха обуви хромового дубления, термоустойчивая Подошва литьевого метода крепления: ПУ&#43;ТПУ - двойная подошва: полиуретан&#43;накладка из термополиуретана; В базовых моделях - усиленный подносок Защитные свойства подошвы: защита от нефти, нефтепродуктов, кислот, щелочей, нетоксичной пыли. Самоочищающийся протектор с антискользящим покрытием. Термостойкость в зависимости от вида накладки: при ходьбе &#43;130С, с накладкой из термостойкой непористой резины до &#43;200С, в статическом положении &#43;100С, морозостойкость до -45С. Сфера применения: рекомендуется для нефтегазового комплекса, металлургии. Высота обуви 260 мм Размеры с 38 по 47 включительно";s:4:"dpic";s:14:"/a02/15421.jpg";s:11:"preview_pic";s:14:"/75a/15421.jpg";s:4:"bxid";s:6:"202089";s:5:"alias";s:44:"sapogi-rabochie-ms35-1yut-tselnoyuftevye-tpu";s:7:"section";s:5:"11727";s:5:"title";s:0:"";s:11:"description";s:0:"";s:8:"keywords";s:0:"";s:5:"price";s:1:"0";s:9:"old-price";s:1:"0";}i:23;a:20:{s:2:"id";s:4:"1652";s:3:"act";s:1:"Y";s:9:"prod_type";s:0:"";s:4:"name";s:49:"Сапоги рабочие МС59 женские";s:3:"art";s:12:"СапМС59";s:4:"sort";s:3:"100";s:6:"search";s:1201:"САПОГИ РАБОЧИЕ МС59 ЖЕНСКИЕ

МАТЕРИАЛ ВЕРХА: КОЖА ЮФТЕВАЯ ДЛЯ ВЕРХА ОБУВИ ХРОМОВОГО ДУБЛЕНИЯ, ТЕРМОУСТОЙЧИВАЯ, МАТЕРИАЛ ИЗ ПРОРЕЗИНЕННЫХ ТКАНЕЙ ДЛЯ ГОЛЕНИЩ ОБУВИ. ПОДОШВА ЛИТЬЕВОГО МЕТОДА КРЕПЛЕНИЯ: ОДНОСЛОЙНЫЙ ПОЛИУРЕТАН (ПУ); В БАЗОВЫХ МОДЕЛЯХ - УСИЛЕННЫЙ ПОДНОСОК. ЗАЩИТНЫЕ СВОЙСТВА ПОДОШВЫ: ЗАЩИТА ОТ НЕФТИ, НЕФТЕПРОДУКТОВ, КИСЛОТ, ЩЕЛОЧЕЙ, НЕТОКСИЧНОЙ ПЫЛИ. САМООЧИЩАЮЩИЙСЯ ПРОТЕКТОР С АНТИСКОЛЬЗЯЩИМ ПОКРЫТИЕМ. ТЕРМОСТОЙКОСТЬ В ЗАВИСИМОСТИ ОТ ВИДА НАКЛАДКИ: ПРИ ХОДЬБЕ +130С, В СТАТИЧЕСКОМ ПОЛОЖЕНИИ +100С, МОРОЗОСТОЙКОСТЬ ДО -45С. СФЕРА ПРИМЕНЕНИЯ: РЕКОМЕНДУЕТСЯ ДЛЯ НЕФТЕГАЗОВОГО КОМПЛЕКСА, МЕТАЛЛУРГИИ. ВЫСОТА ОБУВИ 260 ММ РАЗМЕРЫ С 35 ПО 40 ВКЛЮЧИТЕЛЬНО";s:6:"parent";s:2:"71";s:4:"durl";s:65:"obuv-marki-roverboots/letnyaya-obuv/sapogi-rabochie-ms59-zhenskie";s:4:"dtxt";s:1164:"Материал верха: кожа юфтевая для верха обуви хромового дубления, термоустойчивая, материал из прорезиненных тканей для голенищ обуви. Подошва литьевого метода крепления: однослойный полиуретан &#40;ПУ&#41;; В базовых моделях - усиленный подносок. Защитные свойства подошвы: защита от нефти, нефтепродуктов, кислот, щелочей, нетоксичной пыли. Самоочищающийся протектор с антискользящим покрытием. Термостойкость в зависимости от вида накладки: при ходьбе &#43;130С, в статическом положении &#43;100С, морозостойкость до -45С. Сфера применения: рекомендуется для нефтегазового комплекса, металлургии. Высота обуви 260 мм Размеры с 35 по 40 включительно";s:4:"dpic";s:14:"/761/10105.jpg";s:11:"preview_pic";s:14:"/18a/10105.jpg";s:4:"bxid";s:6:"202096";s:5:"alias";s:29:"sapogi-rabochie-ms59-zhenskie";s:7:"section";s:5:"11727";s:5:"title";s:0:"";s:11:"description";s:0:"";s:8:"keywords";s:0:"";s:5:"price";s:1:"0";s:9:"old-price";s:1:"0";}i:24;a:20:{s:2:"id";s:4:"1653";s:3:"act";s:1:"N";s:9:"prod_type";s:0:"";s:4:"name";s:41:"Стельки металлические";s:3:"art";s:10:"СтМет";s:4:"sort";s:3:"100";s:6:"search";s:316:"СТЕЛЬКИ МЕТАЛЛИЧЕСКИЕ

МЕТАЛЛИЧЕСКАЯ СТЕЛЬКА – ЭТО ЗАЩИТНЫЙ ЭЛЕМЕНТ В РАБОЧЕЙ ОБУВИ, ОБЕСПЕЧИВАЮЩИЙ ЗАЩИТУ СТОПЫ ОТ ПРОКОЛА ЛЮБЫМ ОСТРЫМ ПРЕДМЕТОМ УСИЛИЕМ НЕ МЕНЕЕ 1200Н. .";s:6:"parent";s:2:"71";s:4:"durl";s:57:"obuv-marki-roverboots/letnyaya-obuv/stelki-metallicheskie";s:4:"dtxt";s:271:"Металлическая стелька – это защитный элемент в рабочей обуви, обеспечивающий защиту стопы от прокола любым острым предметом усилием не менее 1200Н. .";s:4:"dpic";s:13:"/a27/9751.jpg";s:11:"preview_pic";s:13:"/637/9751.jpg";s:4:"bxid";s:6:"202098";s:5:"alias";s:21:"stelki-metallicheskie";s:7:"section";s:5:"11727";s:5:"title";s:0:"";s:11:"description";s:0:"";s:8:"keywords";s:0:"";s:5:"price";s:1:"0";s:9:"old-price";s:1:"0";}}}}s:8:"end_time";i:1565743132;}