a:2:{s:4:"data";a:7:{s:2:"id";s:2:"12";s:5:"alias";s:14:"golovnye-ubory";s:5:"title";s:0:"";s:4:"name";s:27:"головные уборы";s:6:"parent";s:1:"0";s:4:"prop";s:0:"";s:8:"children";a:2:{s:10:"categories";a:3:{i:0;a:6:{s:2:"id";s:2:"13";s:5:"alias";s:6:"letnie";s:5:"title";s:0:"";s:4:"name";s:12:"летние";s:6:"parent";s:2:"12";s:4:"prop";s:0:"";}i:1;a:6:{s:2:"id";s:2:"43";s:5:"alias";s:17:"zimnie-uteplennye";s:5:"title";s:0:"";s:4:"name";s:33:"зимние утепленные";s:6:"parent";s:2:"12";s:4:"prop";s:0:"";}i:2;a:6:{s:2:"id";s:2:"61";s:5:"alias";s:12:"podshlemniki";s:5:"title";s:0:"";s:4:"name";s:22:"подшлемники";s:6:"parent";s:2:"12";s:4:"prop";s:0:"";}}s:8:"products";a:29:{i:0;a:17:{s:2:"id";s:4:"1508";s:3:"act";s:1:"N";s:4:"name";s:56:"Подшлемник ватный двухслойный";s:3:"art";s:9:"Шап040";s:4:"sort";s:3:"100";s:6:"search";s:498:"ПОДШЛЕМНИК ВАТНЫЙ ДВУХСЛОЙНЫЙ
КЛАССИЧЕСКАЯ МОДЕЛЬ. ПРЕДНАЗНАЧЕНА ДЛЯ ЗАЩИТЫ ГОЛОВЫ ОТ ПОНИЖЕННЫХ ТЕМПЕРАТУР. РАЗМЕР РЕГУЛИРУЕТСЯ ШНУРОВКОЙ НА ЗАТЫЛОЧНОЙ ЧАСТИ. ТКАНЬ ДИАГОНАЛЬ (100% ХЛОПОК) ПЛ.200 Г/М ПЛ.200 Г/М2 ЦВЕТ: ЧЕРНЫЙ УТЕПЛИТЕЛЬ: ВАТИН ПЛ.280 Г/М2 ЗАЩИТНЫЕ СВОЙСТВА: ТН, З .";s:6:"parent";s:2:"61";s:4:"durl";s:61:"/golovnye-ubory/podshlemniki/podshlemnik-vatnyy-dvukhsloynyy/";s:4:"dtxt";s:452:"Классическая модель. Предназначена для защиты головы от пониженных температур. Размер регулируется шнуровкой на затылочной части. Ткань диагональ &#40;100&#37; хлопок&#41; пл.200 г/м пл.200 г/м2 Цвет: черный Утеплитель: ватин пл.280 г/м2 Защитные свойства: Тн, З .";s:4:"dpic";s:13:"/2a3/3696.jpg";s:11:"preview_pic";s:13:"/d85/3696.jpg";s:5:"alias";s:31:"podshlemnik-vatnyy-dvukhsloynyy";s:5:"title";s:0:"";s:11:"description";s:0:"";s:8:"keywords";s:0:"";s:5:"price";s:1:"0";s:9:"old-price";s:1:"0";}i:1;a:17:{s:2:"id";s:4:"1509";s:3:"act";s:1:"N";s:4:"name";s:75:"Подшлемник летний тк.диагональ цв.черный";s:3:"art";s:9:"Шап019";s:4:"sort";s:3:"100";s:6:"search";s:465:"ПОДШЛЕМНИК ЛЕТНИЙ ТК.ДИАГОНАЛЬ ЦВ.ЧЕРНЫЙ
КЛАССИЧЕСКАЯ МОДЕЛЬ ХОРОШО ЗАЩИЩАЕТ ГОЛОВУ. РАЗМЕР РЕГУЛИРУЕТСЯ ШНУРОВКОЙ НА ЗАТЫЛОЧНОЙ ЧАСТИ. КОМФОРТНЫЙ И ПРАКТИЧНЫЙ ЦВЕТ: ЧЕРНЫЙ МАТЕРИАЛЫ: ТКАНЬ ВЕРХА - Х/Б ДИАГОНАЛЬ, 100% ХЛОПОК, ПОДКЛАДКА ТК. БЯЗЬ, 100% ХЛОПОК .";s:6:"parent";s:2:"61";s:4:"durl";s:72:"/golovnye-ubory/podshlemniki/podshlemnik-letniy-tk-diagonal-tsv-chernyy/";s:4:"dtxt";s:396:"Классическая модель хорошо защищает голову. Размер регулируется шнуровкой на затылочной части. Комфортный и практичный Цвет: черный Материалы: Ткань верха - х/б диагональ, 100&#37; хлопок, подкладка тк. бязь, 100&#37; хлопок .";s:4:"dpic";s:14:"/34f/10343.jpg";s:11:"preview_pic";s:14:"/5f8/10343.jpg";s:5:"alias";s:42:"podshlemnik-letniy-tk-diagonal-tsv-chernyy";s:5:"title";s:0:"";s:11:"description";s:0:"";s:8:"keywords";s:0:"";s:5:"price";s:1:"0";s:9:"old-price";s:1:"0";}i:2;a:17:{s:2:"id";s:4:"1510";s:3:"act";s:1:"N";s:4:"name";s:39:"Подшлемник спилковый";s:3:"art";s:9:"Шап042";s:4:"sort";s:3:"100";s:6:"search";s:1483:"ПОДШЛЕМНИК СПИЛКОВЫЙ

ПОДШЛЕМНИК СПИЛКОВЫЙ С ПЕЛЕРИНОЙ ЯВЛЯЕТСЯ ИНДИВИДУАЛЬНЫМ СРЕДСТВОМ ЗАЩИТЫ ДЛЯ СВАРЩИКОВ ПРИ ВЫПОЛНЕНИИ ГАЗОВОЙ И ЭЛЕКТРОСВАРКИ. НОСИТСЯ ПОДШЛЕМНИК СПИЛКОВЫЙ ПОД КАСКИ СВАРОЧНЫЕ И ЩИТКИ ДЛЯ СВАРКИ. ПЕЛЕРИНА НАДЕЖНО ЗАКРЫВАЕТ ШЕЮ, И ПЛЕЧИ СВАРЩИКА И ЗАЩИЩАЕТ ОТ БРЫЗГ И ИСКР РАСПЛАВЛЕННОГО МЕТАЛЛА, ЗАСТЕГИВАЕТСЯ НА ДВЕ ПУГОВИЦЫ СПЕРЕДИ. ИЗГОТАВЛИВАЕТСЯ ПОДШЛЕМНИК ИЗ ОГНЕСТОЙКОГО ШЛИФОВАННОГО КОЖЕВЕННОГО СПИЛКА. МЯГКАЯ ПОДКЛАДКА ИЗ 100% БЯЗИ ОБЕСПЕЧИВАЕТ НАДЕЖНЫЙ КОМФОРТ И ТЕПЛОИЗОЛЯЩИЮ. БЛАГОДАРЯ ПОДШЛЕМНИКУ СПИЛКОВОМУ СВАРЩИК МОЖЕТ ВЫПОЛНЯТЬ РАБОТЫ КАК НА ЗАКРЫТЫХ, ТАК И НА ОТКРЫТЫХ ПРОИЗВОДСТВЕННЫХ И СТРОИТЕЛЬНЫХ ПЛОЩАДКАХ ПРИ ТЕМПЕРАТУРЕ ВОЗДУХА ДО - 40° С. - МАТЕРИАЛ ВЕРХА: СПИЛОК КОЖЕВЕННЫЙ - ТОЛЩИНА: 1,1-1,3 ММ - ЦВЕТ: ЧЕРНЫЙ, СЕРЫЙ, КОРИЧНЕВЫЙ - МАТЕРИАЛ ПОДКЛАДКИ: 100% ХЛОПОК";s:6:"parent";s:2:"61";s:4:"durl";s:51:"/golovnye-ubory/podshlemniki/podshlemnik-spilkovyy/";s:4:"dtxt";s:1448:"Подшлемник спилковый с пелериной является индивидуальным средством защиты для сварщиков при выполнении газовой и электросварки. Носится подшлемник спилковый под каски сварочные и щитки для сварки. Пелерина надежно закрывает шею, и плечи сварщика и защищает от брызг и искр расплавленного металла, застегивается на две пуговицы спереди. Изготавливается подшлемник из огнестойкого шлифованного кожевенного спилка. Мягкая подкладка из 100&#37; бязи обеспечивает надежный комфорт и теплоизолящию. Благодаря подшлемнику спилковому сварщик может выполнять работы как на закрытых, так и на открытых производственных и строительных площадках при температуре воздуха до - 40° С. - материал верха: спилок кожевенный - толщина: 1,1-1,3 мм - цвет: черный, серый, коричневый - материал подкладки: 100&#37; хлопок";s:4:"dpic";s:13:"/292/7229.jpg";s:11:"preview_pic";s:13:"/9ac/7229.jpg";s:5:"alias";s:21:"podshlemnik-spilkovyy";s:5:"title";s:0:"";s:11:"description";s:0:"";s:8:"keywords";s:0:"";s:5:"price";s:1:"0";s:9:"old-price";s:1:"0";}i:3;a:17:{s:2:"id";s:4:"1511";s:3:"act";s:1:"N";s:4:"name";s:60:"Подшлемник термостойкий FavoriT GEFEST";s:3:"art";s:11:"Шап00936";s:4:"sort";s:3:"100";s:6:"search";s:1483:"ПОДШЛЕМНИК ТЕРМОСТОЙКИЙ FAVORIT GEFEST
ПОДШЛЕМНИК ПОД КАСКУ, ДЛЯ ЗАЩИТЫ ГОЛОВЫ И ШЕИ ОТ БРЫЗГ РАСПЛАВЛЕННОГО МЕТАЛЛА И ВЫСОКОЙ ТЕМПЕРАТУРЫ. УНИВЕРСАЛЬНАЯ МОДЕЛЬ ДЛЯ НОШЕНИЯ ПОД ЗАЩИТНОЙ КАСКОЙ, ЩИТКОМ ДЛЯ ЭЛЕКТРОСВАРЩИКА, ЩИТКОМ ЗАЩИТНЫМ ЛИЦЕВЫМ. РАЗМЕРЫ 62-64, 64-66. МАТЕРИАЛ: ВОЙЛОК (100% ШЕРСТЬ), УСТОЙЧИВЫЙ К ИСКРАМ И БРЫЗГАМ РАСПЛАВЛЕННОГО МЕТАЛЛА, К ХИМИЧЕСКИМ ВЕЩЕСТВАМ, УСАДКЕ ПОСЛЕ СТИРКИ. ИСПОЛЬЗУЮТСЯ СПЕЦИАЛЬНЫЕ ТЕРМОСТОЙКИЕ НИТКИ. ПРИМЕНЕНИЕ: ДЛЯ РАБОТ У ДОМЕННЫХ, СТАЛЕПЛАВИЛЬНЫХ И ДРУГИХ ПРОМЫШЛЕННЫХ ПЕЧЕЙ, ДЛЯ ЗАЩИТЫ ГОЛОВЫ И ШЕИ ОТ БРЫЗГ РАСПЛАВЛЕННОГО МЕТАЛЛА И ВЫСОКОЙ ТЕМПЕРАТУРЫ, ЛУЧИСТОЙ И КОНВЕКТИВНОЙ ТЕПЛОТЫ, ИСТОЧНИКОВ ОТКРЫТОГО ПЛАМЕНИ, ВЫСОКИХ ТЕМПЕРАТУР НА ПРОМЫШЛЕННЫХ ПРЕДПРИЯТИЯХ. УНИВЕРСАЛЬАЯ МОДЕЛЬ ДЛЯ НОШЕНИЯ ПОД ЗАЩИТНОЙ КАСКОЙ, ЗАЩИТНЫМ ЩИТКОМ СВАРЩИКА, ЩИТКОМ ЗАЩИТНЫМ ЛИЦЕВЫМ.";s:6:"parent";s:2:"61";s:4:"durl";s:69:"/golovnye-ubory/podshlemniki/podshlemnik-termostoykiy-favorit-gefest/";s:4:"dtxt";s:1433:"Подшлемник под каску, для защиты головы и шеи от брызг расплавленного металла и высокой температуры. Универсальная модель для ношения под защитной каской, щитком для электросварщика, щитком защитным лицевым. Размеры 62-64, 64-66. Материал: войлок &#40;100&#37; шерсть&#41;, устойчивый к искрам и брызгам расплавленного металла, к химическим веществам, усадке после стирки. Используются специальные термостойкие нитки. ПРИМЕНЕНИЕ: для работ у доменных, сталеплавильных и других промышленных печей, для защиты головы и шеи от брызг расплавленного металла и высокой температуры, лучистой и конвективной теплоты, источников открытого пламени, высоких температур на промышленных предприятиях. универсальая модель для ношения под защитной каской, защитным щитком сварщика, щитком защитным лицевым.";s:4:"dpic";s:14:"/ea0/11473.jpg";s:11:"preview_pic";s:14:"/cb5/11473.jpg";s:5:"alias";s:39:"podshlemnik-termostoykiy-favorit-gefest";s:5:"title";s:0:"";s:11:"description";s:0:"";s:8:"keywords";s:0:"";s:5:"price";s:1:"0";s:9:"old-price";s:1:"0";}i:4;a:17:{s:2:"id";s:4:"1512";s:3:"act";s:1:"N";s:4:"name";s:64:"Подшлемник термостойкий FavoriT GEFEST LUX";s:3:"art";s:11:"Шап00934";s:4:"sort";s:3:"100";s:6:"search";s:1246:"ПОДШЛЕМНИК ТЕРМОСТОЙКИЙ FAVORIT GEFEST LUX
ПОДШЛЕМНИК УВЕЛИЧЕННОГО РАЗМЕРА ДЛЯ ЗАЩИТЫ ГОЛОВЫ, ШЕИ, ВЕРХНЕЙ ЧАСТИ ГРУДИ И СПИНЫ ОТ БРЫЗГ РАСПЛАВЛЕННОГО МЕТАЛЛА И ВЫСОКОЙ ТЕМПЕРАТУРЫ. МАТЕРИАЛ: ОГНЕЗАЩИТНАЯ ТКАНЬ С ПРОПИТКОЙ (100% ХЛОПОК) ДЛЯ СПЕЦОДЕЖДЫ (КОСТЮМЫ МЕТАЛЛУРГОВ, СВАРЩИКОВ, ПОЖАРНЫХ) РЕКОМЕНДУЕТСЯ ДЛЯ КОМПЛЕКСНОЙ ЗАЩИТЫ ЭНЕРГЕТИКОВ ОТ ОПАСНЫХ ВОЗДЕЙСТВИЙ ЭЛЕКТРОДУГИ, ИНТЕНСИВНОГО ТЕПЛОВОГО ИЗЛУЧЕНИЯ, ТВЕРДЫХ ЧАСТИЦ, БРЫЗГ И ИСКР РАСПЛАВЛЕННОГО МЕТАЛЛА, ВЫСОКОЙ ТЕМПЕРАТУРЫ, УДАРОВ И ПОРАЖЕНИЯ ЭЛЕКТРОТОКОМ НАПРЯЖЕНИЕМ 2200В. ПРИМЕНЯЕТСЯ СОВМЕСТНО С КАСКАМИ ТЕРМОСТОЙКИМИ СОМЗ-55 FAVORI®T TERMO И СОМЗ-55 FAVORI®T TERMO RAPID И ЩИТКАМИ ЗАЩИТНЫМИ ЛИЦЕВЫМИ С КРЕПЛЕНИЕМ НА КАСКЕ СЕРИИ КБТ ENERGO.";s:6:"parent";s:2:"61";s:4:"durl";s:73:"/golovnye-ubory/podshlemniki/podshlemnik-termostoykiy-favorit-gefest-lux/";s:4:"dtxt";s:1200:"Подшлемник увеличенного размера для защиты головы, шеи, верхней части груди и спины от брызг расплавленного металла и высокой температуры. Материал: огнезащитная ткань с пропиткой &#40;100&#37; хлопок&#41; для спецодежды &#40;костюмы металлургов, сварщиков, пожарных&#41; РЕКОМЕНДУЕТСЯ для комплексной защиты энергетиков от опасных воздействий электродуги, интенсивного теплового излучения, твердых частиц, брызг и искр расплавленного металла, высокой температуры, ударов и поражения электротоком напряжением 2200В. Применяется совместно с касками термостойкими СОМЗ-55 Favori®T Termo и СОМЗ-55 Favori®T Termo Rapid и щитками защитными лицевыми с креплением на каске серии КБТ ENERGO.";s:4:"dpic";s:14:"/8c5/12351.jpg";s:11:"preview_pic";s:14:"/75d/12351.jpg";s:5:"alias";s:43:"podshlemnik-termostoykiy-favorit-gefest-lux";s:5:"title";s:0:"";s:11:"description";s:0:"";s:8:"keywords";s:0:"";s:5:"price";s:1:"0";s:9:"old-price";s:1:"0";}i:5;a:17:{s:2:"id";s:4:"1513";s:3:"act";s:1:"N";s:4:"name";s:60:"Подшлемник трикотажный 1 слойный";s:3:"art";s:9:"Шап043";s:4:"sort";s:3:"100";s:6:"search";s:1403:"ПОДШЛЕМНИК ТРИКОТАЖНЫЙ 1 СЛОЙНЫЙ
ОДНОСЛОЙНЫЙ ТРИКОТАЖНЫЙ ПОДШЛЕМНИК ИЗ ШЕРСТИ И АКРИЛА ДЛЯ ЗАЩИТЫ ОТ ТЕМПЕРАТУРНЫХ, МЕХАНИЧЕСКИХ ВОЗДЕЙСТВИЙ И ЗАГРЯЗНЕНИЙ. СОСТАВ: 30% ШЕРСТЬ, 70% АКРИЛ ОСОБЕННОСТИ И ПРЕИМУЩЕСТВА: ТЕПЛАЯ СМЕСОВАЯ ПРЯЖА ОБЕСПЕЧИВАЕТ ОТЛИЧНУЮ ЗАЩИТУ ОТ ХОЛОДА УДОБНАЯ ФОРМА ЗАЩИЩАЕТ ОТ ВЕТРА И ПОПАДАНИЯ СНЕГА ПЕЛЕРИНА ВНИЗУ СОГРЕВАЕТ ШЕЮ ПРИМЕНЯЕТСЯ И В ВИДЕ ДОПОЛНИТЕЛЬНОЙ ЗАЩИТЫ ПОД КАСКУ И САМОСТОЯТЕЛЬНО ПРИ НИЗКИХ ТЕМПЕРАТУРАХ РЕКОМЕНДУЕТСЯ ОДЕВАТЬ ВМЕСТЕ С ТРИКОТАЖНОЙ ШАПКОЙ ИЛИ ШАПКОЙ-УШАНКОЙ ЛИЦЕВОЙ ВЫРЕЗ ПОДШЛЕМНИКА ОБРАБОТАН ТРИКОТАЖНОЙ РЕЗИНКОЙ ДЛЯ ИНДИВИДУАЛЬНОЙ РЕГУЛЯРОВКИ В ЗАВИСИМОСТИ ОТ ВНЕШНИХ ПОГОДНЫХ УСЛОВИЙ ШВЫ В ПОДШЛЕМНИКЕ ВЫПОЛНЕНЫ С УЧЕТОМ НОСКИ ПОДШЛЕМНИКА ПОД ЗАЩИТНОЙ КАСКОЙ ЗАЩИТНЫЕ СВОЙСТВА: ТН МИ З ГОСТ 30386-95";s:6:"parent";s:2:"61";s:4:"durl";s:64:"/golovnye-ubory/podshlemniki/podshlemnik-trikotazhnyy-1-sloynyy/";s:4:"dtxt";s:1349:"Однослойный трикотажный подшлемник из шерсти и акрила для защиты от температурных, механических воздействий и загрязнений. Состав: 30&#37; шерсть, 70&#37; акрил Особенности и преимущества: Теплая смесовая пряжа обеспечивает отличную защиту от холода Удобная форма защищает от ветра и попадания снега Пелерина внизу согревает шею Применяется и в виде дополнительной защиты под каску и самостоятельно При низких температурах рекомендуется одевать вместе с трикотажной шапкой или шапкой-ушанкой Лицевой вырез подшлемника обработан трикотажной резинкой для индивидуальной регуляровки в зависимости от внешних погодных условий Швы в подшлемнике выполнены с учетом носки подшлемника под защитной каской Защитные свойства: Тн Ми З ГОСТ 30386-95";s:4:"dpic";s:13:"/b90/7513.jpg";s:11:"preview_pic";s:13:"/034/7513.jpg";s:5:"alias";s:34:"podshlemnik-trikotazhnyy-1-sloynyy";s:5:"title";s:0:"";s:11:"description";s:0:"";s:8:"keywords";s:0:"";s:5:"price";s:1:"0";s:9:"old-price";s:1:"0";}i:6;a:17:{s:2:"id";s:4:"1514";s:3:"act";s:1:"N";s:4:"name";s:63:"Подшлемник трикотажный 2-х слойный";s:3:"art";s:9:"Шап041";s:4:"sort";s:3:"100";s:6:"search";s:543:"ПОДШЛЕМНИК ТРИКОТАЖНЫЙ 2-Х СЛОЙНЫЙ
ПОДШЛЕМНИК ТРИКОТАЖНЫЙ ПРЕДНАЗНАЧЕН ДЛЯ ЗАЩИТЫ ОТ ПОНИЖЕННЫХ ТЕМПЕРАТУР И МЕХАНИЧЕСКИХ ВОЗДЕЙСТВИЙ. ИСПОЛЬЗУЮТ ПОДШЛЕМНИК ПОД ЗАЩИТНУЮ КАСКУ ИЛИ БЕЗ НЕЁ. ЦВЕТ: ЧЕРНЫЙ ТКАНЬ: ТРИКОТАЖНОЕ ПОЛОТНО (70% АКРИЛ, 30% ШЕРСТЬ) ПЛ.320 Г/М2 ЗАЩИТНЫЕ СВОЙСТВА: ТН МИ З ГОСТ 30386-95 .";s:6:"parent";s:2:"61";s:4:"durl";s:67:"/golovnye-ubory/podshlemniki/podshlemnik-trikotazhnyy-2-kh-sloynyy/";s:4:"dtxt";s:494:"Подшлемник трикотажный предназначен для защиты от пониженных температур и механических воздействий. Используют подшлемник под защитную каску или без неё. Цвет: черный Ткань: трикотажное полотно &#40;70&#37; акрил, 30&#37; шерсть&#41; пл.320 г/м2 Защитные свойства: Тн Ми З ГОСТ 30386-95 .";s:4:"dpic";s:13:"/75c/3698.jpg";s:11:"preview_pic";s:13:"/346/3698.jpg";s:5:"alias";s:37:"podshlemnik-trikotazhnyy-2-kh-sloynyy";s:5:"title";s:0:"";s:11:"description";s:0:"";s:8:"keywords";s:0:"";s:5:"price";s:1:"0";s:9:"old-price";s:1:"0";}i:7;a:17:{s:2:"id";s:4:"1515";s:3:"act";s:1:"N";s:4:"name";s:49:"Подшлемник трикотажный х/б";s:3:"art";s:9:"Шап104";s:4:"sort";s:3:"100";s:6:"search";s:160:"ПОДШЛЕМНИК ТРИКОТАЖНЫЙ Х/Б
ЦВЕТ: БЕЛЫЙ ТКАНЬ: ТРИКОТАЖНОЕ ПОЛОТНО (100% ХЛОПОК) ГОСТ 1164-86 .";s:6:"parent";s:2:"61";s:4:"durl";s:59:"/golovnye-ubory/podshlemniki/podshlemnik-trikotazhnyy-kh-b/";s:4:"dtxt";s:121:"Цвет: белый Ткань: трикотажное полотно &#40;100&#37; хлопок&#41; ГОСТ 1164-86 .";s:4:"dpic";s:14:"/b56/14122.jpg";s:11:"preview_pic";s:14:"/96a/14122.jpg";s:5:"alias";s:29:"podshlemnik-trikotazhnyy-kh-b";s:5:"title";s:0:"";s:11:"description";s:0:"";s:8:"keywords";s:0:"";s:5:"price";s:1:"0";s:9:"old-price";s:1:"0";}i:8;a:17:{s:2:"id";s:4:"1144";s:3:"act";s:1:"N";s:4:"name";s:68:"Кепка охранника утепленная цв.черный";s:3:"art";s:9:"Шап098";s:4:"sort";s:3:"100";s:6:"search";s:473:"КЕПКА ОХРАННИКА УТЕПЛЕННАЯ ЦВ.ЧЕРНЫЙ
- ОТВОРОТ ИЗ ИСКУССТВЕННОГО МЕХА ПРИСТЕГИВАЕТСЯ НА КНОПКУ - ВОДООТТАЛКИВАЮЩАЯ ПРОПИТКА - ЖЕСТКИЙ КОЗЫРЕК ЦВЕТ: ЧЕРНЫЙ ВЕРХ: «ОКСФОРД» (100% ПОЛИЭФИР), ВО УТЕПЛИТЕЛЬ: СИНТЕПОН ПОДКЛАДКА: БЯЗЬ (100% ХЛОПОК) РАЗМЕРЫ: 56-62 ГОСТ 17-635-87";s:6:"parent";s:2:"43";s:4:"durl";s:75:"/golovnye-ubory/zimnie-uteplennye/kepka-okhrannika-uteplennaya-tsv-chernyy/";s:4:"dtxt";s:427:"- отворот из искусственного меха пристегивается на кнопку - водоотталкивающая пропитка - жесткий козырек Цвет: черный Верх: «Оксфорд» &#40;100&#37; полиэфир&#41;, ВО Утеплитель: синтепон Подкладка: бязь &#40;100&#37; хлопок&#41; Размеры: 56-62 ГОСТ 17-635-87";s:4:"dpic";s:14:"/2e7/13943.jpg";s:11:"preview_pic";s:14:"/3f9/13943.jpg";s:5:"alias";s:40:"kepka-okhrannika-uteplennaya-tsv-chernyy";s:5:"title";s:0:"";s:11:"description";s:0:"";s:8:"keywords";s:0:"";s:5:"price";s:1:"0";s:9:"old-price";s:1:"0";}i:9;a:17:{s:2:"id";s:4:"1145";s:3:"act";s:1:"N";s:4:"name";s:71:"Шапка натуральный мех цельный цв.синий";s:3:"art";s:9:"Шап046";s:4:"sort";s:3:"100";s:6:"search";s:431:"ШАПКА НАТУРАЛЬНЫЙ МЕХ ЦЕЛЬНЫЙ ЦВ.СИНИЙ
ШАПКА-УШАНКА ИЗГОТОВЛЕНА ИЗ МЕХОВОЙ ОВЧИНЫ,КРАШЕНОЙ В СЕРО-СИНИЙ ЦВЕТ, В КОМБИНАЦИИ С СУКНОМ. ЦВЕТ: СИНИЙ ТКАНЬ: МЕХ НАТУРАЛЬНЫЙ, ОВЧИНА КРАШЕНАЯ РАЗМЕР: С 54 ПО 64 ЗАЩИТНЫЕ СВОЙСТВА: ТН МИ З ГОСТ 10325-79";s:6:"parent";s:2:"43";s:4:"durl";s:75:"/golovnye-ubory/zimnie-uteplennye/shapka-naturalnyy-mekh-tselnyy-tsv-siniy/";s:4:"dtxt";s:358:"Шапка-ушанка изготовлена из меховой овчины,крашеной в серо-синий цвет, в комбинации с сукном. Цвет: Синий Ткань: мех натуральный, овчина крашеная Размер: с 54 по 64 Защитные свойства: Тн Ми З ГОСТ 10325-79";s:4:"dpic";s:14:"/726/11576.jpg";s:11:"preview_pic";s:14:"/fa4/11576.jpg";s:5:"alias";s:40:"shapka-naturalnyy-mekh-tselnyy-tsv-siniy";s:5:"title";s:0:"";s:11:"description";s:0:"";s:8:"keywords";s:0:"";s:5:"price";s:1:"0";s:9:"old-price";s:1:"0";}i:10;a:17:{s:2:"id";s:4:"1146";s:3:"act";s:1:"Y";s:4:"name";s:78:"Шапка полушерстяная двойная плотной вязки";s:3:"art";s:9:"Шап018";s:4:"sort";s:3:"100";s:6:"search";s:249:"ШАПКА ПОЛУШЕРСТЯНАЯ ДВОЙНАЯ ПЛОТНОЙ ВЯЗКИ
ШАПКА ДВОЙНАЯ ПЛОТНОЙ ВЯЗКИ ИЗ ПОЛУШЕРСТЯНОЙ ПРЯЖИ. СОСТАВ: 30% ШЕРСТЬ, 70% ПОЛИЭФИР ГОСТ 17-635-87 .";s:6:"parent";s:2:"43";s:4:"durl";s:82:"/golovnye-ubory/zimnie-uteplennye/shapka-polusherstyanaya-dvoynaya-plotnoy-vyazki/";s:4:"dtxt";s:177:"Шапка двойная плотной вязки из полушерстяной пряжи. Состав: 30&#37; шерсть, 70&#37; полиэфир ГОСТ 17-635-87 .";s:4:"dpic";s:13:"/3f9/8667.jpg";s:11:"preview_pic";s:13:"/4aa/8667.jpg";s:5:"alias";s:47:"shapka-polusherstyanaya-dvoynaya-plotnoy-vyazki";s:5:"title";s:0:"";s:11:"description";s:0:"";s:8:"keywords";s:0:"";s:5:"price";s:1:"0";s:9:"old-price";s:1:"0";}i:11;a:17:{s:2:"id";s:4:"1147";s:3:"act";s:1:"N";s:4:"name";s:68:"Шапка-ушанка Евро тк.Оксфорд цв.синий";s:3:"art";s:9:"Шап050";s:4:"sort";s:3:"100";s:6:"search";s:525:"ШАПКА-УШАНКА ЕВРО ТК.ОКСФОРД ЦВ.СИНИЙ
ШАПКА-УШАНКА С КОЗЫРЬКОМ НА ИСКУССТВЕННОМ МЕХУ. НА ЗАТЫЛКЕ - КУЛИСА СО ШЛЯПНОЙ РЕЗИНКОЙ И СТОПОРОМ ДЛЯ РЕГУЛИРОВКИ ОБЪЕМА. ЗАСТЕЖКА ШАПКИ - ЗАВЯЗКИ. ТКАНЬ ВЕРХА: ОКСФОРД(100% ПОЛИЭФИР) ПОДКЛАДКА: ФЛИС УТЕПЛИТЕЛЬ: СИНТЕПОН ПЛ.100 Г/М2 ЦВЕТ: СИНИЙ ГОСТ 10325-79 .";s:6:"parent";s:2:"43";s:4:"durl";s:75:"/golovnye-ubory/zimnie-uteplennye/shapka-ushanka-evro-tk-oksford-tsv-siniy/";s:4:"dtxt";s:467:"Шапка-ушанка с козырьком на искусственном меху. На затылке - кулиса со шляпной резинкой и стопором для регулировки объема. Застежка шапки - завязки. Ткань верха: Оксфорд&#40;100&#37; полиэфир&#41; Подкладка: флис Утеплитель: синтепон пл.100 г/м2 Цвет: синий ГОСТ 10325-79 .";s:4:"dpic";s:13:"/581/6798.jpg";s:11:"preview_pic";s:13:"/d38/6798.jpg";s:5:"alias";s:40:"shapka-ushanka-evro-tk-oksford-tsv-siniy";s:5:"title";s:0:"";s:11:"description";s:0:"";s:8:"keywords";s:0:"";s:5:"price";s:1:"0";s:9:"old-price";s:1:"0";}i:12;a:17:{s:2:"id";s:4:"1148";s:3:"act";s:1:"N";s:4:"name";s:70:"Шапка-ушанка Евро тк.Оксфорд цв.черный";s:3:"art";s:9:"Шап048";s:4:"sort";s:3:"100";s:6:"search";s:529:"ШАПКА-УШАНКА ЕВРО ТК.ОКСФОРД ЦВ.ЧЕРНЫЙ
ШАПКА-УШАНКА С КОЗЫРЬКОМ НА ИСКУССТВЕННОМ МЕХУ. НА ЗАТЫЛКЕ - КУЛИСА СО ШЛЯПНОЙ РЕЗИНКОЙ И СТОПОРОМ ДЛЯ РЕГУЛИРОВКИ ОБЪЕМА. ЗАСТЕЖКА ШАПКИ - ЗАВЯЗКИ. ТКАНЬ ВЕРХА: ОКСФОРД(100% ПОЛИЭФИР) ПОДКЛАДКА: ФЛИС УТЕПЛИТЕЛЬ: СИНТЕПОН ПЛ.100 Г/М2 ЦВЕТ: ЧЕРНЫЙ ГОСТ 10325-79 .";s:6:"parent";s:2:"43";s:4:"durl";s:77:"/golovnye-ubory/zimnie-uteplennye/shapka-ushanka-evro-tk-oksford-tsv-chernyy/";s:4:"dtxt";s:469:"Шапка-ушанка с козырьком на искусственном меху. На затылке - кулиса со шляпной резинкой и стопором для регулировки объема. Застежка шапки - завязки. Ткань верха: Оксфорд&#40;100&#37; полиэфир&#41; Подкладка: флис Утеплитель: синтепон пл.100 г/м2 Цвет: черный ГОСТ 10325-79 .";s:4:"dpic";s:13:"/aab/6800.jpg";s:11:"preview_pic";s:13:"/1d5/6800.jpg";s:5:"alias";s:42:"shapka-ushanka-evro-tk-oksford-tsv-chernyy";s:5:"title";s:0:"";s:11:"description";s:0:"";s:8:"keywords";s:0:"";s:5:"price";s:1:"0";s:9:"old-price";s:1:"0";}i:13;a:17:{s:2:"id";s:4:"1149";s:3:"act";s:1:"N";s:4:"name";s:37:"Шапка-ушанка иск.мех";s:3:"art";s:9:"Шап014";s:4:"sort";s:3:"100";s:6:"search";s:198:"ШАПКА-УШАНКА ИСК.МЕХ

ШАПКА-УШАНКА ИЗ ИСКУССТВЕННОГО МЕХА ПОД МУТОН. ЗАЩИТНЫЕ СВОЙСТВА: ТН, МИ, З ГОСТ: 17-635-87 .";s:6:"parent";s:2:"43";s:4:"durl";s:58:"/golovnye-ubory/zimnie-uteplennye/shapka-ushanka-isk-mekh/";s:4:"dtxt";s:157:"ШАПКА-УШАНКА из искусственного меха под мутон. Защитные свойства: Тн, Ми, З ГОСТ: 17-635-87 .";s:4:"dpic";s:14:"/9f6/11158.jpg";s:11:"preview_pic";s:14:"/796/11158.jpg";s:5:"alias";s:23:"shapka-ushanka-isk-mekh";s:5:"title";s:0:"";s:11:"description";s:0:"";s:8:"keywords";s:0:"";s:5:"price";s:1:"0";s:9:"old-price";s:1:"0";}i:14;a:17:{s:2:"id";s:3:"152";s:3:"act";s:1:"N";s:4:"name";s:34:"Бейсболка цв.белый";s:3:"art";s:9:"Шап022";s:4:"sort";s:3:"100";s:6:"search";s:294:"БЕЙСБОЛКА ЦВ.БЕЛЫЙ

БЕЙСБОЛКА С МЕТАЛЛИЧЕСКОЙ ЗАСТЕЖКОЙ - РЕГУЛИРУЕТСЯ ПО РАЗМЕРАМ - КЛАССИЧЕСКАЯ ПЯТИКЛИННАЯ ФОРМА - ЖЕСТКИЙ КОЗЫРЕК ТКАНЬ:100% ХЛОПОК, ПЛ.150Г/М2 .";s:6:"parent";s:2:"13";s:4:"durl";s:43:"/golovnye-ubory/letnie/beysbolka-tsv-belyy/";s:4:"dtxt";s:260:"Бейсболка с металлической застежкой - регулируется по размерам - классическая пятиклинная форма - жесткий козырек Ткань:100&#37; хлопок, пл.150г/м2 .";s:4:"dpic";s:13:"/15e/3630.jpg";s:11:"preview_pic";s:13:"/d16/3630.jpg";s:5:"alias";s:19:"beysbolka-tsv-belyy";s:5:"title";s:0:"";s:11:"description";s:0:"";s:8:"keywords";s:0:"";s:5:"price";s:1:"0";s:9:"old-price";s:1:"0";}i:15;a:17:{s:2:"id";s:3:"153";s:3:"act";s:1:"N";s:4:"name";s:34:"Бейсболка цв.бордо";s:3:"art";s:9:"Шап112";s:4:"sort";s:3:"100";s:6:"search";s:294:"БЕЙСБОЛКА ЦВ.БОРДО

БЕЙСБОЛКА С МЕТАЛЛИЧЕСКОЙ ЗАСТЕЖКОЙ - РЕГУЛИРУЕТСЯ ПО РАЗМЕРАМ - КЛАССИЧЕСКАЯ ПЯТИКЛИННАЯ ФОРМА - ЖЕСТКИЙ КОЗЫРЕК ТКАНЬ:100% ХЛОПОК, ПЛ.150Г/М2 .";s:6:"parent";s:2:"13";s:4:"durl";s:43:"/golovnye-ubory/letnie/beysbolka-tsv-bordo/";s:4:"dtxt";s:260:"Бейсболка с металлической застежкой - регулируется по размерам - классическая пятиклинная форма - жесткий козырек Ткань:100&#37; хлопок, пл.150г/м2 .";s:4:"dpic";s:14:"/966/15178.jpg";s:11:"preview_pic";s:14:"/785/15178.jpg";s:5:"alias";s:19:"beysbolka-tsv-bordo";s:5:"title";s:0:"";s:11:"description";s:0:"";s:8:"keywords";s:0:"";s:5:"price";s:1:"0";s:9:"old-price";s:1:"0";}i:16;a:17:{s:2:"id";s:3:"154";s:3:"act";s:1:"N";s:4:"name";s:38:"Бейсболка цв.василек";s:3:"art";s:9:"Шап030";s:4:"sort";s:3:"100";s:6:"search";s:298:"БЕЙСБОЛКА ЦВ.ВАСИЛЕК

БЕЙСБОЛКА С МЕТАЛЛИЧЕСКОЙ ЗАСТЕЖКОЙ - РЕГУЛИРУЕТСЯ ПО РАЗМЕРАМ - КЛАССИЧЕСКАЯ ПЯТИКЛИННАЯ ФОРМА - ЖЕСТКИЙ КОЗЫРЕК ТКАНЬ:100% ХЛОПОК, ПЛ.150Г/М2 .";s:6:"parent";s:2:"13";s:4:"durl";s:45:"/golovnye-ubory/letnie/beysbolka-tsv-vasilek/";s:4:"dtxt";s:260:"Бейсболка с металлической застежкой - регулируется по размерам - классическая пятиклинная форма - жесткий козырек Ткань:100&#37; хлопок, пл.150г/м2 .";s:4:"dpic";s:13:"/3e0/5542.jpg";s:11:"preview_pic";s:13:"/58e/5542.jpg";s:5:"alias";s:21:"beysbolka-tsv-vasilek";s:5:"title";s:0:"";s:11:"description";s:0:"";s:8:"keywords";s:0:"";s:5:"price";s:1:"0";s:9:"old-price";s:1:"0";}i:17;a:17:{s:2:"id";s:3:"155";s:3:"act";s:1:"N";s:4:"name";s:36:"Бейсболка цв.желтый";s:3:"art";s:9:"Шап029";s:4:"sort";s:3:"100";s:6:"search";s:296:"БЕЙСБОЛКА ЦВ.ЖЕЛТЫЙ

БЕЙСБОЛКА С МЕТАЛЛИЧЕСКОЙ ЗАСТЕЖКОЙ - РЕГУЛИРУЕТСЯ ПО РАЗМЕРАМ - КЛАССИЧЕСКАЯ ПЯТИКЛИННАЯ ФОРМА - ЖЕСТКИЙ КОЗЫРЕК ТКАНЬ:100% ХЛОПОК, ПЛ.150Г/М2 .";s:6:"parent";s:2:"13";s:4:"durl";s:45:"/golovnye-ubory/letnie/beysbolka-tsv-zheltyy/";s:4:"dtxt";s:260:"Бейсболка с металлической застежкой - регулируется по размерам - классическая пятиклинная форма - жесткий козырек Ткань:100&#37; хлопок, пл.150г/м2 .";s:4:"dpic";s:14:"/fe0/10265.jpg";s:11:"preview_pic";s:14:"/cec/10265.jpg";s:5:"alias";s:21:"beysbolka-tsv-zheltyy";s:5:"title";s:0:"";s:11:"description";s:0:"";s:8:"keywords";s:0:"";s:5:"price";s:1:"0";s:9:"old-price";s:1:"0";}i:18;a:17:{s:2:"id";s:3:"156";s:3:"act";s:1:"N";s:4:"name";s:38:"Бейсболка цв.зеленый";s:3:"art";s:9:"Шап028";s:4:"sort";s:3:"100";s:6:"search";s:298:"БЕЙСБОЛКА ЦВ.ЗЕЛЕНЫЙ

БЕЙСБОЛКА С МЕТАЛЛИЧЕСКОЙ ЗАСТЕЖКОЙ - РЕГУЛИРУЕТСЯ ПО РАЗМЕРАМ - КЛАССИЧЕСКАЯ ПЯТИКЛИННАЯ ФОРМА - ЖЕСТКИЙ КОЗЫРЕК ТКАНЬ:100% ХЛОПОК, ПЛ.150Г/М2 .";s:6:"parent";s:2:"13";s:4:"durl";s:45:"/golovnye-ubory/letnie/beysbolka-tsv-zelenyy/";s:4:"dtxt";s:260:"Бейсболка с металлической застежкой - регулируется по размерам - классическая пятиклинная форма - жесткий козырек Ткань:100&#37; хлопок, пл.150г/м2 .";s:4:"dpic";s:13:"/14b/5544.jpg";s:11:"preview_pic";s:13:"/e3a/5544.jpg";s:5:"alias";s:21:"beysbolka-tsv-zelenyy";s:5:"title";s:0:"";s:11:"description";s:0:"";s:8:"keywords";s:0:"";s:5:"price";s:1:"0";s:9:"old-price";s:1:"0";}i:19;a:17:{s:2:"id";s:3:"157";s:3:"act";s:1:"N";s:4:"name";s:38:"Бейсболка цв.красный";s:3:"art";s:9:"Шап027";s:4:"sort";s:3:"100";s:6:"search";s:298:"БЕЙСБОЛКА ЦВ.КРАСНЫЙ

БЕЙСБОЛКА С МЕТАЛЛИЧЕСКОЙ ЗАСТЕЖКОЙ - РЕГУЛИРУЕТСЯ ПО РАЗМЕРАМ - КЛАССИЧЕСКАЯ ПЯТИКЛИННАЯ ФОРМА - ЖЕСТКИЙ КОЗЫРЕК ТКАНЬ:100% ХЛОПОК, ПЛ.150Г/М2 .";s:6:"parent";s:2:"13";s:4:"durl";s:45:"/golovnye-ubory/letnie/beysbolka-tsv-krasnyy/";s:4:"dtxt";s:260:"Бейсболка с металлической застежкой - регулируется по размерам - классическая пятиклинная форма - жесткий козырек Ткань:100&#37; хлопок, пл.150г/м2 .";s:4:"dpic";s:13:"/c14/7161.jpg";s:11:"preview_pic";s:13:"/bad/7161.jpg";s:5:"alias";s:21:"beysbolka-tsv-krasnyy";s:5:"title";s:0:"";s:11:"description";s:0:"";s:8:"keywords";s:0:"";s:5:"price";s:1:"0";s:9:"old-price";s:1:"0";}i:20;a:17:{s:2:"id";s:3:"158";s:3:"act";s:1:"N";s:4:"name";s:42:"Бейсболка цв.оранжевый";s:3:"art";s:9:"Шап026";s:4:"sort";s:3:"100";s:6:"search";s:302:"БЕЙСБОЛКА ЦВ.ОРАНЖЕВЫЙ

БЕЙСБОЛКА С МЕТАЛЛИЧЕСКОЙ ЗАСТЕЖКОЙ - РЕГУЛИРУЕТСЯ ПО РАЗМЕРАМ - КЛАССИЧЕСКАЯ ПЯТИКЛИННАЯ ФОРМА - ЖЕСТКИЙ КОЗЫРЕК ТКАНЬ:100% ХЛОПОК, ПЛ.150Г/М2 .";s:6:"parent";s:2:"13";s:4:"durl";s:48:"/golovnye-ubory/letnie/beysbolka-tsv-oranzhevyy/";s:4:"dtxt";s:260:"Бейсболка с металлической застежкой - регулируется по размерам - классическая пятиклинная форма - жесткий козырек Ткань:100&#37; хлопок, пл.150г/м2 .";s:4:"dpic";s:13:"/0a1/7683.jpg";s:11:"preview_pic";s:13:"/803/7683.jpg";s:5:"alias";s:24:"beysbolka-tsv-oranzhevyy";s:5:"title";s:0:"";s:11:"description";s:0:"";s:8:"keywords";s:0:"";s:5:"price";s:1:"0";s:9:"old-price";s:1:"0";}i:21;a:17:{s:2:"id";s:3:"159";s:3:"act";s:1:"N";s:4:"name";s:34:"Бейсболка цв.серый";s:3:"art";s:9:"Шап024";s:4:"sort";s:3:"100";s:6:"search";s:294:"БЕЙСБОЛКА ЦВ.СЕРЫЙ

БЕЙСБОЛКА С МЕТАЛЛИЧЕСКОЙ ЗАСТЕЖКОЙ - РЕГУЛИРУЕТСЯ ПО РАЗМЕРАМ - КЛАССИЧЕСКАЯ ПЯТИКЛИННАЯ ФОРМА - ЖЕСТКИЙ КОЗЫРЕК ТКАНЬ:100% ХЛОПОК, ПЛ.150Г/М2 .";s:6:"parent";s:2:"13";s:4:"durl";s:43:"/golovnye-ubory/letnie/beysbolka-tsv-seryy/";s:4:"dtxt";s:260:"Бейсболка с металлической застежкой - регулируется по размерам - классическая пятиклинная форма - жесткий козырек Ткань:100&#37; хлопок, пл.150г/м2 .";s:4:"dpic";s:13:"/f03/5545.jpg";s:11:"preview_pic";s:13:"/190/5545.jpg";s:5:"alias";s:19:"beysbolka-tsv-seryy";s:5:"title";s:0:"";s:11:"description";s:0:"";s:8:"keywords";s:0:"";s:5:"price";s:1:"0";s:9:"old-price";s:1:"0";}i:22;a:17:{s:2:"id";s:3:"160";s:3:"act";s:1:"Y";s:4:"name";s:45:"Бейсболка цв.темно-синий";s:3:"art";s:9:"Шап023";s:4:"sort";s:3:"100";s:6:"search";s:305:"БЕЙСБОЛКА ЦВ.ТЕМНО-СИНИЙ

БЕЙСБОЛКА С МЕТАЛЛИЧЕСКОЙ ЗАСТЕЖКОЙ - РЕГУЛИРУЕТСЯ ПО РАЗМЕРАМ - КЛАССИЧЕСКАЯ ПЯТИКЛИННАЯ ФОРМА - ЖЕСТКИЙ КОЗЫРЕК ТКАНЬ:100% ХЛОПОК, ПЛ.150Г/М2 .";s:6:"parent";s:2:"13";s:4:"durl";s:49:"/golovnye-ubory/letnie/beysbolka-tsv-temno-siniy/";s:4:"dtxt";s:260:"Бейсболка с металлической застежкой - регулируется по размерам - классическая пятиклинная форма - жесткий козырек Ткань:100&#37; хлопок, пл.150г/м2 .";s:4:"dpic";s:13:"/2ee/5543.jpg";s:11:"preview_pic";s:13:"/733/5543.jpg";s:5:"alias";s:25:"beysbolka-tsv-temno-siniy";s:5:"title";s:0:"";s:11:"description";s:0:"";s:8:"keywords";s:0:"";s:5:"price";s:1:"0";s:9:"old-price";s:1:"0";}i:23;a:17:{s:2:"id";s:3:"161";s:3:"act";s:1:"N";s:4:"name";s:36:"Бейсболка цв.черный";s:3:"art";s:9:"Шап025";s:4:"sort";s:3:"100";s:6:"search";s:296:"БЕЙСБОЛКА ЦВ.ЧЕРНЫЙ

БЕЙСБОЛКА С МЕТАЛЛИЧЕСКОЙ ЗАСТЕЖКОЙ - РЕГУЛИРУЕТСЯ ПО РАЗМЕРАМ - КЛАССИЧЕСКАЯ ПЯТИКЛИННАЯ ФОРМА - ЖЕСТКИЙ КОЗЫРЕК ТКАНЬ:100% ХЛОПОК, ПЛ.150Г/М2 .";s:6:"parent";s:2:"13";s:4:"durl";s:45:"/golovnye-ubory/letnie/beysbolka-tsv-chernyy/";s:4:"dtxt";s:260:"Бейсболка с металлической застежкой - регулируется по размерам - классическая пятиклинная форма - жесткий козырек Ткань:100&#37; хлопок, пл.150г/м2 .";s:4:"dpic";s:13:"/c35/3631.jpg";s:11:"preview_pic";s:13:"/66d/3631.jpg";s:5:"alias";s:21:"beysbolka-tsv-chernyy";s:5:"title";s:0:"";s:11:"description";s:0:"";s:8:"keywords";s:0:"";s:5:"price";s:1:"0";s:9:"old-price";s:1:"0";}i:24;a:17:{s:2:"id";s:3:"162";s:3:"act";s:1:"N";s:4:"name";s:56:"Кепка охранника цв.зеленый КМФ";s:3:"art";s:9:"Шап035";s:4:"sort";s:3:"100";s:6:"search";s:420:"КЕПКА ОХРАННИКА ЦВ.ЗЕЛЕНЫЙ КМФ

- ВЕНТИЛЯЦИОННЫЕ ОТВЕРСТИЯ - ДЛЯ МАСКИРОВКИ ПРЕДУСМОТРЕНЫ МЕСТА ДЛЯ КРЕПЛЕНИЯ ВЕТОК - ВОДООТТАЛКИВАЮЩАЯ ПРОПИТКА ЦВЕТ: КМФ МИЛИТАРИ ТКАНЬ: СМЕСОВАЯ (65 % ПОЛИЭФИР, 35% ХЛОПОК), ПЛ.210 Г/М2, ВО РАЗМЕРЫ: 56-60 .";s:6:"parent";s:2:"13";s:4:"durl";s:56:"/golovnye-ubory/letnie/kepka-okhrannika-tsv-zelenyy-kmf/";s:4:"dtxt";s:376:"- вентиляционные отверстия - для маскировки предусмотрены места для крепления веток - водоотталкивающая пропитка Цвет: КМФ милитари Ткань: смесовая &#40;65 &#37; полиэфир, 35&#37; хлопок&#41;, пл.210 г/м2, ВО Размеры: 56-60 .";s:4:"dpic";s:14:"/eb1/11540.jpg";s:11:"preview_pic";s:14:"/2e6/11540.jpg";s:5:"alias";s:32:"kepka-okhrannika-tsv-zelenyy-kmf";s:5:"title";s:0:"";s:11:"description";s:0:"";s:8:"keywords";s:0:"";s:5:"price";s:1:"0";s:9:"old-price";s:1:"0";}i:25;a:17:{s:2:"id";s:3:"163";s:3:"act";s:1:"N";s:4:"name";s:45:"Кепка охранника цв.синий";s:3:"art";s:9:"Шап033";s:4:"sort";s:3:"100";s:6:"search";s:289:"КЕПКА ОХРАННИКА ЦВ.СИНИЙ
- ВЕНТИЛЯЦИОННЫЕ ОТВЕРСТИЯ - ВОДООТТАЛКИВАЮЩАЯ ПРОПИТКА ЦВЕТ: СИНИЙ ТКАНЬ: СМЕСОВАЯ (65 % ПОЛИЭФИР, 35% ХЛОПОК), ПЛ.210 Г/М2, ВО РАЗМЕРЫ: 54-62 .";s:6:"parent";s:2:"13";s:4:"durl";s:50:"/golovnye-ubory/letnie/kepka-okhrannika-tsv-siniy/";s:4:"dtxt";s:258:"- вентиляционные отверстия - водоотталкивающая пропитка Цвет: синий Ткань: смесовая &#40;65 &#37; полиэфир, 35&#37; хлопок&#41;, пл.210 г/м2, ВО Размеры: 54-62 .";s:4:"dpic";s:13:"/a3e/6964.jpg";s:11:"preview_pic";s:13:"/c3d/6964.jpg";s:5:"alias";s:26:"kepka-okhrannika-tsv-siniy";s:5:"title";s:0:"";s:11:"description";s:0:"";s:8:"keywords";s:0:"";s:5:"price";s:1:"0";s:9:"old-price";s:1:"0";}i:26;a:17:{s:2:"id";s:3:"164";s:3:"act";s:1:"N";s:4:"name";s:52:"Кепка охранника цв.синий КМФ";s:3:"art";s:9:"Шап037";s:4:"sort";s:3:"100";s:6:"search";s:408:"КЕПКА ОХРАННИКА ЦВ.СИНИЙ КМФ
- ВЕНТИЛЯЦИОННЫЕ ОТВЕРСТИЯ - ДЛЯ МАСКИРОВКИ ПРЕДУСМОТРЕНЫ МЕСТА ДЛЯ КРЕПЛЕНИЯ ВЕТОК - ВОДООТТАЛКИВАЮЩАЯ ПРОПИТКА ЦВЕТ: КМФ СИНИЙ ТКАНЬ: СМЕСОВАЯ (65 % ПОЛИЭФИР, 35% ХЛОПОК), ПЛ.210 Г/М2, ВО РАЗМЕРЫ: 56-60 .";s:6:"parent";s:2:"13";s:4:"durl";s:54:"/golovnye-ubory/letnie/kepka-okhrannika-tsv-siniy-kmf/";s:4:"dtxt";s:370:"- вентиляционные отверстия - для маскировки предусмотрены места для крепления веток - водоотталкивающая пропитка Цвет: КМФ синий Ткань: смесовая &#40;65 &#37; полиэфир, 35&#37; хлопок&#41;, пл.210 г/м2, ВО Размеры: 56-60 .";s:4:"dpic";s:14:"/1fc/11546.jpg";s:11:"preview_pic";s:14:"/3c9/11546.jpg";s:5:"alias";s:30:"kepka-okhrannika-tsv-siniy-kmf";s:5:"title";s:0:"";s:11:"description";s:0:"";s:8:"keywords";s:0:"";s:5:"price";s:1:"0";s:9:"old-price";s:1:"0";}i:27;a:17:{s:2:"id";s:3:"165";s:3:"act";s:1:"N";s:4:"name";s:47:"Кепка охранника цв.черный";s:3:"art";s:9:"Шап031";s:4:"sort";s:3:"100";s:6:"search";s:398:"КЕПКА ОХРАННИКА ЦВ.ЧЕРНЫЙ
- ВЕНТИЛЯЦИОННЫЕ ОТВЕРСТИЯ - ДЛЯ МАСКИРОВКИ ПРЕДУСМОТРЕНЫ МЕСТА ДЛЯ КРЕПЛЕНИЯ ВЕТОК - ВОДООТТАЛКИВАЮЩАЯ ПРОПИТКА ЦВЕТ: ЧЕРНЫЙ ТКАНЬ: СМЕСОВАЯ (65 % ПОЛИЭФИР, 35% ХЛОПОК), ПЛ.210 Г/М2, ВО РАЗМЕРЫ: 56-62 .";s:6:"parent";s:2:"13";s:4:"durl";s:52:"/golovnye-ubory/letnie/kepka-okhrannika-tsv-chernyy/";s:4:"dtxt";s:365:"- вентиляционные отверстия - для маскировки предусмотрены места для крепления веток - водоотталкивающая пропитка Цвет: черный Ткань: смесовая &#40;65 &#37; полиэфир, 35&#37; хлопок&#41;, пл.210 г/м2, ВО Размеры: 56-62 .";s:4:"dpic";s:13:"/1ae/6969.jpg";s:11:"preview_pic";s:13:"/dd2/6969.jpg";s:5:"alias";s:28:"kepka-okhrannika-tsv-chernyy";s:5:"title";s:0:"";s:11:"description";s:0:"";s:8:"keywords";s:0:"";s:5:"price";s:1:"0";s:9:"old-price";s:1:"0";}i:28;a:17:{s:2:"id";s:3:"166";s:3:"act";s:1:"N";s:4:"name";s:54:"Накомарник КМФ цифра, 2 кольца";s:3:"art";s:9:"Шап605";s:4:"sort";s:3:"100";s:6:"search";s:511:"НАКОМАРНИК КМФ ЦИФРА, 2 КОЛЬЦА
– УНИВЕРСАЛЬНЫЙ РАЗМЕР – УСТОЙЧИВАЯ ФОРМА ЗА СЧЕТ ВНУТРЕННЕЙ ПОДКЛАДКИ – АНТИМОСКИТНАЯ СЕТКА ЗАКРЕПЛЕНА НА ФИКСИРУЮЩИХ КОЛЬЦАХ – НИЗ СЕТКИ СКРЕПЛЕН РЕЗИНКОЙ ДЛЯ ПРЕДОТВРАЩЕНИЯ ПОПАДАНИЯ НАСЕКОМЫХ ПОД СЕТКУ ЦВЕТ: КМФ ЗЕЛЕНЫЙ ТКАНЬ: 100% ПОЛИЭФИР .";s:6:"parent";s:2:"13";s:4:"durl";s:54:"/golovnye-ubory/letnie/nakomarnik-kmf-tsifra-2-koltsa/";s:4:"dtxt";s:459:"– универсальный размер – устойчивая форма за счет внутренней подкладки – антимоскитная сетка закреплена на фиксирующих кольцах – низ сетки скреплен резинкой для предотвращения попадания насекомых под сетку Цвет: КМФ зеленый Ткань: 100&#37; полиэфир .";s:4:"dpic";s:14:"/e93/10569.jpg";s:11:"preview_pic";s:14:"/bbf/10569.jpg";s:5:"alias";s:30:"nakomarnik-kmf-tsifra-2-koltsa";s:5:"title";s:0:"";s:11:"description";s:0:"";s:8:"keywords";s:0:"";s:5:"price";s:1:"0";s:9:"old-price";s:1:"0";}}}}s:8:"end_time";i:1565275938;}