a:2:{s:4:"data";a:8:{s:2:"id";s:2:"24";s:5:"title";s:0:"";s:4:"prop";s:0:"";s:4:"name";s:11:"rasprodazha";s:5:"alias";s:20:"распродажа";s:6:"parent";s:1:"0";s:7:"parents";a:0:{}s:8:"children";a:2:{s:10:"categories";a:4:{i:0;a:6:{s:2:"id";s:2:"74";s:5:"title";s:0:"";s:4:"prop";s:0:"";s:4:"name";s:3:"siz";s:5:"alias";s:6:"сиз";s:6:"parent";s:2:"24";}i:1;a:6:{s:2:"id";s:2:"75";s:5:"title";s:0:"";s:4:"prop";s:0:"";s:4:"name";s:4:"obuv";s:5:"alias";s:8:"обув";s:6:"parent";s:2:"24";}i:2;a:6:{s:2:"id";s:2:"76";s:5:"title";s:0:"";s:4:"prop";s:0:"";s:4:"name";s:7:"odezhda";s:5:"alias";s:12:"одежда";s:6:"parent";s:2:"24";}i:3;a:6:{s:2:"id";s:2:"77";s:5:"title";s:0:"";s:4:"prop";s:0:"";s:4:"name";s:9:"perchatki";s:5:"alias";s:16:"перчатки";s:6:"parent";s:2:"24";}}s:8:"products";a:175:{i:0;a:14:{s:2:"id";s:4:"1819";s:3:"act";s:1:"N";s:9:"prod_type";s:0:"";s:4:"name";s:44:"Краги кожаные КРС RL9 р.11,5";s:3:"art";s:6:"КТ08";s:6:"search";s:897:"КРАГИ КОЖАНЫЕ КРС RL9 Р.11,5

ОСОБОПРОЧНЫЕ КРАГИ, ПЯТИПАЛЫЕ, С ПОДКЛАДКОЙ ИЗ БРЕЗЕНТА, ХЛОПКОВОЙ ТКАНИ И ФЛИСА, ДЛИНА 360-370ММ. ПЕРЧАТКА ИЗ КОЖИ КРС, МАНЖЕТ ИЗ СПИЛКА КРС, СОРТ А, 1,3+/-0,1 ММ, ШЛИФОВАННЫЙ, ОКРАШЕННЫЙ. КРАГИ ОБЕСПЕЧИВАЮТ ВЫСОКУЮ МЕХАНИЧЕСКУЮ ЗАЩИТУ, ЗАЩИТУ ОТ ПОВЫШЕННЫХ ТЕМПЕРАТУР - ОТКРЫТОГО ПЛАМЕНИ, ИСКР И БРЫЗГ РАСПЛАВЛЕННОГО МЕТАЛЛА. НАЛИЧИЕ ПОДКЛАДКИ ПОВЫШАЕТ КОМФОРТ ИСПОЛЬЗОВАНИЯ И ПОЗВОЛЯЕТ ИСПОЛЬЗОВАТЬ КРАГИ В ЗИМНЕЕ ВРЕМЯ. ПОДХОДЯТ ДЛЯ АРГОНОДУГОВОЙ СВАРКИ. АРТИКУЛ: T8-11-RU";s:6:"parent";s:2:"77";s:4:"durl";s:51:"rasprodazha/perchatki/kragi-kozhanye-krs-rl9-r-11-5";s:4:"dtxt";s:853:"Особопрочные краги, пятипалые, с подкладкой из брезента, хлопковой ткани и флиса, длина 360-370мм. Перчатка из кожи КРС, манжет из спилка КРС, сорт А, 1,3&#43;/-0,1 мм, шлифованный, окрашенный. Краги обеспечивают высокую механическую защиту, защиту от повышенных температур - открытого пламени, искр и брызг расплавленного металла. Наличие подкладки повышает комфорт использования и позволяет использовать краги в зимнее время. Подходят для аргонодуговой сварки. Артикул: T8-11-RU";s:4:"dpic";s:28:"/upload/iblock/1bd/14466.jpg";s:11:"preview_pic";s:28:"/upload/iblock/141/14466.jpg";s:4:"bxid";s:6:"200710";s:5:"alias";s:0:"";s:7:"section";s:5:"11734";}i:1;a:14:{s:2:"id";s:4:"1820";s:3:"act";s:1:"N";s:9:"prod_type";s:0:"";s:4:"name";s:89:"Краги спилковые пятипалые Трек-Экстра, цв.бирюза";s:3:"art";s:6:"КТ22";s:6:"search";s:748:"КРАГИ СПИЛКОВЫЕ ПЯТИПАЛЫЕ ТРЕК-ЭКСТРА, ЦВ.БИРЮЗА

ДОПОЛНИТЕЛЬНАЯ ЗАЩИТА ЗАПЯСТЬЯ ЗА СЧЕТ УДЛИНЕННОЙ ФОРМЫ РАСТРУБА (ОБЩАЯ ДЛИНА 40СМ). ЗАЩИТА ОТ ЗНАЧИТЕЛЬНЫХ МЕХАНИЧЕСКИХ ВОЗДЕЙСТВИЙ В УСЛОВИЯХ ПОВЫШЕННЫХ ТЕМПЕРАТУР. ДОПОЛНИТЕЛЬНАЯ ЗАЩИТНАЯ НАКЛАДКА НА ЛАДОНИ. ЭРГОНОМИЧЕСКАЯ ФОРМА. РАЗМЕР: 10,5 МАТЕРИАЛ - НАТУРАЛЬНЫЙ СПИЛОК. ПОДКЛАДКА - ТЕРМОИЗОЛИРУЮЩИЙ ФЛИС. МАНЖЕТА - УДЛИНЕННЫЙ РАСТРУБ (ОБЩАЯ ДЛИНА 40 СМ).";s:6:"parent";s:2:"77";s:4:"durl";s:72:"rasprodazha/perchatki/kragi-spilkovye-pyatipalye-trek-ekstra-tsv-biryuza";s:4:"dtxt";s:671:"Дополнительная защита запястья за счет удлиненной формы раструба &#40;общая длина 40см&#41;. Защита от значительных механических воздействий в условиях повышенных температур. Дополнительная защитная накладка на ладони. Эргономическая форма. Размер: 10,5 Материал - Натуральный спилок. Подкладка - термоизолирующий флис. Манжета - удлиненный раструб &#40;общая длина 40 см&#41;.";s:4:"dpic";s:28:"/upload/iblock/cda/14056.jpg";s:11:"preview_pic";s:28:"/upload/iblock/104/14056.jpg";s:4:"bxid";s:6:"200714";s:5:"alias";s:0:"";s:7:"section";s:5:"11734";}i:2;a:14:{s:2:"id";s:4:"1821";s:3:"act";s:1:"N";s:9:"prod_type";s:0:"";s:4:"name";s:50:"Перчатки - вкладыш байковые";s:3:"art";s:9:"Пер216";s:6:"search";s:999:"ПЕРЧАТКИ - ВКЛАДЫШ БАЙКОВЫЕ

УТЕПЛИТЕЛЬ - ПЕРЧАТКА ИЗ ТКАНИ ДЖЕРСИ, ОТЛИЧНО ПОДХОДИТ В КАЧЕСТВЕ УТЕПЛЯЮЩЕГО СЛОЯ ДЛЯ ПЕРЧАТОК С ПОЛИМЕРНЫМИ ПОКРЫТИЯМИ СОСТАВ: Х/Б ДЖЕРСИ С НАЧЕСОМ ОСОБЕННОСТИ И ПРЕИМУЩЕСТВА: - ТКАНЬ С НАЧЕСОМ ПРЕКРАСНО СОХРАНЯЕТ ТЕПЛО - МЯГКАЯ И ЭЛАСТИЧНАЯ МАНЖЕТА-РЕЗИНКА УДОБНО ОБЛЕГАЕТ ЗАПЯСТЬЕ И ФИКСИРУЕТ ПЕРЧАТКУ СФЕРЫ ПРИМЕНЕНИЯ: БЫТОВЫЕ РАБОТЫ В ХОЛОДНЫХ УСЛОВИЯХ (В КАЧЕСТВЕ УТЕПЛИТЕЛЯ ДЛЯ ПЕРЧАТОК С ПОЛИМЕРНЫМ ПОКРЫТИЕМ), ДЛЯ ЗАЩИТЫ ОТ ЗАГРЯЗНЕНИЙ И ЛЕГКИХ МЕХАНИЧЕСКИХ ПОВРЕЖДЕНИЙ ДОСТУПНЫЕ РАЗМЕРЫ: УНИВЕРСАЛЬНЫЙ";s:6:"parent";s:2:"77";s:4:"durl";s:49:"rasprodazha/perchatki/perchatki-vkladysh-baykovye";s:4:"dtxt";s:953:"УТЕПЛИТЕЛЬ - перчатка из ткани джерси, отлично подходит в качестве утепляющего слоя для перчаток с полимерными покрытиями Состав: Х/б джерси с начесом Особенности и преимущества: - Ткань с начесом прекрасно сохраняет тепло - Мягкая и эластичная манжета-резинка удобно облегает запястье и фиксирует перчатку Сферы применения: Бытовые работы в холодных условиях &#40;в качестве утеплителя для перчаток с полимерным покрытием&#41;, для защиты от загрязнений и легких механических повреждений Доступные размеры: универсальный";s:4:"dpic";s:28:"/upload/iblock/0ed/13923.jpg";s:11:"preview_pic";s:28:"/upload/iblock/2c5/13923.jpg";s:4:"bxid";s:6:"201034";s:5:"alias";s:0:"";s:7:"section";s:5:"11734";}i:3;a:14:{s:2:"id";s:4:"1822";s:3:"act";s:1:"N";s:9:"prod_type";s:0:"";s:4:"name";s:79:"Перчатки PVC SANDY с песочным ПВХ покрытием 27см";s:3:"art";s:10:"Пер2051";s:6:"search";s:966:"ПЕРЧАТКИ PVC SANDY С ПЕСОЧНЫМ ПВХ ПОКРЫТИЕМ 27СМ

УДЛИНЕННЫЕ ПЕРЧАТКИ-КРАГИ ПРЕДНАЗНАЧЕНЫ ДЛЯ ЗАЩИТЫ РУК ОТ ТРАВМ ПРИ ВЫПОЛНЕНИИ ПРОМЫШЛЕННЫХ И БЫТОВЫХ РАБОТ. ВЫПОЛНЕНЫ ИЗ ХЛОПЧАТОБУМАЖНОГО ТРИКОТАЖА С ТРОЙНЫМ СЛОЕМ ПОКРЫТИЯ СВЕРХПРОЧНОГО ПВХ. «ПЕСОЧНОЕ» ПОКРЫТИЕ ОБЕСПЕЧИВАЕТ КРЕПКИЙ ЗАХВАТ ЛЮБЫХ ПОВЕРХНОСТЕЙ В ЛЮБУЮ ПОГОДУ. МОРОЗОУСТОЙЧИВЫЙ ПВХ СОХРАНЯЕТ СВОЮ ГИБКОСТЬ И ЗАЩИТНЫЕ СВОЙСТВА ПРИ ОТРИЦАТЕЛЬНЫХ ТЕМПЕРАТУРАХ. ПЕРЧАТКИ ОБЛАДАЮТ ДОЛГОВРЕМЕННОЙ СТОЙКОСТЬЮ К МАСЛАМ, НЕФТЕПРОДУКТАМ, КИСЛОТАМ И ЩЕЛОЧАМ. РАЗМЕР 10. .";s:6:"parent";s:2:"77";s:4:"durl";s:73:"rasprodazha/perchatki/perchatki-pvc-sandy-s-pesochnym-pvkh-pokrytiem-27sm";s:4:"dtxt";s:883:"Удлиненные перчатки-краги предназначены для защиты рук от травм при выполнении промышленных и бытовых работ. Выполнены из хлопчатобумажного трикотажа с тройным слоем покрытия сверхпрочного ПВХ. «Песочное» покрытие обеспечивает крепкий захват любых поверхностей в любую погоду. Морозоустойчивый ПВХ сохраняет свою гибкость и защитные свойства при отрицательных температурах. Перчатки обладают долговременной стойкостью к маслам, нефтепродуктам, кислотам и щелочам. Размер 10. .";s:4:"dpic";s:27:"/upload/iblock/1c3/9537.jpg";s:11:"preview_pic";s:27:"/upload/iblock/18f/9537.jpg";s:4:"bxid";s:6:"201036";s:5:"alias";s:0:"";s:7:"section";s:5:"11734";}i:4;a:14:{s:2:"id";s:4:"1823";s:3:"act";s:1:"N";s:9:"prod_type";s:0:"";s:4:"name";s:54:"Перчатки Арктика утепл. крага";s:3:"art";s:10:"Пер4222";s:6:"search";s:751:"ПЕРЧАТКИ АРКТИКА УТЕПЛ. КРАГА

УТЕПЛЕННЫЕ, ПРОЧНЫЕ ПЕРЧАТКИ С ПВХ ПОКРЫТИЕМ. ЗАЩИТА ОТ НИЗКИХ ТЕМПЕРАТУР, МАСЕЛ, НЕФТИ И НЕФТЕПРОДУКТОВ, МЕХАНИЧЕСКИХ ВОЗДЕЙСТВИЙ В УСЛОВИЯХ ПОНИЖЕННЫХ ТЕМПЕРАТУР. ПОКРЫТИЕ – ПВХ. ОСНОВА ПЕРЧАТОК - УТЕПЛЕННЫЙ Х/Б ТРИКОТАЖ, ДУБЛИРОВАННЫЙ ПОРОЛОНОМ. ТОЛЩИНА ПОДКЛАДКИ 4 ММ. ВОДОНЕПРОНИЦАЕМЫ. МОРОЗОСТОЙКОСТЬ ПОКРЫТИЯ: ДО -50°С. МОРОЗОСТОЙКОСТЬ ЭКСПЛУАТАЦИОННАЯ: ДО -20°С. РАЗМЕР: 10.5";s:6:"parent";s:2:"77";s:4:"durl";s:51:"rasprodazha/perchatki/perchatki-arktika-utepl-kraga";s:4:"dtxt";s:693:"Утепленные, прочные перчатки с ПВХ покрытием. Защита от низких температур, масел, нефти и нефтепродуктов, механических воздействий в условиях пониженных температур. Покрытие – ПВХ. Основа перчаток - утепленный х/б трикотаж, дублированный поролоном. Толщина подкладки 4 мм. Водонепроницаемы. Морозостойкость покрытия: до -50°С. Морозостойкость эксплуатационная: до -20°С. Размер: 10.5";s:4:"dpic";s:28:"/upload/iblock/ed2/14186.jpg";s:11:"preview_pic";s:28:"/upload/iblock/883/14186.jpg";s:4:"bxid";s:6:"201042";s:5:"alias";s:0:"";s:7:"section";s:5:"11734";}i:5;a:14:{s:2:"id";s:4:"1824";s:3:"act";s:1:"N";s:9:"prod_type";s:0:"";s:4:"name";s:40:"Перчатки Нитролайт РЧ";s:3:"art";s:10:"Пер6506";s:6:"search";s:922:"ПЕРЧАТКИ НИТРОЛАЙТ РЧ

ЭКОНОМИЧНЫЙ ВАРИАНТ НИТРИЛЬНЫХ ПЕРЧАТОК. ЗАЩИТА ОТ ОСНОВНЫХ ВИДОВ МЕХАНИЧЕСКИХ ВОЗДЕЙСТВИЙ. ЧАСТИЧНОЕ ПОКРЫТИЕ ПЕРЧАТКИ НИТРИЛЬНЫМ ЛАТЕКСОМ (ИНДЕКС РЧ) - ОБЛЕГЧЕННЫЙ ВАРИАНТ ПЕРЧАТКИ. ЛЕГКИЕ, ХОРОШО ДЫШАЩИЕ, ОБЕСПЕЧИВАЮЩИЕ ОТЛИЧНУЮ ТАКТИЛЬНУЮ ЧУВСТВИТЕЛЬНОСТЬ РУК. ОТЛИЧНО ВЫДЕРЖИВАЮТ КОНТАКТ С МИНЕРАЛЬНЫМИ МАСЛАМИ, БЕНЗИНОМ И НЕФТЬЮ. ХОРОШАЯ СТОЙКОСТЬ К ВОЗДЕЙСТВИЯМ КИСЛОТ, ЩЕЛОЧЕЙ И СОЛЕЙ РАЗМЕР: 10,5. ПОКРЫТИЕ - НИТРИЛЬНЫЙ ЛАТЕКС , ОДИНАРНОЕ. ОСНОВА ПЕРЧАТОК - Х/Б ТРИКОТАЖ.";s:6:"parent";s:2:"77";s:4:"durl";s:45:"rasprodazha/perchatki/perchatki-nitrolayt-rch";s:4:"dtxt";s:886:"Экономичный вариант нитрильных перчаток. Защита от основных видов механических воздействий. Частичное покрытие перчатки нитрильным латексом &#40;индекс РЧ&#41; - облегченный вариант перчатки. Легкие, хорошо дышащие, обеспечивающие отличную тактильную чувствительность рук. Отлично выдерживают контакт с минеральными маслами, бензином и нефтью. Хорошая стойкость к воздействиям кислот, щелочей и солей Размер: 10,5. Покрытие - нитрильный латекс , одинарное. Основа перчаток - х/б трикотаж.";s:4:"dpic";s:28:"/upload/iblock/593/14213.jpg";s:11:"preview_pic";s:28:"/upload/iblock/9fd/14213.jpg";s:4:"bxid";s:6:"201048";s:5:"alias";s:0:"";s:7:"section";s:5:"11734";}i:6;a:14:{s:2:"id";s:4:"1825";s:3:"act";s:1:"N";s:9:"prod_type";s:0:"";s:4:"name";s:45:"Перчатки Нитрос-супер КП";s:3:"art";s:12:"Пер448525";s:6:"search";s:708:"ПЕРЧАТКИ НИТРОС-СУПЕР КП

ЗАЩИТА ОТ ОСНОВНЫХ ВИДОВ ЗНАЧИТЕЛЬНЫХ МЕХАНИЧЕСКИХ ВОЗДЕЙСТВИЙ.УВЕЛИЧЕННЫЙ СРОК ЭКСПЛУАТАЦИИ. ОСОБАЯ СТОЙКОСТЬ К ПОРЕЗАМ, ПРОКОЛАМ, ИСТИРАНИЮ, РАЗРЫВУ. ОТЛИЧНО ВЫДЕРЖИВАЮТ КОНТАКТ С МИНЕРАЛЬНЫМИ МАСЛАМИ, БЕНЗИНОМ И НЕФТЬЮ. ХОРОШАЯ СТОЙКОСТЬ К ВОЗДЕЙСТВИЯМ КИСЛОТ, ЩЕЛОЧЕЙ И СОЛЕЙ. ПОКРЫТИЕ – НИТРИЛЬНЫЙ ЛАТЕКС, ПОЛНОЕ ТРОЙНОЕ. ОСНОВА – ПЛОТНЫЙ Х/Б ТРИКОТАЖ.";s:6:"parent";s:2:"77";s:4:"durl";s:47:"rasprodazha/perchatki/perchatki-nitros-super-kp";s:4:"dtxt";s:659:"Защита от основных видов значительных механических воздействий.Увеличенный срок эксплуатации. Особая стойкость к порезам, проколам, истиранию, разрыву. Отлично выдерживают контакт с минеральными маслами, бензином и нефтью. Хорошая стойкость к воздействиям кислот, щелочей и солей. Покрытие – нитрильный латекс, полное тройное. Основа – плотный х/б трикотаж.";s:4:"dpic";s:28:"/upload/iblock/bbd/14219.jpg";s:11:"preview_pic";s:28:"/upload/iblock/fc1/14219.jpg";s:4:"bxid";s:6:"201051";s:5:"alias";s:0:"";s:7:"section";s:5:"11734";}i:7;a:14:{s:2:"id";s:4:"1826";s:3:"act";s:1:"N";s:9:"prod_type";s:0:"";s:4:"name";s:34:"Перчатки Нитрос КП";s:3:"art";s:10:"Пер6404";s:6:"search";s:793:"ПЕРЧАТКИ НИТРОС КП

.САМЫЕ РАСПРОСТРАНЕННЫЕ УНИВЕРСАЛЬНЫЕ ПЕРЧАТКИ. ЗАЩИТА ОТ ОСНОВНЫХ ВИДОВ МЕХАНИЧЕСКИХ ВОЗДЕЙСТВИЙ. ОТЛИЧНО ВЫДЕРЖИВАЮТ КОНТАКТ С МИНЕРАЛЬНЫМИ МАСЛАМИ, БЕНЗИНОМ И НЕФТЬЮ. ХОРОШАЯ СТОЙКОСТЬ К ВОЗДЕЙСТВИЯМ КИСЛОТ, ЩЕЛОЧЕЙ И СОЛЕЙ. ПОЛНОЕ ПОКРЫТИЕ ПЕРЧАТКИ НИТРИЛЬНЫМ ЛАТЕКСОМ – ДЛЯ МАКСИМАЛЬНОЙ ЗАЩИТЫ ОТ ЗАГРЯЗНЕНИЙ. ПОКРЫТИЕ –НИТРИЛЬНЫЙ ЛАТЕКС, ПОЛНОЕ ТРОЙНОЕ. ОСНОВА ПЕРЧАТОК – Х/Б ТРИКОТАЖ. РАЗМЕРЫ: 9, 10.5, 11.";s:6:"parent";s:2:"77";s:4:"durl";s:41:"rasprodazha/perchatki/perchatki-nitros-kp";s:4:"dtxt";s:755:".Самые распространенные универсальные перчатки. Защита от основных видов механических воздействий. Отлично выдерживают контакт с минеральными маслами, бензином и нефтью. Хорошая стойкость к воздействиям кислот, щелочей и солей. Полное покрытие перчатки нитрильным латексом – для максимальной защиты от загрязнений. Покрытие –нитрильный латекс, полное тройное. Основа перчаток – х/б трикотаж. Размеры: 9, 10.5, 11.";s:4:"dpic";s:28:"/upload/iblock/c6f/14215.jpg";s:11:"preview_pic";s:28:"/upload/iblock/0d6/14215.jpg";s:4:"bxid";s:6:"201052";s:5:"alias";s:0:"";s:7:"section";s:5:"11734";}i:8;a:14:{s:2:"id";s:4:"1827";s:3:"act";s:1:"N";s:9:"prod_type";s:0:"";s:4:"name";s:34:"Перчатки Нитрос КЧ";s:3:"art";s:10:"Пер6405";s:6:"search";s:780:"ПЕРЧАТКИ НИТРОС КЧ

САМЫЕ РАСПРОСТРАНЕННЫЕ УНИВЕРСАЛЬНЫЕ ПЕРЧАТКИ. ЗАЩИТА ОТ ОСНОВНЫХ ВИДОВ МЕХАНИЧЕСКИХ ВОЗДЕЙСТВИЙ. ОТЛИЧНО ВЫДЕРЖИВАЮТ КОНТАКТ С МИНЕРАЛЬНЫМИ МАСЛАМИ, БЕНЗИНОМ И НЕФТЬЮ. ХОРОШАЯ СТОЙКОСТЬ К ВОЗДЕЙСТВИЯМ КИСЛОТ, ЩЕЛОЧЕЙ И СОЛЕЙ. ЧАСТИЧНОЕ ПОКРЫТИЕ ПЕРЧАТКИ НИТРИЛЬНЫМ ЛАТЕКСОМ – ОБЛЕГЧЕННЫЙ ВАРИАНТ ПЕРЧАТКИ. ПОКРЫТИЕ –НИТРИЛЬНЫЙ ЛАТЕКС, ПОЛНОЕ ТРОЙНОЕ. ОСНОВА ПЕРЧАТОК – Х/Б ТРИКОТАЖ. РАЗМЕРЫ: 9, 10.5, 11.";s:6:"parent";s:2:"77";s:4:"durl";s:42:"rasprodazha/perchatki/perchatki-nitros-kch";s:4:"dtxt";s:742:"Самые распространенные универсальные перчатки. Защита от основных видов механических воздействий. Отлично выдерживают контакт с минеральными маслами, бензином и нефтью. Хорошая стойкость к воздействиям кислот, щелочей и солей. Частичное покрытие перчатки нитрильным латексом – облегченный вариант перчатки. Покрытие –нитрильный латекс, полное тройное. Основа перчаток – х/б трикотаж. Размеры: 9, 10.5, 11.";s:4:"dpic";s:28:"/upload/iblock/2dc/14216.jpg";s:11:"preview_pic";s:28:"/upload/iblock/d55/14216.jpg";s:4:"bxid";s:6:"201053";s:5:"alias";s:0:"";s:7:"section";s:5:"11734";}i:9;a:14:{s:2:"id";s:4:"1828";s:3:"act";s:1:"N";s:9:"prod_type";s:0:"";s:4:"name";s:34:"Перчатки Нитрос РЧ";s:3:"art";s:10:"Пер6406";s:6:"search";s:780:"ПЕРЧАТКИ НИТРОС РЧ

САМЫЕ РАСПРОСТРАНЕННЫЕ УНИВЕРСАЛЬНЫЕ ПЕРЧАТКИ. ЗАЩИТА ОТ ОСНОВНЫХ ВИДОВ МЕХАНИЧЕСКИХ ВОЗДЕЙСТВИЙ. ОТЛИЧНО ВЫДЕРЖИВАЮТ КОНТАКТ С МИНЕРАЛЬНЫМИ МАСЛАМИ, БЕНЗИНОМ И НЕФТЬЮ. ХОРОШАЯ СТОЙКОСТЬ К ВОЗДЕЙСТВИЯМ КИСЛОТ, ЩЕЛОЧЕЙ И СОЛЕЙ. ЧАСТИЧНОЕ ПОКРЫТИЕ ПЕРЧАТКИ НИТРИЛЬНЫМ ЛАТЕКСОМ – ОБЛЕГЧЕННЫЙ ВАРИАНТ ПЕРЧАТКИ. ПОКРЫТИЕ –НИТРИЛЬНЫЙ ЛАТЕКС, ПОЛНОЕ ТРОЙНОЕ. ОСНОВА ПЕРЧАТОК – Х/Б ТРИКОТАЖ. РАЗМЕРЫ: 9, 10.5, 11.";s:6:"parent";s:2:"77";s:4:"durl";s:42:"rasprodazha/perchatki/perchatki-nitros-rch";s:4:"dtxt";s:742:"Самые распространенные универсальные перчатки. Защита от основных видов механических воздействий. Отлично выдерживают контакт с минеральными маслами, бензином и нефтью. Хорошая стойкость к воздействиям кислот, щелочей и солей. Частичное покрытие перчатки нитрильным латексом – облегченный вариант перчатки. Покрытие –нитрильный латекс, полное тройное. Основа перчаток – х/б трикотаж. Размеры: 9, 10.5, 11.";s:4:"dpic";s:28:"/upload/iblock/122/14218.jpg";s:11:"preview_pic";s:28:"/upload/iblock/318/14218.jpg";s:4:"bxid";s:6:"201054";s:5:"alias";s:0:"";s:7:"section";s:5:"11734";}i:10;a:14:{s:2:"id";s:4:"1829";s:3:"act";s:1:"N";s:9:"prod_type";s:0:"";s:4:"name";s:27:"Перчатки Пульс";s:3:"art";s:12:"Пер496571";s:6:"search";s:425:"ПЕРЧАТКИ ПУЛЬС

ЗАЩИТА ИЗДЕЛИЙ И ПРИБОРОВ ПРИ КОНТАКТЕ С РУКАМИ. РЕКОМЕНДОВАНЫ ПРИ ПРОВЕДЕНИИ СБОРОЧНЫХ РАБОТ И НАЛАДОЧНЫХ ОПЕРАЦИЙ, ТРЕБУЮЩИХ ПОВЫШЕННОЙ ЧУВСТВИТЕЛЬНОСТИ РУК. ПОКРЫТИЕ - ПОЛИУРЕТАН. ОСНОВА - НЕЙЛОН. РАЗМЕРЫ: 7,8,9,10. .";s:6:"parent";s:2:"77";s:4:"durl";s:36:"rasprodazha/perchatki/perchatki-puls";s:4:"dtxt";s:394:"Защита изделий и приборов при контакте с руками. Рекомендованы при проведении сборочных работ и наладочных операций, требующих повышенной чувствительности рук. Покрытие - полиуретан. Основа - нейлон. Размеры: 7,8,9,10. .";s:4:"dpic";s:28:"/upload/iblock/90d/14212.jpg";s:11:"preview_pic";s:28:"/upload/iblock/c92/14212.jpg";s:4:"bxid";s:6:"201055";s:5:"alias";s:0:"";s:7:"section";s:5:"11734";}i:11;a:14:{s:2:"id";s:4:"1830";s:3:"act";s:1:"N";s:9:"prod_type";s:0:"";s:4:"name";s:27:"Перчатки София";s:3:"art";s:10:"Пер6110";s:6:"search";s:782:"ПЕРЧАТКИ СОФИЯ

САМЫЕ ПРОЧНЫЕ ТРИКОТАЖНЫЕ ПЕРЧАТКИ С ЛАТЕКСНЫМ ПОКРЫТИЕМ. ПРОЧНЫЙ ЗАХВАТ СУХИХ И ВЛАЖНЫХ ПРЕДМЕТОВ ЗА СЧЕТ РЕЛЬЕФНОГО ЛАТЕКСНОГО ПОКРЫТИЯ. ПОКРЫТИЕ - РЕЛЬЕФНЫЙ СЛОЙ ЛАТЕКСА. ОСНОВА - Х/Б ТРИКОТАЖ БЕСШОВНОЙ ВЯЗКИ. РАЗМЕР: 7, 8, 9,10. ПРИМЕНЕНИЕ: РЕКОМЕНДОВАНЫ ПРИ ПРОВЕДЕНИИ ТЯЖЕЛЫХ РАБОТ В ТЕЧЕНИИ ДЛИТЕЛЬНОЙ РАБОТЫ (ЗА СЧЕТ ОСОБОЙ СТРУКТУРЫ ТРИКОТАЖНОЙ ОСНОВЫ РУКИ НЕ ПОТЕЮТ В ТЕЧЕНИИ ДЛИТЕЛЬНОГО ПЕРИОДА РАБОТЫ).";s:6:"parent";s:2:"77";s:4:"durl";s:38:"rasprodazha/perchatki/perchatki-sofiya";s:4:"dtxt";s:759:"Самые прочные трикотажные перчатки с латексным покрытием. Прочный захват сухих и влажных предметов за счет рельефного латексного покрытия. Покрытие - рельефный слой латекса. Основа - х/б трикотаж бесшовной вязки. Размер: 7, 8, 9,10. Применение: рекомендованы при проведении тяжелых работ в течении длительной работы &#40;за счет особой структуры трикотажной основы руки не потеют в течении длительного периода работы&#41;.";s:4:"dpic";s:28:"/upload/iblock/344/14185.jpg";s:11:"preview_pic";s:28:"/upload/iblock/b14/14185.jpg";s:4:"bxid";s:6:"201059";s:5:"alias";s:0:"";s:7:"section";s:5:"11734";}i:12;a:14:{s:2:"id";s:4:"1831";s:3:"act";s:1:"N";s:9:"prod_type";s:0:"";s:4:"name";s:85:"Перчатки Трал-К Люкс кожанные комбинированные";s:3:"art";s:9:"Пер059";s:6:"search";s:1538:"ПЕРЧАТКИ ТРАЛ-К ЛЮКС КОЖАННЫЕ КОМБИНИРОВАННЫЕ

КОЖАНЫЕ КОМБИНИРОВАННЫЕ РАБОЧИЕ ПЕРЧАТКИ ТРАЛ-К ЛЮКС СПЕЦИАЛЬНО ПРЕДНАЗНАЧЕНЫ ДЛЯ РАБОТ, ТРЕБУЮЩИХ ВЫСОКОЙ СТЕПЕНИ ЗАЩИТЫ И МАКСИМАЛЬНОЙ СВОБОДЫ ДВИЖЕНИЙ. СОСТАВ: СВИНАЯ КОЖА КЛАССА А, 100% ХЛОПОК ОСОБЕННОСТИ И ПРЕИМУЩЕСТВА: - КАЧЕСТВЕННАЯ, ЧРЕЗВЫЧАЙНО СТОЙКАЯ К ИСТИРАНИЮ СВИНАЯ КОЖА - МЯГКОСТЬ И НАТУРАЛЬНАЯ УПРУГОСТЬ КОЖИ ПРЕДОТВРАЩАЮТ УСТАЛОСТЬ КИСТИ РУКИ - ПРОРЕЗИНЕННАЯ МАНЖЕТА-КРАГА ЗАЩИЩАЕТ ЗАПЯСТЬЯ ОТ ПОРЕЗОВ ПРИ ОПАСНЫХ РАБОТАХ - ПОДКЛАДКА ИЗ Х/Б ТКАНИ НА ЛАДОНИ И ПАЛЬЦАХ ДЛЯ ДОПОЛНИТЕЛЬНОГО КОМФОРТА - Х/Б ТКАНЬ НА ТЫЛЬНОЙ СТОРОНЕ ОБЕСПЕЧИВАЕТ ВОЗДУХООБМЕН - ЯРКАЯ РАСЦВЕТКА ДОБАВЛЯЕТ ВИДИМОСТИ ДЛЯ БЕЗОПАСНОСТИ В МЕСТАХ С ПЛОХИМ ОСВЕЩЕНИЕМ СФЕРЫ ПРИМЕНЕНИЯ: ТЯЖЕЛЫЕ РАБОТЫ, ТРЕБУЮЩИЕ ЛОВКОСТИ РУК; СТРОИТЕЛЬСТВО, СЕЛЬСКОЕ ХОЗЯЙСТВО, МЕТАЛЛООБРАБОТКА, КОММУНАЛЬНОЕ ХОЗЯЙСТВО.";s:6:"parent";s:2:"77";s:4:"durl";s:70:"rasprodazha/perchatki/perchatki-tral-k-lyuks-kozhannye-kombinirovannye";s:4:"dtxt";s:1453:"Кожаные комбинированные рабочие перчатки ТРАЛ-К ЛЮКС специально предназначены для работ, требующих высокой степени защиты и максимальной свободы движений. Состав: свиная кожа класса А, 100&#37; хлопок Особенности и преимущества: - Качественная, чрезвычайно стойкая к истиранию свиная кожа - Мягкость и натуральная упругость кожи предотвращают усталость кисти руки - Прорезиненная манжета-крага защищает запястья от порезов при опасных работах - Подкладка из х/б ткани на ладони и пальцах для дополнительного комфорта - Х/б ткань на тыльной стороне обеспечивает воздухообмен - Яркая расцветка добавляет видимости для безопасности в местах с плохим освещением Сферы применения: Тяжелые работы, требующие ловкости рук; строительство, сельское хозяйство, металлообработка, коммунальное хозяйство.";s:4:"dpic";s:27:"/upload/iblock/de4/2428.jpg";s:11:"preview_pic";s:27:"/upload/iblock/4c4/2428.jpg";s:4:"bxid";s:6:"201062";s:5:"alias";s:0:"";s:7:"section";s:5:"11734";}i:13;a:14:{s:2:"id";s:4:"1832";s:3:"act";s:1:"N";s:9:"prod_type";s:0:"";s:4:"name";s:62:"Перчатки бензост. облег. 0516 желтые";s:3:"art";s:10:"Пер0516";s:6:"search";s:957:"ПЕРЧАТКИ БЕНЗОСТ. ОБЛЕГ. 0516 ЖЕЛТЫЕ

ПЕРЧАТКИ НИТРИЛОВЫЕ С ОБЛЕГЧЕННЫМ ПОКРЫТИЕМ, НЕ ПОЛНЫЙ ОБЛИВ ЛЕГКИЕ ПЕРЧАТКИ С НИТРИЛОВЫМ ПОКРЫТИЕМ 60ГР, ХЛОПКОВАЯ ОСНОВА С ЧАСТИЧНЫМ НИТРИЛОВЫМ ПОКРЫТИЕМ, МАНЖЕТ РЕЗИНКА. ВЫСОКАЯ ЧУВСТВИТЕЛЬНОСТЬ ЛАДОНИ И ПАЛЬЦЕВ, ОГРАНИЧЕННАЯ СТОЙКОСТЬ К АГРЕССИВНЫМ ЖИДКОСТЯМ, ВОДОСТОЙКОЕ ПОКРЫТИЕ. ВЫСОКОЕ СОПРОТИВЛЕНИЕ ИСТИРАНИЮ, СТОЙКОСТЬ К РАЗРЫВУ, ОГРАНИЧЕННАЯ СТОЙКОСТЬ К ПРОКОЛУ И ПОРЕЗУ. РЕКОМЕНДОВАНЫ ДЛЯ ВЫПОЛНЕНИЯ ОБЩИХ СТРОИТЕЛЬНЫХ РАБОТ, ПРОВЕДЕНИЯ ПОГРУЗОЧНО-РАЗГРУЗОЧНЫХ РАБОТ. .";s:6:"parent";s:2:"77";s:4:"durl";s:58:"rasprodazha/perchatki/perchatki-benzost-obleg-0516-zheltye";s:4:"dtxt";s:891:"Перчатки нитриловые с облегченным покрытием, не полный облив Легкие перчатки с нитриловым покрытием 60гр, хлопковая основа с частичным нитриловым покрытием, манжет резинка. Высокая чувствительность ладони и пальцев, ограниченная стойкость к агрессивным жидкостям, водостойкое покрытие. Высокое сопротивление истиранию, стойкость к разрыву, ограниченная стойкость к проколу и порезу. Рекомендованы для выполнения общих строительных работ, проведения погрузочно-разгрузочных работ. .";s:4:"dpic";s:27:"/upload/iblock/102/2410.jpg";s:11:"preview_pic";s:27:"/upload/iblock/e0d/2410.jpg";s:4:"bxid";s:6:"201072";s:5:"alias";s:0:"";s:7:"section";s:5:"11734";}i:14;a:14:{s:2:"id";s:4:"1833";s:3:"act";s:1:"N";s:9:"prod_type";s:0:"";s:4:"name";s:87:"Рукавицы антивибрационные с брез. наладонником";s:3:"art";s:9:"Рук220";s:6:"search";s:650:"РУКАВИЦЫ АНТИВИБРАЦИОННЫЕ С БРЕЗ. НАЛАДОННИКОМ

. АНТИВИБРАЦИОННЫЕ РУКАВИЦЫ С БРЕЗЕНТОВЫМ НАЛАДОННИКОМ ЗАЩИЩАЮТ НЕ ТОЛЬКО ОТ МЕХАНИЧЕСКИХ ВОЗДЕЙСТВИЙ, НО И ОТ ВИБРАЦИЙ. ПРИМЕНЯЮТСЯ СПЕЦИАЛИСТАМИ, КОТОРЫЕ РАБОТАЮТ С ВИБРОИНСТРУМЕНТОМ: ОТБОЙНЫЕ МОЛОТКИ, ПЕРФОРАТОРЫ, ВИБРОПЛИТЫ, ГАЙКОВЕРТЫ. РУКАВИЦЫ УСИЛЕНЫ НАЛАДОННИКОМ ИЗ БРЕЗЕНТА ПЛОТНОСТЬЮ 450 Г/М2. .";s:6:"parent";s:2:"77";s:4:"durl";s:69:"rasprodazha/perchatki/rukavitsy-antivibratsionnye-s-brez-naladonnikom";s:4:"dtxt";s:559:". Антивибрационные рукавицы с брезентовым наладонником защищают не только от механических воздействий, но и от вибраций. Применяются специалистами, которые работают с виброинструментом: отбойные молотки, перфораторы, виброплиты, гайковерты. Рукавицы усилены наладонником из брезента плотностью 450 г/м2. .";s:4:"dpic";s:28:"/upload/iblock/113/12656.jpg";s:11:"preview_pic";s:28:"/upload/iblock/799/12656.jpg";s:4:"bxid";s:6:"201295";s:5:"alias";s:0:"";s:7:"section";s:5:"11734";}i:15;a:14:{s:2:"id";s:4:"1714";s:3:"act";s:1:"N";s:9:"prod_type";s:0:"";s:4:"name";s:54:"Брюки Комбат (тк.Тиси) березка";s:3:"art";s:9:"Брю013";s:6:"search";s:282:"БРЮКИ КОМБАТ (ТК.ТИСИ) БЕРЕЗКА

. БРЮКИ КОМБАТ (ТК.ТИСИ) БЕРЕЗКА . . БРЮКИ С ДВУМЯ КАРМАНАМИ С ПОЯСОМ НА РЕЗИНКЕ. . БРЮКИ С ДВУМЯ КАРМАНАМИ С ПОЯСОМ НА РЕЗИНКЕ.";s:6:"parent";s:2:"76";s:4:"durl";s:49:"rasprodazha/odezhda/bryuki-kombat-tk-tisi-berezka";s:4:"dtxt";s:232:". Брюки Комбат &#40;тк.Тиси&#41; березка . . Брюки с двумя карманами с поясом на резинке. . Брюки с двумя карманами с поясом на резинке.";s:4:"dpic";s:28:"/upload/iblock/ca5/13163.jpg";s:11:"preview_pic";s:28:"/upload/iblock/dbb/13163.jpg";s:4:"bxid";s:6:"200265";s:5:"alias";s:0:"";s:7:"section";s:5:"11733";}i:16;a:14:{s:2:"id";s:4:"1715";s:3:"act";s:1:"N";s:9:"prod_type";s:0:"";s:4:"name";s:46:"Брюки Комбат (тк.Тиси) дуб";s:3:"art";s:9:"Брю012";s:6:"search";s:263:"БРЮКИ КОМБАТ (ТК.ТИСИ) ДУБ

.БРЮКИ КОМБАТ (ТК.ТИСИ) ДУБ . БРЮКИ С ДВУМЯ КАРМАНАМИ С ПОЯСОМ НА РЕЗИНКЕ. . БРЮКИ С ДВУМЯ КАРМАНАМИ С ПОЯСОМ НА РЕЗИНКЕ.";s:6:"parent";s:2:"76";s:4:"durl";s:45:"rasprodazha/odezhda/bryuki-kombat-tk-tisi-dub";s:4:"dtxt";s:221:".Брюки Комбат &#40;тк.Тиси&#41; дуб . Брюки с двумя карманами с поясом на резинке. . Брюки с двумя карманами с поясом на резинке.";s:4:"dpic";s:28:"/upload/iblock/f0b/13153.jpg";s:11:"preview_pic";s:28:"/upload/iblock/f61/13153.jpg";s:4:"bxid";s:6:"200266";s:5:"alias";s:0:"";s:7:"section";s:5:"11733";}i:17;a:14:{s:2:"id";s:4:"1716";s:3:"act";s:1:"N";s:9:"prod_type";s:0:"";s:4:"name";s:50:"Брюки Комбат (тк.Тиси) камыш";s:3:"art";s:9:"Брю014";s:6:"search";s:186:"БРЮКИ КОМБАТ (ТК.ТИСИ) КАМЫШ

. БРЮКИ С ДВУМЯ КАРМАНАМИ С ПОЯСОМ НА РЕЗИНКЕ.БРЮКИ КОМБАТ (ТК.ТИСИ) КАМЫШ";s:6:"parent";s:2:"76";s:4:"durl";s:48:"rasprodazha/odezhda/bryuki-kombat-tk-tisi-kamysh";s:4:"dtxt";s:140:". Брюки с двумя карманами с поясом на резинке.Брюки Комбат &#40;тк.Тиси&#41; камыш";s:4:"dpic";s:28:"/upload/iblock/7a4/13315.jpg";s:11:"preview_pic";s:28:"/upload/iblock/771/13315.jpg";s:4:"bxid";s:6:"200267";s:5:"alias";s:0:"";s:7:"section";s:5:"11733";}i:18;a:14:{s:2:"id";s:4:"1717";s:3:"act";s:1:"N";s:9:"prod_type";s:0:"";s:4:"name";s:61:"Брюки Следопыт тк.Оксфорд цв.Хаки";s:3:"art";s:9:"Брю029";s:6:"search";s:397:"БРЮКИ СЛЕДОПЫТ ТК.ОКСФОРД ЦВ.ХАКИ

БРЮКИ ДЕМИСЕЗОННЫЕ (СЛЕДОПЫТ ОКСФОРД, ЦВЕТ - КАМУФЛЯЖ. ТКАНЬ ВЕРХА: OXFORD ПОДКЛАДКА: ТАФФЕТА УТЕПЛИТЕЛЬ: СИНТЕПОН ТЕМПЕРАТУРНЫЙ ДИАПАЗОН: 0 - +15С - НИЗ БРЮК РЕГУЛИРУЕТСЯ ПО ШИРИНЕ ШНУРОМ)";s:6:"parent";s:2:"76";s:4:"durl";s:56:"rasprodazha/odezhda/bryuki-sledopyt-tk-oksford-tsv-khaki";s:4:"dtxt";s:344:"брюки демисезонные &#40;Следопыт Оксфорд, цвет - камуфляж. Ткань верха: Oxford Подкладка: Таффета Утеплитель: Синтепон Температурный диапазон: 0 - &#43;15С - низ брюк регулируется по ширине шнуром&#41;";s:4:"dpic";s:28:"/upload/iblock/65f/12373.jpg";s:11:"preview_pic";s:28:"/upload/iblock/1d0/12373.jpg";s:4:"bxid";s:6:"200277";s:5:"alias";s:0:"";s:7:"section";s:5:"11733";}i:19;a:14:{s:2:"id";s:4:"1718";s:3:"act";s:1:"N";s:9:"prod_type";s:0:"";s:4:"name";s:45:"Брюки Тойота цв.сер./крас";s:3:"art";s:9:"Брю238";s:6:"search";s:363:"БРЮКИ ТОЙОТА ЦВ.СЕР./КРАС

БРЮКИ С ЗАСТЕЖКОЙ-ГУЛЬФ НА ТЕСЬМУ-МОЛНИЮ ЗАДНЯЯ ЧАСТЬ ТАЛИИ НА ЭЛАСТИЧНОЙ ЛЕНТЕ, БОКОВЫЕ КАРМАНЫ, УСИЛЕНИЕ В ОБЛАСТИ КОЛЕН ЦВЕТ: КРАСНЫЙ/СЕРЫЙ ТКАНЬ: БАЛТЕКС 2 ПЛ.240 Г/М 2, ВО .";s:6:"parent";s:2:"76";s:4:"durl";s:46:"rasprodazha/odezhda/bryuki-toyota-tsv-ser-kras";s:4:"dtxt";s:314:"брюки с застежкой-гульф на тесьму-молнию задняя часть талии на эластичной ленте, боковые карманы, усиление в области колен Цвет: красный/серый Ткань: Балтекс 2 пл.240 г/м 2, ВО .";s:4:"dpic";s:28:"/upload/iblock/d63/12570.jpg";s:11:"preview_pic";s:28:"/upload/iblock/d9c/12570.jpg";s:4:"bxid";s:6:"200278";s:5:"alias";s:0:"";s:7:"section";s:5:"11733";}i:20;a:14:{s:2:"id";s:4:"1719";s:3:"act";s:1:"N";s:9:"prod_type";s:0:"";s:4:"name";s:67:"Бр. ут. Грета с лям. на шир. поясе т/син";s:3:"art";s:9:"Брю505";s:6:"search";s:399:"БР. УТ. ГРЕТА С ЛЯМ. НА ШИР. ПОЯСЕ Т/СИН

БРЮКИ ПРЯМОГО СИЛУЭТА, С НАКЛАДНЫМИ КАРМАНАМИ. НА ПОЯСЕ ШЛЕВКИ. ТК.ГРЕТА, УТЕПЛИТЕЛЬ СИНТЕПОН 2 СЛОЯ ПО 120 ГР./КВ.М., ПОДКЛАДКА ТАФЕТА ЦВЕТ: СИНИЙ ТКАНЬ: ПЛ.210 ГР./КВ.М., 35% ХЛОПОК, 65% П/Э . .";s:6:"parent";s:2:"76";s:4:"durl";s:59:"rasprodazha/odezhda/br-ut-greta-s-lyam-na-shir-poyase-t-sin";s:4:"dtxt";s:336:"Брюки прямого силуэта, с накладными карманами. На поясе шлевки. Тк.грета, утеплитель синтепон 2 слоя по 120 гр./кв.м., подкладка тафета Цвет: синий Ткань: пл.210 гр./кв.м., 35&#37; хлопок, 65&#37; п/э . .";s:4:"dpic";s:28:"/upload/iblock/e8b/11150.jpg";s:11:"preview_pic";s:28:"/upload/iblock/0a7/11150.jpg";s:4:"bxid";s:6:"200294";s:5:"alias";s:0:"";s:7:"section";s:5:"11733";}i:21;a:14:{s:2:"id";s:4:"1720";s:3:"act";s:1:"N";s:9:"prod_type";s:0:"";s:4:"name";s:53:"Брюки утепленные тк.Смесовка";s:3:"art";s:9:"Брю124";s:6:"search";s:419:"БРЮКИ УТЕПЛЕННЫЕ ТК.СМЕСОВКА

БРЮКИ УТЕПЛЕННЫЕ (СМЕСОВАЯ, ВАТИН, ВЫСОКИЙ ПОЯС) ГОСТ 29335-92 ТКАНЬ ВЕРХА: СМЕСОВАЯ ГРЕТА 210 ВО УТЕПЛИТЕЛЬ: ВАТИН - 2 СЛОЯ , 520 Г/М2 ЦВЕТ: ТЕМНО-СИНИЙ РАЗМЕР: 44-46 ПО 60-62 РОСТ : 170-176, 182-188 ЗАЩИТНЫЕ СВОЙСТВА :ВУ ТН .";s:6:"parent";s:2:"76";s:4:"durl";s:49:"rasprodazha/odezhda/bryuki-uteplennye-tk-smesovka";s:4:"dtxt";s:370:"Брюки утепленные &#40;смесовая, ватин, высокий пояс&#41; ГОСТ 29335-92 Ткань верха: смесовая ГРЕТА 210 ВО Утеплитель: ватин - 2 слоя , 520 г/м2 Цвет: темно-синий Размер: 44-46 по 60-62 Рост : 170-176, 182-188 Защитные свойства :Ву Тн .";s:4:"dpic";s:28:"/upload/iblock/a44/15509.jpg";s:11:"preview_pic";s:28:"/upload/iblock/960/15509.jpg";s:4:"bxid";s:6:"200295";s:5:"alias";s:0:"";s:7:"section";s:5:"11733";}i:22;a:14:{s:2:"id";s:4:"1721";s:3:"act";s:1:"N";s:9:"prod_type";s:0:"";s:4:"name";s:61:"Жилет Малина утеплённый с мех.вор";s:3:"art";s:9:"Жил013";s:6:"search";s:695:"ЖИЛЕТ МАЛИНА УТЕПЛЁННЫЙ С МЕХ.ВОР

ЖИЛЕТ: • ЦЕНТРАЛЬНАЯ ЗАСТЁЖКА НА МОЛНИЮ • ВЕРТИКАЛЬНАЯ СТЁЖКА • СЪЁМНЫЙ ВОРОТНИК ИЗ ИСКУССТВЕННОГО МЕХА • УДОБНЫЕ КАРМАНЫ НА МОЛНИИ РАЗМЕР: С 80-84 ПО 120-124 ЦВЕТ: МАЛИНА ТКАНЬ ВЕРХА: «ДЬЮСПО», 100% П/Э, ПЛ. 90 Г/М? УТЕПЛИТЕЛЬ: СИНТЕПОН 2 СЛОЯ ПЛ. 240 Г/М? ПОДКЛАДКА: 100% П/Э ГОСТ 25295-2003 ЗАЩИТНЫЕ СВОЙСТВА ЗАЩИТА ОТ ПОНИЖЕННЫХ ТЕМПЕРАТУР ВОЗДУХАВОДОУПОРНОСТЬ	 .";s:6:"parent";s:2:"76";s:4:"durl";s:56:"rasprodazha/odezhda/zhilet-malina-uteplyennyy-s-mekh-vor";s:4:"dtxt";s:661:"Жилет: • центральная застёжка на молнию • вертикальная стёжка • съёмный воротник из искусственного меха • удобные карманы на молнии Размер: с 80-84 по 120-124 Цвет: малина Ткань верха: «Дьюспо», 100&#37; п/э, пл. 90 г/м? Утеплитель: синтепон 2 слоя пл. 240 г/м? Подкладка: 100&#37; п/э ГОСТ 25295-2003 ЗАЩИТНЫЕ СВОЙСТВА Защита от пониженных температур воздухаВодоупорность&nbsp;&nbsp;&nbsp;&nbsp; .";s:4:"dpic";s:28:"/upload/iblock/d37/11215.jpg";s:11:"preview_pic";s:28:"/upload/iblock/d00/11215.jpg";s:4:"bxid";s:6:"200356";s:5:"alias";s:0:"";s:7:"section";s:5:"11733";}i:23;a:14:{s:2:"id";s:4:"1722";s:3:"act";s:1:"N";s:9:"prod_type";s:0:"";s:4:"name";s:36:"Жилет Скорая Помощь";s:3:"art";s:9:"Жил047";s:6:"search";s:321:"ЖИЛЕТ СКОРАЯ ПОМОЩЬ

ЦВЕТ: СИНИЙ ТКАНЬ ВЕРХА: СМЕСОВАЯ ПОДКЛАДКА: ТАФФЕТА, 100% ПОЛИЭСТЕР УТЕПЛИТЕЛЬ: СИНТЕПОН ЗАЩИТНЫЕ СВОЙСТВА: ТН, МИ, З СОП 5 СМ. НА СПИНЕ ЛОГОТИП СКОРАЯ ПОМОЩЬ";s:6:"parent";s:2:"76";s:4:"durl";s:43:"rasprodazha/odezhda/zhilet-skoraya-pomoshch";s:4:"dtxt";s:285:"Цвет: синий Ткань верха: смесовая Подкладка: таффета, 100&#37; полиэстер Утеплитель: синтепон Защитные свойства: Тн, Ми, З СОП 5 см. На спине логотип Скорая помощь";s:4:"dpic";s:28:"/upload/iblock/f67/13528.jpg";s:11:"preview_pic";s:28:"/upload/iblock/f65/13528.jpg";s:4:"bxid";s:6:"200358";s:5:"alias";s:0:"";s:7:"section";s:5:"11733";}i:24;a:14:{s:2:"id";s:4:"1723";s:3:"act";s:1:"N";s:9:"prod_type";s:0:"";s:4:"name";s:53:"Жилет Тотем-Ч на молнии утепл";s:3:"art";s:9:"Жил028";s:6:"search";s:569:"ЖИЛЕТ ТОТЕМ-Ч НА МОЛНИИ УТЕПЛ

ЖИЛЕТ, УТЕПЛЕННЫЙ НА СИНТЕПОНЕ С ЦЕНТРАЛЬНОЙ ЗАСТЕЖКОЙ НА МОЛНИЮ ВОРОТНИК-СТОЙКА ИЗ ТРИКОТАЖА. РЕКОМЕНДУЕТСЯ ДЛЯ ИСПОЛЬЗОВАНИЯ В НЕОТАПЛИВАЕМЫХ ПОМЕЩЕНИЯХ И НА ОТКРЫТОМ ВОЗДУХЕ. ЦВЕТ: ЧЕРНЫЙ ТКАНЬ ВЕРХА: ОКСФОРД(100% ПОЛИЭФИР) ПОДКЛАДКА: 100 % П/Э РАЗМЕР: С 96-100 ПО 120-124 ТУ 8570-001-72179571-2011 .";s:6:"parent";s:2:"76";s:4:"durl";s:51:"rasprodazha/odezhda/zhilet-totem-ch-na-molnii-utepl";s:4:"dtxt";s:528:"Жилет, утепленный на синтепоне с центральной застежкой на молнию Воротник-стойка из трикотажа. Рекомендуется для использования в неотапливаемых помещениях и на открытом воздухе. Цвет: черный Ткань верха: Оксфорд&#40;100&#37; полиэфир&#41; Подкладка: 100 &#37; п/э Размер: с 96-100 по 120-124 ТУ 8570-001-72179571-2011 .";s:4:"dpic";s:27:"/upload/iblock/5d1/8898.jpg";s:11:"preview_pic";s:27:"/upload/iblock/a49/8898.jpg";s:4:"bxid";s:6:"200360";s:5:"alias";s:0:"";s:7:"section";s:5:"11733";}i:25;a:14:{s:2:"id";s:4:"1724";s:3:"act";s:1:"N";s:9:"prod_type";s:0:"";s:4:"name";s:56:"Костюм Аккорд 2 муж. цв.вас/желт";s:3:"art";s:9:"Кос054";s:6:"search";s:509:"КОСТЮМ АККОРД 2 МУЖ. ЦВ.ВАС/ЖЕЛТ

КУРТКА С СУПАТНОЙ ЗАСТЕЖКОЙ НА ПУГОВИЦЫ, УКОРОЧЕННАЯ НА ПОЯСЕ. ПОЛУКОМБИНЕЗОН С УДОБНЫМИ НАГРУДНЫМ, БОКОВЫМИ И ЗАДНИМИ КАРМАНАМИ. ЦВЕТ: ВАСИЛЕК С ЖЕЛТЫМ, ЗЕЛЕНЫЙ С ОРАНЖЕВЫМ ТКАНЬ:СМЕСОВАЯ 65% ПОЛИЭСТЕР, 35% ХЛОПОК. РАЗМЕР: С 44-46 ПО 60-62 РОСТ:170-176, 182-188 .";s:6:"parent";s:2:"76";s:4:"durl";s:55:"rasprodazha/odezhda/kostyum-akkord-2-muzh-tsv-vas-zhelt";s:4:"dtxt";s:457:"Куртка с супатной застежкой на пуговицы, укороченная на поясе. Полукомбинезон с удобными нагрудным, боковыми и задними карманами. Цвет: василек с желтым, зеленый с оранжевым Ткань:смесовая 65&#37; полиэстер, 35&#37; хлопок. Размер: с 44-46 по 60-62 Рост:170-176, 182-188 .";s:4:"dpic";s:27:"/upload/iblock/55a/7702.jpg";s:11:"preview_pic";s:27:"/upload/iblock/d54/7702.jpg";s:4:"bxid";s:6:"200474";s:5:"alias";s:0:"";s:7:"section";s:5:"11733";}i:26;a:14:{s:2:"id";s:4:"1725";s:3:"act";s:1:"N";s:9:"prod_type";s:0:"";s:4:"name";s:55:"Костюм Аккорд 2 муж. цв.зеленый";s:3:"art";s:9:"Кос056";s:6:"search";s:508:"КОСТЮМ АККОРД 2 МУЖ. ЦВ.ЗЕЛЕНЫЙ

КУРТКА С СУПАТНОЙ ЗАСТЕЖКОЙ НА ПУГОВИЦЫ, УКОРОЧЕННАЯ НА ПОЯСЕ. ПОЛУКОМБИНЕЗОН С УДОБНЫМИ НАГРУДНЫМ, БОКОВЫМИ И ЗАДНИМИ КАРМАНАМИ. ЦВЕТ: ВАСИЛЕК С ЖЕЛТЫМ, ЗЕЛЕНЫЙ С ОРАНЖЕВЫМ ТКАНЬ:СМЕСОВАЯ 65% ПОЛИЭСТЕР, 35% ХЛОПОК. РАЗМЕР: С 44-46 ПО 60-62 РОСТ:170-176, 182-188 .";s:6:"parent";s:2:"76";s:4:"durl";s:53:"rasprodazha/odezhda/kostyum-akkord-2-muzh-tsv-zelenyy";s:4:"dtxt";s:457:"Куртка с супатной застежкой на пуговицы, укороченная на поясе. Полукомбинезон с удобными нагрудным, боковыми и задними карманами. Цвет: василек с желтым, зеленый с оранжевым Ткань:смесовая 65&#37; полиэстер, 35&#37; хлопок. Размер: с 44-46 по 60-62 Рост:170-176, 182-188 .";s:4:"dpic";s:27:"/upload/iblock/ba9/7786.jpg";s:11:"preview_pic";s:27:"/upload/iblock/6b3/7786.jpg";s:4:"bxid";s:6:"200475";s:5:"alias";s:0:"";s:7:"section";s:5:"11733";}i:27;a:14:{s:2:"id";s:4:"1726";s:3:"act";s:1:"N";s:9:"prod_type";s:0:"";s:4:"name";s:57:"Костюм Бостон (к+пк) т.син./серый";s:3:"art";s:9:"Кос461";s:6:"search";s:539:"КОСТЮМ БОСТОН (К+ПК) Т.СИН./СЕРЫЙ

КОСТЮМ СОСТОИТ ИЗ КУРТКИ И ПОЛУКОМБИНЕЗОНА. КУРТКА УКОРОЧЕННАЯ, С ЗАСТЕЖКОЙ НА МОЛНИЮ, НИЖНИМИ НАКЛАДНЫМИ КАРМАНАМИ, ВЕРХНИМ КАРМАНОМ ДЛЯ СРЕДСТВ СВЯЗИ. ПОЛУКОМБИНЕЗОН С НАГРУДНЫМ, БОКОВЫМИ КАРМАНАМИ И ЗАДНИМ КАРМАНОМ ПОД ИНСТРУМЕНТ. ЦВЕТ: ТЁМНО-СИНИЙ С СЕРЫМ .";s:6:"parent";s:2:"76";s:4:"durl";s:51:"rasprodazha/odezhda/kostyum-boston-k-pk-t-sin-seryy";s:4:"dtxt";s:478:"Костюм состоит из куртки и полукомбинезона. Куртка укороченная, с застежкой на молнию, нижними накладными карманами, верхним карманом для средств связи. Полукомбинезон с нагрудным, боковыми карманами и задним карманом под инструмент. Цвет: тёмно-синий с серым .";s:4:"dpic";s:28:"/upload/iblock/21c/13112.jpg";s:11:"preview_pic";s:28:"/upload/iblock/23a/13112.jpg";s:4:"bxid";s:6:"200488";s:5:"alias";s:0:"";s:7:"section";s:5:"11733";}i:28;a:14:{s:2:"id";s:4:"1727";s:3:"act";s:1:"N";s:9:"prod_type";s:0:"";s:4:"name";s:51:"Костюм Высота жен. вас/оранж";s:3:"art";s:9:"Кос037";s:6:"search";s:1159:"КОСТЮМ ВЫСОТА ЖЕН. ВАС/ОРАНЖ

ПРЕДНАЗНАЧЕН ДЛЯ ЗАЩИТЫ ОТ ПРОИЗВОДСТВЕННЫХ ЗАГРЯЗНЕНИЙ. РЕКОМЕНДУЕТСЯ ДЛЯ РАБОТНИКОВ ОТК, ИНЖЕНЕРНО-ТЕХНИЧЕСКОГО ПЕРСОНАЛА, МУНИЦИПАЛЬНЫХ СЛУЖБ, СТРОИТЕЛЬНЫХ СПЕЦИАЛЬНОСТЕЙ. КОСТЮМ СОСТОИТ ИЗ КУРТКИ И БРЮК. КУРТКА С ЦЕНТРАЛЬНОЙ СКРЫТОЙ ЗАСТЕЖКОЙ НА ПУГОВИЦАХ, С ОДНИМ НАГРУДНЫМ И ДВУМЯ БОКОВЫМИ НАКЛАДНЫМИ КАРМАНАМИ. КОКЕТКА СПИНКИ И ОТДЕЛОЧНАЯ ПОЛОСА, КАНТ ПО ПОЛОЧКЕ, НИЖНИЙ ВОРОТНИК ИЗ ТКАНИ КОНТРАСТНОГО ЦВЕТА. РУКАВ ДЛИННЫЙ НА МАНЖЕТЕ. БРЮКИ ПРЯМЫЕ С ПРИТАЧНЫМ ПОЯСОМ СО ШЛЕВКАМИ ДВУМЯ ПЕРЕДНИМИ НАКЛАДНЫМИ КАРМАНАМИ. ЦВЕТ: ВАСИЛЬКОВЫЙ С ОРАНЖЕВОЙ ОТДЕЛКОЙ ТКАНЬ: САРЖА (100% ХЛОПОК) ПЛ.250 Г/М2, ВО";s:6:"parent";s:2:"76";s:4:"durl";s:50:"rasprodazha/odezhda/kostyum-vysota-zhen-vas-oranzh";s:4:"dtxt";s:1116:"Предназначен для защиты от производственных загрязнений. Рекомендуется для работников ОТК, инженерно-технического персонала, муниципальных служб, строительных специальностей. Костюм состоит из куртки и брюк. Куртка с центральной скрытой застежкой на пуговицах, с одним нагрудным и двумя боковыми накладными карманами. Кокетка спинки и отделочная полоса, кант по полочке, нижний воротник из ткани контрастного цвета. Рукав длинный на манжете. Брюки прямые с притачным поясом со шлевками двумя передними накладными карманами. Цвет: васильковый с оранжевой отделкой Ткань: саржа &#40;100&#37; хлопок&#41; пл.250 г/м2, ВО";s:4:"dpic";s:27:"/upload/iblock/f71/7283.jpg";s:11:"preview_pic";s:27:"/upload/iblock/424/7283.jpg";s:4:"bxid";s:6:"200499";s:5:"alias";s:0:"";s:7:"section";s:5:"11733";}i:29;a:14:{s:2:"id";s:4:"1728";s:3:"act";s:1:"N";s:9:"prod_type";s:0:"";s:4:"name";s:41:"Костюм Гео (тк.палатка)";s:3:"art";s:9:"Кос277";s:6:"search";s:579:"КОСТЮМ ГЕО (ТК.ПАЛАТКА)

ОПИСАНИЕ: КУРТКА ПРЯМОГО СИЛУЭТА С ПРИТАЧНЫМ КАПЮШОНОМ И ПРОТИВОМОСКИТНОЙ СЕТКОЙ, С БОКОВЫМИ КАРМАНАМИ НА МОЛНИИ, РУКАВА ОТДЕЛАНЫ ТРИКОТАЖНЫМИ МАНЖЕТАМИ. ПО ЛИНИИ КОКЕТКИ СПЕРЕДИ И СЗАДИ ЗАЩИТНАЯ АНТИМОСКИТНАЯ ПЛАНКА. ПО НИЗУ БРЮК И В ПОЯСЕ- ЭЛАСТИЧНАЯ ТЕСЬМА. БРЮКИ УСИЛЕНЫ НАКОЛЕННИКАМИ. .";s:6:"parent";s:2:"76";s:4:"durl";s:42:"rasprodazha/odezhda/kostyum-geo-tk-palatka";s:4:"dtxt";s:534:"Описание: Куртка прямого силуэта с притачным капюшоном и противомоскитной сеткой, с боковыми карманами на молнии, рукава отделаны трикотажными манжетами. По линии кокетки спереди и сзади защитная антимоскитная планка. По низу брюк и в поясе- эластичная тесьма. Брюки усилены наколенниками. .";s:4:"dpic";s:28:"/upload/iblock/a36/13009.jpg";s:11:"preview_pic";s:28:"/upload/iblock/3d8/13009.jpg";s:4:"bxid";s:6:"200500";s:5:"alias";s:0:"";s:7:"section";s:5:"11733";}i:30;a:14:{s:2:"id";s:4:"1729";s:3:"act";s:1:"N";s:9:"prod_type";s:0:"";s:4:"name";s:58:"Костюм Горка-Деми (к+бр) тк.Алова";s:3:"art";s:9:"Кос377";s:6:"search";s:1299:"КОСТЮМ ГОРКА-ДЕМИ (К+БР) ТК.АЛОВА

КОСТЮМ ДЕМИСЕЗОННЫЙ - ЦЕНТРАЛЬНАЯ ЗАСТЕЖКА НА 2-Х ЗАМКОВУЮ ФРОНТАЛЬНУЮ МОЛНИЮ, ЗАКРЫТУЮ ВЕТРОЗАЩИТНОЙ ПЛАНКОЙ С ЛИПУЧКАМИ И КНОПКАМИ - ПРИСТЕГИВАЮЩИЙ НА МОЛНИЮ КАПЮШОН С ЦЕЛЬНОКРОЕННЫМ КОЗЫРЬКОМ, С КУЛИСОЙ С РЕЗИНОВЫМ ШНУРОМ ПО КРАЮ; - ВОРОТНИК СТОЙКА, КОМБИНИРОВАННЫЙ С ФЛИСОМ; - НИЗ РУКАВОВ НА МАНЖЕТАХ С РЕЗИНОВОЙ ТЕСЬМОЙ; - ПО ЛИНИИ ТАЛИИ КУЛИСА С РЕЗИНОВЫМ ШНУРОМ ДЛЯ РЕГУЛИРОВКИ ОБЪЕМА; НА РУКОВАХ НАНАЛОКОТНИКИ - БРЮКИ СО СЪЕМНЫМИ БРЕТЕЛЯМИ ИЗ ЭЛАСТИЧНОЙ ТЕСЬМЫ; - ПО НИЗУ БРЮК ОБРАБОТАНЫ МАНЖЕТЫ С РЕЗИНОВОЙ - НА ЗАДНИХ И ПЕРЕДНИХ ПОЛОВИНКАХ РАСПОЛОЖЕНЫ УСИЛИТЕЛЬНЫЕ НАКЛАДКИ; - ПОД КОЛЕНОМ ЗАДНИХ ПОЛОВИНОК БРЮК ОБРАБОТАНА ЭЛАСТИЧНАЯ ВСТАВКА; - КОЛИЧЕСТВО КАРМАНОВ – 11 .";s:6:"parent";s:2:"76";s:4:"durl";s:52:"rasprodazha/odezhda/kostyum-gorka-demi-k-br-tk-alova";s:4:"dtxt";s:1237:"Костюм демисезонный - центральная застежка на 2-х замковую фронтальную молнию, закрытую ветрозащитной планкой с липучками и кнопками - пристегивающий на молнию капюшон с цельнокроенным козырьком, с кулисой с резиновым шнуром по краю; - воротник стойка, комбинированный с флисом; - низ рукавов на манжетах с резиновой тесьмой; - по линии талии кулиса с резиновым шнуром для регулировки объема; на руковах наналокотники - брюки со съемными бретелями из эластичной тесьмы; - по низу брюк обработаны манжеты с резиновой - на задних и передних половинках расположены усилительные накладки; - под коленом задних половинок брюк обработана эластичная вставка; - количество карманов – 11 .";s:4:"dpic";s:28:"/upload/iblock/fd7/15410.jpg";s:11:"preview_pic";s:28:"/upload/iblock/34a/15410.jpg";s:4:"bxid";s:6:"200503";s:5:"alias";s:0:"";s:7:"section";s:5:"11733";}i:31;a:14:{s:2:"id";s:4:"1730";s:3:"act";s:1:"N";s:9:"prod_type";s:0:"";s:4:"name";s:45:"Костюм Горка (тк.палатка)";s:3:"art";s:9:"Кос276";s:6:"search";s:1082:"КОСТЮМ ГОРКА (ТК.ПАЛАТКА)

КОСТЮМ ГОРКА СОСТОИТ ИЗ КУРТКИ И БРЮК. КУРТКА С КАПЮШОНОМ И С ЦЕНТРАЛЬНОЙ ЗАСТЕЖКОЙ НА ПЕТЛИ И ПУГОВИЦЫ, С ДВУМЯ ПРОРЕЗНЫМИ КАРМАНАМИ ПРИКРЫТЫМИ КЛАПАНОМ, ПО ЛИНИИ ТАЛИИ СТЯНУТА ТЕСЬМОЙ-КУЛИСКОЙ. РУКАВ ВТАЧНОЙ, С УСИЛИВАЮЩИМ НАЛОКОТНИКОМ И НАКЛАДНЫМ КАРМАНАМИ С КЛАПАНАМИ. БРЮКИ СО ШЛЕВКАМИ ПОД ШИРОКИЙ РЕМЕНЬ, С УСИЛИВАЮЩИМИ НАКЛАДКАМИ НА КОЛЕНЯХ, СЗАДИ В ОБЛАСТИ КОЛЕНА СТЯНУТЫ ЭЛАСТИЧНОЙ ТЕСЬМОЙ. СО СПЕЦИАЛЬНЫМИ МАНЖЕТАМИ ПО НИЗУ БРЮК (ИЗ АНАЛОГИЧНОЙ ТКАНИ, ПЫЛЬНИК). МАТЕРИАЛ: ПАЛАТОЧНАЯ ТКАНЬ ГОСТ 27575-87. РАЗМЕРЫ:44-46/170-176 48-50/170-176/182-188 52-54/170-176/182/188 56-58/182-188 60-62/182-188.";s:6:"parent";s:2:"76";s:4:"durl";s:44:"rasprodazha/odezhda/kostyum-gorka-tk-palatka";s:4:"dtxt";s:1041:"Костюм Горка состоит из куртки и брюк. Куртка с капюшоном и с центральной застежкой на петли и пуговицы, с двумя прорезными карманами прикрытыми клапаном, по линии талии стянута тесьмой-кулиской. Рукав втачной, с усиливающим налокотником и накладным карманами с клапанами. Брюки со шлевками под широкий ремень, с усиливающими накладками на коленях, сзади в области колена стянуты эластичной тесьмой. Со специальными манжетами по низу брюк &#40;из аналогичной ткани, пыльник&#41;. Материал: палаточная ткань ГОСТ 27575-87. Размеры:44-46/170-176 48-50/170-176/182-188 52-54/170-176/182/188 56-58/182-188 60-62/182-188.";s:4:"dpic";s:28:"/upload/iblock/cb8/12999.jpg";s:11:"preview_pic";s:28:"/upload/iblock/b9d/12999.jpg";s:4:"bxid";s:6:"200506";s:5:"alias";s:0:"";s:7:"section";s:5:"11733";}i:32;a:14:{s:2:"id";s:4:"1731";s:3:"act";s:1:"Y";s:9:"prod_type";s:0:"";s:4:"name";s:71:"Костюм Дорожник (к+пк) 3 кл.защ. тк. Грета";s:3:"art";s:9:"Кос253";s:6:"search";s:808:"КОСТЮМ ДОРОЖНИК (К+ПК) 3 КЛ.ЗАЩ. ТК. ГРЕТА

КОСТЮМ ДОРОЖНИК СОСТОИТ ИЗ КУРТКИ И ПОЛУКОМБИНЕЗОНА. КУРТКА ПРЯМОГО КРОЯ, С ОТЛОЖНЫМ ВОРОТНИКОМ, С ЦЕНТРАЛЬНОЙ СУПАТНОЙ ЗАСТЕЖКОЙ НА ПУГОВИЦЫ, С НАГРУДНЫМ И ДВУМЯ НАКЛАДНЫМИ БОКОВЫМИ КАРМАНАМИ. ПОЛУКОМБИНЕЗОН С ОТРЕЗНОЙ ГРУДКОЙ, С НАКЛАДНЫМ КАРМАНОМ. БРЕТЕЛИ РЕГУЛИРУЕМЫЕ С ЗАСТЁЖКОЙ НА ФАСТЕКСЫ. СВЕТОВОЗВРАЩАЮЩАЯ ЛЕНТА 5 СМ. ЦВЕТ: ОРАНЖЕВЫЙ С СИНИМ ТКАНЬ: ГРЕТА ПЛ. 210 ГР./КВ.М., СОСТАВ 65% П/Э, 35% ХЛОПОК";s:6:"parent";s:2:"76";s:4:"durl";s:63:"rasprodazha/odezhda/kostyum-dorozhnik-k-pk-3-kl-zashch-tk-greta";s:4:"dtxt";s:741:"Костюм Дорожник состоит из куртки и полукомбинезона. Куртка прямого кроя, с отложным воротником, с центральной супатной застежкой на пуговицы, с нагрудным и двумя накладными боковыми карманами. Полукомбинезон с отрезной грудкой, с накладным карманом. Бретели регулируемые с застёжкой на фастексы. Световозвращающая лента 5 см. Цвет: оранжевый с синим Ткань: Грета пл. 210 гр./кВ.м., состав 65&#37; п/э, 35&#37; хлопок";s:4:"dpic";s:28:"/upload/iblock/172/12217.jpg";s:11:"preview_pic";s:28:"/upload/iblock/af5/12217.jpg";s:4:"bxid";s:6:"200516";s:5:"alias";s:0:"";s:7:"section";s:5:"11733";}i:33;a:14:{s:2:"id";s:4:"1732";s:3:"act";s:1:"N";s:9:"prod_type";s:0:"";s:4:"name";s:39:"Костюм Дорожник с СОП";s:3:"art";s:9:"Кос524";s:6:"search";s:1125:"КОСТЮМ ДОРОЖНИК С СОП

КОСТЮМ СОСТОИТ ИЗ КУРТКИ И ПОЛУКОМБИНЕЗОНА. КУРТКА КОМБИНИРОВАННАЯ С ОТЛОЖНЫМ ВОРОТНИКОМ И ЦЕНТРАЛЬНОЙ ЗАСТЕЖКОЙ НА ПЕТЛИ И ПУГОВИЦЫ. НАГРУДНЫЕ И БОКОВЫЕ КАРМАНЫ С КЛАПАНАМИ, ФИКСИРУЮЩИМИСЯ НА ЛЕНТЕ 'ВЕЛЬКРО'. ПОЛУКОМБИНЕЗОН КОМБИНИРОВАННЫЙ ПРЯМОГО СИЛУЭТА. ГЛУБОКИЕ БОКОВЫЕ КАРМАНЫ И НАГРУДНЫЙ С КЛАПАНОМ, ФИКСИРУЮЩИМСЯ НА ЛЕНТЕ 'ВЕЛЬКРО'. ШИРОКИЕ СВЕТООТРАЖАЮЩИЕ ПОЛОСЫ НА КУРТКЕ И ПОЛУКОМБИНЕЗОНЕ. РЕКОМЕНДУЕТСЯ ДЛЯ ДОРОЖНЫХ, СТРОИТЕЛЬНЫХ РАБОТ, СЛУЖБ ЖКХ. СВЕТОВОЗВРАЩАЮЩИЕ ПОЛОСЫ ГОСТ ШИРИНОЙ 50 ММ. 3-Й КЛАСС ЗАЩИТЫ ТКАНЬ ВЕРХА: СМЕСОВАЯ, 35% Х/Б, 65% П/Э, ПЛ. 210Г/М· ЦВЕТ: ОРАНЖЕВЫЙ С ЧЕРНЫМ";s:6:"parent";s:2:"76";s:4:"durl";s:43:"rasprodazha/odezhda/kostyum-dorozhnik-s-sop";s:4:"dtxt";s:1106:"Костюм состоит из куртки и полукомбинезона. Куртка комбинированная с отложным воротником и центральной застежкой на петли и пуговицы. Нагрудные и боковые карманы с клапанами, фиксирующимися на ленте &#39;велькро&#39;. Полукомбинезон комбинированный прямого силуэта. Глубокие боковые карманы и нагрудный с клапаном, фиксирующимся на ленте &#39;велькро&#39;. Широкие светоотражающие полосы на куртке и полукомбинезоне. Рекомендуется для дорожных, строительных работ, служб ЖКХ. Световозвращающие полосы ГОСТ шириной 50 мм. 3-й класс защиты Ткань верха: смесовая, 35&#37; х/б, 65&#37; п/э, пл. 210г/м· Цвет: оранжевый с черным";s:4:"dpic";s:28:"/upload/iblock/d01/10455.jpg";s:11:"preview_pic";s:28:"/upload/iblock/1b9/10455.jpg";s:4:"bxid";s:6:"200517";s:5:"alias";s:0:"";s:7:"section";s:5:"11733";}i:34;a:14:{s:2:"id";s:4:"1733";s:3:"act";s:1:"N";s:9:"prod_type";s:0:"";s:4:"name";s:40:"Костюм Комбат березка";s:3:"art";s:9:"Кос340";s:6:"search";s:579:"КОСТЮМ КОМБАТ БЕРЕЗКА

КОСТЮМ КОМБАТ КУРТКА УКОРОЧЕННАЯ НА РЕЗИНКЕ С КАПЮШОНОМ, С ЗАСТЁЖКОЙ НА МОЛНИЮ, РУКАВА НА МАНЖЕТЕ-РЕЗИНКЕ, КАРМАНЫ НАКЛАДНЫЕ. БРЮКИ С ДВУМЯ КАРМАНАМИ С ПОЯСОМ НА РЕЗИНКЕ. ТКАНЬ - ТИСИ. РАЗМЕРЫ: 44-46 (170-176), (182-188) 48-50 (170-176),(182-188) 52-54 (170-176),(182-188) 56-58 (170-176),(182-188) 60-62 170-176),(182-188) РАСЦВЕТКА: БЕРЕЗКА, ДУБ, ЦИФРА.";s:6:"parent";s:2:"76";s:4:"durl";s:42:"rasprodazha/odezhda/kostyum-kombat-berezka";s:4:"dtxt";s:611:"Костюм КОМБАТ Куртка укороченная на резинке с капюшоном, с застёжкой на молнию, рукава на манжете-резинке, карманы накладные. Брюки с двумя карманами с поясом на резинке. ТКАНЬ - ТИСИ. Размеры: 44-46 &#40;170-176&#41;, &#40;182-188&#41; 48-50 &#40;170-176&#41;,&#40;182-188&#41; 52-54 &#40;170-176&#41;,&#40;182-188&#41; 56-58 &#40;170-176&#41;,&#40;182-188&#41; 60-62 170-176&#41;,&#40;182-188&#41; Расцветка: березка, дуб, цифра.";s:4:"dpic";s:28:"/upload/iblock/ca7/10491.jpg";s:11:"preview_pic";s:28:"/upload/iblock/dde/10491.jpg";s:4:"bxid";s:6:"200531";s:5:"alias";s:0:"";s:7:"section";s:5:"11733";}i:35;a:14:{s:2:"id";s:4:"1734";s:3:"act";s:1:"N";s:9:"prod_type";s:0:"";s:4:"name";s:36:"Костюм Комбат камыш";s:3:"art";s:9:"Кос337";s:6:"search";s:537:"КОСТЮМ КОМБАТ КАМЫШ

КОСТЮМ ВЫПОЛНЕН ИЗ СОРОЧЕЧНОЙ ТКАНИ. КУРТКА НА МОЛНИИ ПРЕДУСМАТРИВАЕТ ДВА НАКЛАДНЫХ КАРМАНА С КЛАПАНОМ И КАПЮШОН. МАНЖЕТЫ НА РУКАВАХ, НИЗ КУРТКИ И ПОЯС БРЮК ВЫПОЛНЕН НА РЕЗИНКЕ, БРЮКИ СТЯГИВАЕТСЯ ШНУРОМ. РАССЦВЕТКА: КАМЫШ ТКАНЬ: СМЕСОВАЯ РАЗМЕР: С 44-46 ПО 64-66 РОСТ: 170-176, 182-188 .";s:6:"parent";s:2:"76";s:4:"durl";s:41:"rasprodazha/odezhda/kostyum-kombat-kamysh";s:4:"dtxt";s:497:"Костюм выполнен из сорочечной ткани. Куртка на молнии предусматривает два накладных кармана с клапаном и капюшон. Манжеты на рукавах, низ куртки и пояс брюк выполнен на резинке, брюки стягивается шнуром. Рассцветка: камыш Ткань: смесовая Размер: с 44-46 по 64-66 Рост: 170-176, 182-188 .";s:4:"dpic";s:28:"/upload/iblock/e73/12967.jpg";s:11:"preview_pic";s:28:"/upload/iblock/0e9/12967.jpg";s:4:"bxid";s:6:"200533";s:5:"alias";s:0:"";s:7:"section";s:5:"11733";}i:36;a:14:{s:2:"id";s:4:"1735";s:3:"act";s:1:"Y";s:9:"prod_type";s:0:"";s:4:"name";s:74:"Костюм Купер бежевый/синий/красный (к+бр)";s:3:"art";s:9:"Кос086";s:6:"search";s:702:"КОСТЮМ КУПЕР БЕЖЕВЫЙ/СИНИЙ/КРАСНЫЙ (К+БР)

КУРТКА С ЗАСТЕЖКОЙ НА МОЛНИЮ И КОНТАКТНУЮ ЛЕНТУ. НА БРЮКАХ УСИЛЕНИЕ В ОБЛАСТИ КОЛЕНЕЙ С ОТВЕРСТИЕМ ДЛЯ АМОРТИЗАЦИОННЫХ НАКЛАДОК. БЛАГОДАРЯ МНОЖЕСТВУ КАРМАНОВ И ВЫВЕРЕННОЙ КОНСТРУКЦИИ, ИДЕАЛЬНО ПОДХОДЯТ ДЛЯ РАБОТНИКОВ МОНТАЖНЫХ ПРОИЗВОДСТВ, СТРОИТЕЛЬНЫХ СПЕЦИАЛЬНОСТЕЙ И Т.Д. ТКАНЬ: СМЕСОВАЯ (65% ПОЛИЭФИР, 35% ХЛОПОК) ЦВЕТ: БЕЖЕВЫЙ С КРАСНЫМ. .";s:6:"parent";s:2:"76";s:4:"durl";s:61:"rasprodazha/odezhda/kostyum-kuper-bezhevyy-siniy-krasnyy-k-br";s:4:"dtxt";s:640:"Куртка с застежкой на молнию и контактную ленту. На брюках усиление в области коленей с отверстием для амортизационных накладок. Благодаря множеству карманов и выверенной конструкции, идеально подходят для работников монтажных производств, строительных специальностей и т.д. Ткань: смесовая &#40;65&#37; полиэфир, 35&#37; хлопок&#41; Цвет: бежевый с красным. .";s:4:"dpic";s:28:"/upload/iblock/71c/13088.jpg";s:11:"preview_pic";s:28:"/upload/iblock/bba/13088.jpg";s:4:"bxid";s:6:"200535";s:5:"alias";s:0:"";s:7:"section";s:5:"11733";}i:37;a:14:{s:2:"id";s:4:"1736";s:3:"act";s:1:"N";s:9:"prod_type";s:0:"";s:4:"name";s:81:"Костюм жен. Орион зимний (к+бр) цв.василек СОП";s:3:"art";s:9:"Кос629";s:6:"search";s:534:"КОСТЮМ ЖЕН. ОРИОН ЗИМНИЙ (К+БР) ЦВ.ВАСИЛЕК СОП

КОСТЮМ ЖЕНСКИЙ УТЕПЛЕННЫЙ ДЛЯ ЗАЩИТЫ ОТ ПОНИЖЕННЫХ ТЕМПЕРАТУР, СОСТОИТ ИЗ КУРТКИ И БРЮК. ЦВЕТ: ТЕМНО-СИНИЙ С СОП ТКАНЬ ВЕРХА: СМЕСОВАЯ ПОДКЛАДКА: ТАФФЕТА, 100% ПОЛИЭСТЕР УТЕПЛИТЕЛЬ СИНТЕПОН: В КУРТКЕ - 360 ГР/М; В БРЮКАХ 240 ГР/М. ЗАЩИТНЫЕ СВОЙСТВА: ВУ, ТН";s:6:"parent";s:2:"76";s:4:"durl";s:66:"rasprodazha/odezhda/kostyum-zhen-orion-zimniy-k-br-tsv-vasilek-sop";s:4:"dtxt";s:453:"Костюм женский утепленный для защиты от пониженных температур, состоит из куртки и брюк. Цвет: темно-синий с СОП Ткань верха: Смесовая Подкладка: таффета, 100&#37; полиэстер Утеплитель синтепон: в куртке - 360 гр/м; в брюках 240 гр/м. Защитные свойства: Ву, Тн";s:4:"dpic";s:28:"/upload/iblock/be6/13534.jpg";s:11:"preview_pic";s:28:"/upload/iblock/7b0/13534.jpg";s:4:"bxid";s:6:"200567";s:5:"alias";s:0:"";s:7:"section";s:5:"11733";}i:38;a:14:{s:2:"id";s:4:"1737";s:3:"act";s:1:"N";s:9:"prod_type";s:0:"";s:4:"name";s:61:"Костюм Охрана зимний,черный (к+пк)";s:3:"art";s:9:"Кос711";s:6:"search";s:65:"КОСТЮМ ОХРАНА ЗИМНИЙ,ЧЕРНЫЙ (К+ПК)

";s:6:"parent";s:2:"76";s:4:"durl";s:55:"rasprodazha/odezhda/kostyum-okhrana-zimniy-chernyy-k-pk";s:4:"dtxt";s:0:"";s:4:"dpic";s:28:"/upload/iblock/94c/14060.jpg";s:11:"preview_pic";s:28:"/upload/iblock/000/14060.jpg";s:4:"bxid";s:6:"200570";s:5:"alias";s:0:"";s:7:"section";s:5:"11733";}i:39;a:14:{s:2:"id";s:4:"1738";s:3:"act";s:1:"N";s:9:"prod_type";s:0:"";s:4:"name";s:49:"Костюм Охранника син, (к+бр)";s:3:"art";s:9:"Кос500";s:6:"search";s:736:"КОСТЮМ ОХРАННИКА СИН, (К+БР)

КУРТКА С ЗАСТЕЖКОЙ НА МОЛНИЮ. НА ПОЛОЧКАХ ОБРАБОТАНЫ ДВА НАГРУДНЫХ НАКЛАДНЫХ КАРМАНА КНИЖКИ С КЛАПАНАМИ И ДВА НИЖНИХ ПРОРЕЗНЫХ КАРМАНА С ЛИСТОЧКАМИ. РУКАВА ДЛИННЫЕ С МАНЖЕТАМИ, ЗАСТЕГИВАЮЩИМИСЯ НА КНОПКИ. БРЮКИ ПРЯМОГО ПОКРОЯ С ВЫСТРОЧЕННЫМИ СТРЕЛКАМИ И БОКОВЫМИ КАРМАНАМИ. ЦВЕТ: ТЕНО-СИНИЙ ТКАНЬ: СМЕСОВАЯ (65% ПОЛИЭФИР, 35% ХЛОПОК) ПЛ.210Г/М РАЗМЕР: С 88-96 ПО 120-124 РОСТ: 170-176, 182-188 .";s:6:"parent";s:2:"76";s:4:"durl";s:47:"rasprodazha/odezhda/kostyum-okhrannika-sin-k-br";s:4:"dtxt";s:699:"Куртка с застежкой на молнию. На полочках обработаны два нагрудных накладных кармана книжки с клапанами и два нижних прорезных кармана с листочками. Рукава длинные с манжетами, застегивающимися на кнопки. Брюки прямого покроя с выстроченными стрелками и боковыми карманами. Цвет: тено-синий Ткань: смесовая &#40;65&#37; полиэфир, 35&#37; хлопок&#41; пл.210г/м Размер: с 88-96 по 120-124 Рост: 170-176, 182-188 .";s:4:"dpic";s:27:"/upload/iblock/3de/2888.jpg";s:11:"preview_pic";s:27:"/upload/iblock/8c9/2888.jpg";s:4:"bxid";s:6:"200572";s:5:"alias";s:0:"";s:7:"section";s:5:"11733";}i:40;a:14:{s:2:"id";s:4:"1739";s:3:"act";s:1:"N";s:9:"prod_type";s:0:"";s:4:"name";s:74:"Костюм Передовица (к+бр) цв.василек/серый";s:3:"art";s:9:"Кос079";s:6:"search";s:929:"КОСТЮМ ПЕРЕДОВИЦА (К+БР) ЦВ.ВАСИЛЕК/СЕРЫЙ

КОСТЮМ «ПЕРЕДОВИЦА» КУРТКА И БРЮКИ. КУРТКА ПРЯМОГО КРОЯ, С СУПАТНОЙ ЗАСТЕЖКОЙ НА ПУГОВИЦЫ, СО СВЕТООТРАЖАЮЩИМ КАНТОМ И СВЕТООТРАЖАЮЩЕЙ ПОЛОСОЙ НА СПИНЕ. ВОРОТНИК ОТЛОЖНОЙ, РУКАВ ВТАЧНОЙ С МАНЖЕТАМИ, ЗАСТЁГИВАЮЩИМИСЯ НА ПУГОВИЦУ. БРЮКИ С БОКОВЫМИ И ЗАДНИМИ КАРМАНАМИ. ДОПОЛНИТЕЛЬНУЮ ПРОЧНОСТЬ СОЕДИНЕНИЙ КОСТЮМА ОБЕСПЕЧИВАЮТ ДВОЙНЫЕ ОТДЕЛОЧНЫЕ СТРОЧКИ. ЦВЕТ: ВАСИЛЕК/СЕРЫЙ ТКАНЬ: СМЕСОВАЯ (65% ПОЛИЭФИР, 35% ХЛОПОК) ПЛ. 210 Г/КВ. М, ВО ПРОПИТКА ЗАЩИТНЫЕ СВОЙСТВА: З, МИ, ВУ";s:6:"parent";s:2:"76";s:4:"durl";s:62:"rasprodazha/odezhda/kostyum-peredovitsa-k-br-tsv-vasilek-seryy";s:4:"dtxt";s:867:"Костюм «Передовица» Куртка и брюки. Куртка прямого кроя, с супатной застежкой на пуговицы, со светоотражающим кантом и светоотражающей полосой на спине. Воротник отложной, рукав втачной с манжетами, застёгивающимися на пуговицу. Брюки с боковыми и задними карманами. Дополнительную прочность соединений костюма обеспечивают двойные отделочные строчки. Цвет: василек/серый Ткань: смесовая &#40;65&#37; полиэфир, 35&#37; хлопок&#41; пл. 210 г/кв. м, ВО пропитка Защитные свойства: З, Ми, Ву";s:4:"dpic";s:27:"/upload/iblock/ecc/9895.jpg";s:11:"preview_pic";s:27:"/upload/iblock/8bd/9895.jpg";s:4:"bxid";s:6:"200576";s:5:"alias";s:0:"";s:7:"section";s:5:"11733";}i:41;a:14:{s:2:"id";s:4:"1740";s:3:"act";s:1:"N";s:9:"prod_type";s:0:"";s:4:"name";s:61:"Костюм Пульс женский (черн.+красн)";s:3:"art";s:9:"Кос138";s:6:"search";s:377:"КОСТЮМ ПУЛЬС ЖЕНСКИЙ (ЧЕРН.+КРАСН)

КОСТЮМ ПУЛЬС ЖЕНСКИЙ СОСТОИТ – КУРТКА И БРЮКИ – УСИЛЕНИЯ В ОБЛАСТИ ЛОКТЕЙ И КОЛЕНЕЙ ЦВЕТ: ЧЕРНЫЙ С КРАСНОЙ ОТДЕЛКОЙ ТКАНЬ: СМЕСОВАЯ ПЛ.210 Г/М2, ВО ЗАСТЕЖКА: МОЛНИЯ ГОСТ 27574-87";s:6:"parent";s:2:"76";s:4:"durl";s:53:"rasprodazha/odezhda/kostyum-puls-zhenskiy-chern-krasn";s:4:"dtxt";s:312:"Костюм Пульс женский Состоит – куртка и брюки – усиления в области локтей и коленей Цвет: черный с красной отделкой Ткань: смесовая пл.210 г/м2, ВО Застежка: молния ГОСТ 27574-87";s:4:"dpic";s:28:"/upload/iblock/03d/12054.jpg";s:11:"preview_pic";s:28:"/upload/iblock/4ea/12054.jpg";s:4:"bxid";s:6:"200585";s:5:"alias";s:0:"";s:7:"section";s:5:"11733";}i:42;a:14:{s:2:"id";s:4:"1741";s:3:"act";s:1:"N";s:9:"prod_type";s:0:"";s:4:"name";s:52:"Костюм Рейнир мужской син/кр";s:3:"art";s:9:"Кос263";s:6:"search";s:847:"КОСТЮМ РЕЙНИР МУЖСКОЙ СИН/КР

КОМПЛЕКТНОСТЬ: КУРТКА И ПОЛУКОМБИНЕЗОН. КУРТКА С ЗАСТЕЖКОЙ НА МОЛНИЮ, НИЖНИМИ НАКЛАДНЫМИ КАРМАНАМИ, ВЕРХНИМ КАРМАНОМ ДЛЯ СРЕДСТВ СВЯЗИ. ПОЛУКОМБИНЕЗОН С НАГРУДНЫМ, БОКОВЫМИ КАРМАНАМИ И ЗАДНИМ КАРМАНОМ ПОД ИНСТРУМЕНТ. ДАННАЯ КОМПОНОВКА КОСТЮМА ОЧЕНЬ УДОБНА В ИСПОЛЬЗОВАНИИ. ЦВЕТ: Т.СИНИЙ С КРАСНЫМ; БОРДО С СЕРЫМ; ВАСИЛЕК С Т.СИНИМ; СЕРЫЙ С КРАСНЫМ ТКАНЬ: СМЕСОВАЯ 65% П/Э, 35% Х/Б ПЛ. 215 Г/М СВОЙСТВА: З МИ ВУ РАЗМЕР: С 44-46 ПО 60-62 РОСТ:170-176, 182-188";s:6:"parent";s:2:"76";s:4:"durl";s:50:"rasprodazha/odezhda/kostyum-reynir-muzhskoy-sin-kr";s:4:"dtxt";s:799:"Комплектность: куртка и полукомбинезон. Куртка с застежкой на молнию, нижними накладными карманами, верхним карманом для средств связи. Полукомбинезон с нагрудным, боковыми карманами и задним карманом под инструмент. Данная компоновка костюма очень удобна в использовании. Цвет: т.синий с красным; бордо с серым; василек с т.синим; серый с красным Ткань: смесовая 65&#37; п/э, 35&#37; х/б пл. 215 г/м Свойства: З Ми Ву Размер: с 44-46 по 60-62 Рост:170-176, 182-188";s:4:"dpic";s:27:"/upload/iblock/bde/2941.jpg";s:11:"preview_pic";s:27:"/upload/iblock/17a/2941.jpg";s:4:"bxid";s:6:"200589";s:5:"alias";s:0:"";s:7:"section";s:5:"11733";}i:43;a:14:{s:2:"id";s:4:"1742";s:3:"act";s:1:"N";s:9:"prod_type";s:0:"";s:4:"name";s:40:"Костюм Святогор серый";s:3:"art";s:9:"Кос248";s:6:"search";s:44:"КОСТЮМ СВЯТОГОР СЕРЫЙ

";s:6:"parent";s:2:"76";s:4:"durl";s:43:"rasprodazha/odezhda/kostyum-svyatogor-seryy";s:4:"dtxt";s:0:"";s:4:"dpic";s:27:"/upload/iblock/6f8/6504.jpg";s:11:"preview_pic";s:27:"/upload/iblock/473/6504.jpg";s:4:"bxid";s:6:"200595";s:5:"alias";s:0:"";s:7:"section";s:5:"11733";}i:44;a:14:{s:2:"id";s:4:"1743";s:3:"act";s:1:"N";s:9:"prod_type";s:0:"";s:4:"name";s:56:"Костюм Скорая помощь кор.рукав";s:3:"art";s:9:"Кос083";s:6:"search";s:607:"КОСТЮМ СКОРАЯ ПОМОЩЬ КОР.РУКАВ

КУРТКА: ПРЯМОЙ СИЛУЭТ С КОКЕТКОЙ, ЦЕНТРАЛЬНОЙ ЗАСТЕЖКОЙ НА ПУГОВИЦЫ, СВЕТОВОЗВРАЩАЮЩАЯ НАДПИСЬ НА СПИНКЕ СКОРАЯ ПОМОЩЬ, РУКАВА КОРОТКИЕ, 7 КАРМАНОВ. БРЮКИ: СВОБОДНОГО СТИЛЯ СО СВЕТОВОЗВРАЩАЮЩЕЙ ПОЛОСОЙ ПО НИЗУ БРЮК И ПОЯСОМ НА ЭЛАСТИЧНОЙ ЛЕНТЕ. ТКАНЬ СМЕСОВАЯ «ТИСИ» (65% ПОЛИЭФИР, 35% ХЛОПОК) ПЛ.120 Г/М2 .";s:6:"parent";s:2:"76";s:4:"durl";s:54:"rasprodazha/odezhda/kostyum-skoraya-pomoshch-kor-rukav";s:4:"dtxt";s:563:"Куртка: прямой силуэт с кокеткой, центральной застежкой на пуговицы, световозвращающая надпись на спинке Скорая помощь, рукава короткие, 7 карманов. Брюки: свободного стиля со световозвращающей полосой по низу брюк и поясом на эластичной ленте. Ткань смесовая «Тиси» &#40;65&#37; полиэфир, 35&#37; хлопок&#41; пл.120 г/м2 .";s:4:"dpic";s:27:"/upload/iblock/8b6/8569.jpg";s:11:"preview_pic";s:27:"/upload/iblock/dd5/8569.jpg";s:4:"bxid";s:6:"200601";s:5:"alias";s:0:"";s:7:"section";s:5:"11733";}i:45;a:14:{s:2:"id";s:4:"1744";s:3:"act";s:1:"N";s:9:"prod_type";s:0:"";s:4:"name";s:94:"Костюм Стандарт женский (к+п/к) цв.т.син/вас р.48-50/170-176";s:3:"art";s:9:"Кос003";s:6:"search";s:864:"КОСТЮМ СТАНДАРТ ЖЕНСКИЙ (К+П/К) ЦВ.Т.СИН/ВАС Р.48-50/170-176

КУРТКА УДЛИНЁННАЯ, ПРЯМОГО СИЛУЭТА, ВОРОТНИК ОТЛОЖНОЙ, С ЦЕНТРАЛЬНОЙ ЗАСТЁЖКОЙ НА ПУГОВИЦЫ, С ВЕРХНИМ ЛЕВЫМ НАГРУДНЫМ КАРМАНОМ И НИЖНИМИ КАРМАНАМИ. РУКАВА С МАНЖЕТАМИ НА ПУГОВИЦАХ И С НАЛОКОТНИКАМИ. ПОЛУКОМБИНЕЗОН С ЗАСТЁЖКОЙ В ПРАВОМ БОКОВОМ ШВЕ НА ПУГОВИЦЫ, ВЕРХНИМ НАКЛАДНЫМ КАРМАНОМ С КЛАПОНОМ И НИЖНИМИ ВНУТРЕННИМИ БОКОВЫМИ КАРМАНАМИ, ТКАНЬ: СМЕСОВАЯ 65% П/Э, 35% Х/Б, ПЛ. 215 Г/:З МИ ВУ РАЗМЕР: С 44-46 ПО 64-66 РОСТ: 158-164, 170-176 .";s:6:"parent";s:2:"76";s:4:"durl";s:81:"rasprodazha/odezhda/kostyum-standart-zhenskiy-k-p-k-tsv-t-sin-vas-r-48-50-170-176";s:4:"dtxt";s:774:"Куртка удлинённая, прямого силуэта, воротник отложной, с центральной застёжкой на пуговицы, с верхним левым нагрудным карманом и нижними карманами. Рукава с манжетами на пуговицах и с налокотниками. Полукомбинезон с застёжкой в правом боковом шве на пуговицы, верхним накладным карманом с клапоном и нижними внутренними боковыми карманами, Ткань: смесовая 65&#37; п/э, 35&#37; х/б, пл. 215 г/:З Ми Ву Размер: с 44-46 по 64-66 Рост: 158-164, 170-176 .";s:4:"dpic";s:28:"/upload/iblock/743/13984.jpg";s:11:"preview_pic";s:28:"/upload/iblock/dea/13984.jpg";s:4:"bxid";s:6:"200607";s:5:"alias";s:0:"";s:7:"section";s:5:"11733";}i:46;a:14:{s:2:"id";s:4:"1745";s:3:"act";s:1:"N";s:9:"prod_type";s:0:"";s:4:"name";s:69:"Костюм Статус утепл. (синий/черн) с СОП";s:3:"art";s:9:"Кос527";s:6:"search";s:1498:"КОСТЮМ СТАТУС УТЕПЛ. (СИНИЙ/ЧЕРН) С СОП

КОСТЮМ СОСТОИТ ИЗ КУРТКИ И ПОЛУКОМБИНЕЗОНА. КУРТКА УКОРОЧЕННАЯ С ЦЕНТРАЛЬНОЙ БОРТОВОЙ ЗАСТЕЖКОЙ НА МОЛНИЮ С ВЕТРОЗАЩИТНОЙ ПЛАНКОЙ НА КНОПКАХ. ВЕРХНИЕ ВМЕСТИТЕЛЬНЫЕ КАРМАНЫ С УДОБНЫМ НАКЛОННЫМ ВХОДОМ НА ЛИПУЧКЕ ИМЕЮТ ХЛЯСТИКИ - ФЛАЖКИ ДЛЯ УДОБНОГО РАССТЕГИВАНИЯ. НИЖНИЕ ФУНКЦИОНАЛЬНЫЕ КАРМАНЫ ЗАЩИЩЕНЫ КЛАПАНАМИ. РУКАВ С ВНУТРЕННЕЙ МАНЖЕТОЙ НА РЕЗИНКЕ. СЪЕМНЫЙ КАПЮШОН НА МОЛНИИ. ПОЛУКОМБИНЕЗОН С ЦЕНТРАЛЬНОЙ МОЛНИЕЙ, БОКОВЫМИ КАРМАНАМИ И РЕГУЛИРУЕМЫМИ БРЕТЕЛЯМИ. СВЕТООТРАЖАЮЩАЯ ПОЛОСА, ШИРИНОЙ 5СМ, ПОЗВОЛЯЕТ ИСПОЛЬЗОВАТЬ КОСТЮМ В УСЛОВИЯХ ПЛОХОЙ ВИДИМОСТИ. ЦВЕТ: СИНИЙ С ЧЕРНЫМ ТКАНЬ ВЕРХА: ОКСФОРД(100% ПОЛИЭФИР), СМЕСОВАЯ (65% ПОЛИЭФИР, 35% ХЛОПОК) ПЛ.210 Г/М2, ВО УТЕПЛИТЕЛЬ: СИНТЕПОН КУРТКА - 360 Г/М2, П/К - 240 Г/М2 ПОДКЛАДКА: 100% ПОЛИЭФИР РАЗМЕР: С 96-100 ПО 120-124 РОСТ: 170-176, 182-188 ГОСТ 25295-2003.";s:6:"parent";s:2:"76";s:4:"durl";s:58:"rasprodazha/odezhda/kostyum-status-utepl-siniy-chern-s-sop";s:4:"dtxt";s:1457:"Костюм состоит из куртки и полукомбинезона. Куртка укороченная с центральной бортовой застежкой на молнию с ветрозащитной планкой на кнопках. Верхние вместительные карманы с удобным наклонным входом на липучке имеют хлястики - флажки для удобного расстегивания. Нижние функциональные карманы защищены клапанами. Рукав с внутренней манжетой на резинке. Съемный капюшон на молнии. Полукомбинезон с центральной молнией, боковыми карманами и регулируемыми бретелями. Светоотражающая полоса, шириной 5см, позволяет использовать костюм в условиях плохой видимости. Цвет: синий с черным Ткань верха: Оксфорд&#40;100&#37; полиэфир&#41;, смесовая &#40;65&#37; полиэфир, 35&#37; хлопок&#41; пл.210 г/м2, ВО Утеплитель: Синтепон куртка - 360 г/м2, п/к - 240 г/м2 Подкладка: 100&#37; полиэфир Размер: с 96-100 по 120-124 Рост: 170-176, 182-188 ГОСТ 25295-2003.";s:4:"dpic";s:28:"/upload/iblock/4cf/13713.jpg";s:11:"preview_pic";s:28:"/upload/iblock/a07/13713.jpg";s:4:"bxid";s:6:"200611";s:5:"alias";s:0:"";s:7:"section";s:5:"11733";}i:47;a:14:{s:2:"id";s:4:"1746";s:3:"act";s:1:"N";s:9:"prod_type";s:0:"";s:4:"name";s:42:"Костюм Стим болот/чёрн.";s:3:"art";s:9:"Кос645";s:6:"search";s:1659:"КОСТЮМ СТИМ БОЛОТ/ЧЁРН.

УТЕПЛЕННЫЙ КОСТЮМ СТИМ, СОСТОЯЩИЙ ИЗ УКОРОЧЕННОЙ КУРТКИ И ПОЛУКОМБИНЕЗОНА. В КУРТКЕ ЗАСТЕЖКА-МОЛНИЯ С ВЕТРОЗАЩИТНОЙ ПЛАНКОЙ НА КНОПКАХ. ВСЕ ДЕТАЛИ КОСТЮМА НАДЕЖНО ЗАЩИЩАЮТ ОТ ПРОДУВАНИЯ: ВОРОТНИК-СТОЙКА И УТЕПЛЕННЫЙ КАПЮШОН, РЕГУЛИРУЮЩИЙСЯ ТЕСЬМОЙ, МАНЖЕТЫ НА РУКАВАХ И НИЗ КУРТКИ С ШИРОКОЙ РЕЗИНКОЙ. ВЫСОКИЙ ПОЛУКОМБИНЕЗОН ЗАСТЕГИВАЕТСЯ НА МОЛНИЮ И РЕГУЛИРУЕТСЯ ПО ВЫСОТЕ, БРЕТЕЛИ НЕ СПАДАЮТ БЛАГОДАРЯ СПЕЦИАЛЬНОЙ КОНСТРУКЦИИ. ПОЛУКОМБИНЕЗОН ОСНАЩЕН НАГРУДНЫМ, ДВУМЯ БОКОВЫМИ И ЗАДНИМ КАРМАНОМ, МОЛНИЯ НА ШТАНИНАХ СНИЗУ ПОЗВОЛЯЕТ НОСИТЬ КОСТЮМ С ЛЮБОЙ ОБУВЬЮ. СВЕТООТРАЖАЮЩИЕ ПОЛОСЫ СМ НА ПОЛОЧКЕ И СПИНКЕ КУРТКИ ПОВЫШАЮТ ВИДИМОСТЬ И БЕЗОПАСНОСТЬ В ТЕМНОЕ ВРЕМЯ СУТОК. ЦВЕТ: БОЛОТНЫЙ С ЧЕРНЫМ. ТКАНЬ ВЕРХА: ОКСФОРД УТЕПЛИТЕЛЬ: СИНТЕПОН В КУРТКЕ ПЛ. 360 Г/КВ. М., ПОЛУКОМБИНЕЗОН ПЛ. 240 Г/КВ. М ПОДКЛАДКА: ТАФФЕТА 100 % П/Э, РАЗМЕР: С 96-100 ПО 120-124 РОСТ: 170-176, 182-188 ГОСТ 12.4.236-2007 ТУ 18572-013-52762127-2006.";s:6:"parent";s:2:"76";s:4:"durl";s:45:"rasprodazha/odezhda/kostyum-stim-bolot-chyern";s:4:"dtxt";s:1617:"Утепленный костюм Стим, состоящий из укороченной куртки и полукомбинезона. В куртке застежка-молния с ветрозащитной планкой на кнопках. Все детали костюма надежно защищают от продувания: воротник-стойка и утепленный капюшон, регулирующийся тесьмой, манжеты на рукавах и низ куртки с широкой резинкой. Высокий полукомбинезон застегивается на молнию и регулируется по высоте, бретели не спадают благодаря специальной конструкции. Полукомбинезон оснащен нагрудным, двумя боковыми и задним карманом, молния на штанинах снизу позволяет носить костюм с любой обувью. Светоотражающие полосы см на полочке и спинке куртки повышают видимость и безопасность в темное время суток. Цвет: болотный с черным. Ткань верха: Оксфорд Утеплитель: Синтепон в куртке пл. 360 г/кв. м., полукомбинезон пл. 240 г/кв. м Подкладка: Таффета 100 &#37; п/э, Размер: с 96-100 по 120-124 Рост: 170-176, 182-188 ГОСТ 12.4.236-2007 ТУ 18572-013-52762127-2006.";s:4:"dpic";s:28:"/upload/iblock/d6d/13871.jpg";s:11:"preview_pic";s:28:"/upload/iblock/164/13871.jpg";s:4:"bxid";s:6:"200614";s:5:"alias";s:0:"";s:7:"section";s:5:"11733";}i:48;a:14:{s:2:"id";s:4:"1747";s:3:"act";s:1:"N";s:9:"prod_type";s:0:"";s:4:"name";s:57:"Костюм Тойота (к+пк) цв.сер./крас";s:3:"art";s:9:"Кос193";s:6:"search";s:898:"КОСТЮМ ТОЙОТА (К+ПК) ЦВ.СЕР./КРАС

КОСТЮМ СОСТОИТ ИЗ КУРТКИ И ПОЛУКОМБИНЕЗОНА. КУРТКА ПРЯМОГО СИЛУЭТА, УКОРОЧЕННАЯ С ЦЕНТРАЛЬНОЙ ЗАСТЕЖКОЙ НА МОЛНИЮ, ВЕТРОЗАЦИТНАЯ ПЛАНКА НА КНОПКАХ, С ПРИТАЧНЫМ ПОЯСОМ НА РЕЗИНКЕ. ОТЛОЖНОЙ ВОРОТНИК. НА КУРТКЕ ИМЕЮТСЯ ОДИН НАГРУДНЫЙ И ДВА БОКОВЫХ КАРМАНА НА МОЛНИИ. ПОЛУКОМБИНЕЗОН С РЕГУЛИРУЕМЫМИ БРЕТЕЛЯМИ С ЗАСТЕЖКОЙ НА ФАСТЕКСЫ. ПО ТАЛИИ СПИНКИ, РЕЗИНКА. ИМЕЮТСЯ БОКОВЫЕ КАРМАНЫ. В ОБЛАСТИ КОЛЕНЕЙ УСИЛЕНИЯ. ЦВЕТ: КРАСНО-СЕРЫЙ ТКАНЬ: БАЛТЕКС 2 ПЛ.240 Г/М 2, ВО ,";s:6:"parent";s:2:"76";s:4:"durl";s:52:"rasprodazha/odezhda/kostyum-toyota-k-pk-tsv-ser-kras";s:4:"dtxt";s:837:"Костюм состоит из куртки и полукомбинезона. Куртка прямого силуэта, укороченная с центральной застежкой на молнию, ветрозацитная планка на кнопках, с притачным поясом на резинке. Отложной воротник. На куртке имеются один нагрудный и два боковых кармана на молнии. Полукомбинезон с регулируемыми бретелями с застежкой на фастексы. По талии спинки, резинка. Имеются боковые карманы. В области коленей усиления. Цвет: красно-серый Ткань: Балтекс 2 пл.240 г/м 2, ВО ,";s:4:"dpic";s:28:"/upload/iblock/e6c/12356.jpg";s:11:"preview_pic";s:28:"/upload/iblock/d24/12356.jpg";s:4:"bxid";s:6:"200624";s:5:"alias";s:0:"";s:7:"section";s:5:"11733";}i:49;a:14:{s:2:"id";s:4:"1748";s:3:"act";s:1:"N";s:9:"prod_type";s:0:"";s:4:"name";s:39:"Костюм ТРОЯ жен синий";s:3:"art";s:9:"Кос308";s:6:"search";s:603:"КОСТЮМ ТРОЯ ЖЕН СИНИЙ

МАТЕРИАЛ: ТКАНЬ СМЕСОВАЯ С ВО ПРОПИТКОЙ, 65% - П/Э, 35% - Х/Б. ОПИСАНИЕ ТОВАРА: КУРТКА ПОЛУПРИЛЕГАЮЩЕГО СИЛУЭТА С ЗАСТЁЖКОЙ НА ПУГОВИЦЫ, ОТЛОЖНЫМ ВОРОТНИКОМ И ЛАЦКАНАМИ, НИЖНИМИ И НАКЛАДНЫМИ КАРМАНАМИ, ВХОДЯЩИМИ В БОКОВЫЕ ШВЫ И ШВЫ РЕЛЬЕФОВ. ПОЛУКОМБИНЕЗОН С БОКОВОЙ ЗАСТЁЖКОЙ НА ПУГОВИЦЫ, НАКЛАДНЫМИ КАРМАНАМИ. .";s:6:"parent";s:2:"76";s:4:"durl";s:44:"rasprodazha/odezhda/kostyum-troya-zhen-siniy";s:4:"dtxt";s:568:"Материал: Ткань смесовая с ВО пропиткой, 65&#37; - п/э, 35&#37; - х/б. Описание товара: Куртка полуприлегающего силуэта с застёжкой на пуговицы, отложным воротником и лацканами, нижними и накладными карманами, входящими в боковые швы и швы рельефов. Полукомбинезон с боковой застёжкой на пуговицы, накладными карманами. .";s:4:"dpic";s:27:"/upload/iblock/d6d/3035.jpg";s:11:"preview_pic";s:27:"/upload/iblock/157/3035.jpg";s:4:"bxid";s:6:"200625";s:5:"alias";s:0:"";s:7:"section";s:5:"11733";}i:50;a:14:{s:2:"id";s:4:"1749";s:3:"act";s:1:"Y";s:9:"prod_type";s:0:"";s:4:"name";s:25:"Костюм Ультра";s:3:"art";s:9:"Кос001";s:6:"search";s:1288:"КОСТЮМ УЛЬТРА

КОСТЮМ СОСТОИТ ИЗ КУРТКИ И ПОЛУКОМБИНЕЗОНА. ВЫПОЛНЕН ИЗ ТКАНИ С ВО ПРОПИТКОЙ. КУРТКА С ЦЕНТРАЛЬНОЙ ЗАСТЕЖКОЙ НА МОЛНИЮ, ВЕТРОЗАЩИТНЫМ КЛАПАНОМ И СЪЕМНЫМ УТЕПЛЕННЫМ КАПЮШОНОМ НА МОЛНИИ, С МЕХОВЫМ ВОРОТНИКОМ. ВМЕСТИТЕЛЬНЫЕ НАГРУДНЫЕ КАРМАНЫ В ШВАХ. БОКОВЫЕ КАРМАНЫ ЗАЩИЩЕНЫ КЛАПАНАМИ НА ЛИПУЧКАХ. ВНУТРЕННИЕ ТРИКОТАЖНЫЕ МАНЖЕТЫ ЗАЩИЩАЮТ ОТ ПРОНИКНОВЕНИЯ ХОЛОДА. ПОЛУКОМБИНЕЗОН С ЗАСТЕЖКОЙ НА ТЕСЬМУ МОЛНИЯ, БОКОВЫМИ КАРМАНАМ И РЕГУЛИРУЕМЫМИ БРЕТЕЛЯМИ. СВЕТООТРАЖАЮЩИЕ ПОЛОСЫ ШИРИНОЙ 5 СМ РАСПОЛОЖЕНЫ НА ГРУДИ, СПИНЕ, БРЮКАХ И РУКАВАХ КУРТКИ. ЦВЕТ: СИНИЙ ТКАНЬ ВЕРХА: ОКСФОРД (УТЕПЛИТЕЛЬ: СИНТЕПОН В КУРТКЕ ПЛ. 360 Г/КВ. М., ПОЛУКОМБИНЕЗОН ПЛ. 240 Г/КВ. М ПОДКЛАДКА: ТАФФЕТА 100 % П/Э, ГОСТ Р 12.4.236-2011)";s:6:"parent";s:2:"76";s:4:"durl";s:33:"rasprodazha/odezhda/kostyum-ultra";s:4:"dtxt";s:1271:"Костюм состоит из куртки и полукомбинезона. Выполнен из ткани с ВО пропиткой. Куртка с центральной застежкой на молнию, ветрозащитным клапаном и съемным утепленным капюшоном на молнии, с меховым воротником. Вместительные нагрудные карманы в швах. Боковые карманы защищены клапанами на липучках. Внутренние трикотажные манжеты защищают от проникновения холода. Полукомбинезон с застежкой на тесьму молния, боковыми карманам и регулируемыми бретелями. Светоотражающие полосы шириной 5 см расположены на груди, спине, брюках и рукавах куртки. Цвет: синий Ткань верха: Оксфорд &#40;Утеплитель: Синтепон в куртке пл. 360 г/кв. м., полукомбинезон пл. 240 г/кв. м Подкладка: Таффета 100 &#37; п/э, ГОСТ Р 12.4.236-2011&#41;";s:4:"dpic";s:27:"/upload/iblock/ad7/7921.jpg";s:11:"preview_pic";s:27:"/upload/iblock/2bf/7921.jpg";s:4:"bxid";s:6:"200629";s:5:"alias";s:0:"";s:7:"section";s:5:"11733";}i:51;a:14:{s:2:"id";s:4:"1750";s:3:"act";s:1:"N";s:9:"prod_type";s:0:"";s:4:"name";s:66:"Костюм ФАВОРИТ (к+бр) муж цв.т.сер/сер";s:3:"art";s:11:"Кос074Э";s:6:"search";s:669:"КОСТЮМ ФАВОРИТ (К+БР) МУЖ ЦВ.Т.СЕР/СЕР

КУРТКА УКОРОЧЕННАЯ НА ПОЯСЕ, С НАКЛАДНЫМИ И ВНУТРЕННИМИ КАРМАНАМИ, СУПАТНОЙ ЗАСТЁЖКОЙ НА МОЛНИЮ. ЭЛЕМЕНТЫ ОТДЕЛКИ ИЗ КОНТРАСТНОЙ ТКАНИ. БРЮКИ ПРЯМЫЕ НА ПОЯСЕ, С ВНУТРЕННИМИ КАРМАНАМИ, ЗАСТЁЖКОЙ ГУЛЬФИКА НА МОЛНИЮ. ЦВЕТ: ТЕМНО-СЕРЫЙ С СЕРЫМ ТКАНЬ СМЕСОВАЯ, 65% П/Э, 35% Х/Б, ПОВ. ПЛ. 210 Г/КВ.М. РАЗМЕР: УТОЧНЯЙТЕ У МЕНЕДЖЕРА РОСТ:170-176, 182-188";s:6:"parent";s:2:"76";s:4:"durl";s:59:"rasprodazha/odezhda/kostyum-favorit-k-br-muzh-tsv-t-ser-ser";s:4:"dtxt";s:607:"Куртка укороченная на поясе, с накладными и внутренними карманами, супатной застёжкой на молнию. Элементы отделки из контрастной ткани. Брюки прямые на поясе, с внутренними карманами, застёжкой гульфика на молнию. Цвет: темно-серый с серым Ткань смесовая, 65&#37; п/э, 35&#37; х/б, пов. пл. 210 г/кв.м. Размер: уточняйте у менеджера Рост:170-176, 182-188";s:4:"dpic";s:27:"/upload/iblock/27d/7703.jpg";s:11:"preview_pic";s:27:"/upload/iblock/c9e/7703.jpg";s:4:"bxid";s:6:"200631";s:5:"alias";s:0:"";s:7:"section";s:5:"11733";}i:52;a:14:{s:2:"id";s:4:"1751";s:3:"act";s:1:"N";s:9:"prod_type";s:0:"";s:4:"name";s:75:"Костюм ФАВОРИТ (к+пк) муж цв.василек/серый";s:3:"art";s:9:"Кос509";s:6:"search";s:953:"КОСТЮМ ФАВОРИТ (К+ПК) МУЖ ЦВ.ВАСИЛЕК/СЕРЫЙ

КОСТЮМ ФАВОРИТ СОСТОИТ ИЗ КУРТКИ И ПОЛУКОМБИНЕЗОНА. КУРТКА УКОРОЧЕННАЯ НА ПОЯСЕ, С НАКЛАДНЫМИ И ВНУТРЕННИМИ КАРМАНАМИ, СУПАТНОЙ ЗАСТЁЖКОЙ НА МОЛНИЮ. ЭЛЕМЕНТЫ ОТДЕЛКИ ИЗ КОНТРАСТНОЙ ТКАНИ. ПОЛУКОМБИНЕЗОН С ВНУТРЕННИМИ КАРМАНАМИ, ЗАСТЁЖКОЙ ГУЛЬФИКА НА МОЛНИЮ. КЛАССИЧЕСКАЯ МОДЕЛЬ ДЛЯ ИНЖЕНЕРНО-ТЕХНИЧЕСКИХ СПЕЦИАЛЬНОСТЕЙ С ЭЛЕМЕНТАМИ ОТДЕЛКИ ИЗ КОНТРАСТНОЙ ТКАНИ. ТКАНЬ СМЕСОВАЯ ГРЕТА (67% ПОЛИЭСТЕР, 33% ХЛОПОК, ПЛ. 210 Г/М ЦВЕТ: ВАСИЛЕК С СЕРЫМ ЗАЩИТНЫЕ СВОЙСТВАЗ, МН, ВО ГОСТ 27575-87)";s:6:"parent";s:2:"76";s:4:"durl";s:63:"rasprodazha/odezhda/kostyum-favorit-k-pk-muzh-tsv-vasilek-seryy";s:4:"dtxt";s:890:"Костюм Фаворит состоит из куртки и полукомбинезона. Куртка укороченная на поясе, с накладными и внутренними карманами, супатной застёжкой на молнию. Элементы отделки из контрастной ткани. Полукомбинезон с внутренними карманами, застёжкой гульфика на молнию. Классическая модель для инженерно-технических специальностей с элементами отделки из контрастной ткани. Ткань смесовая Грета &#40;67&#37; полиэстер, 33&#37; хлопок, пл. 210 г/м Цвет: василек с серым Защитные свойстваЗ, Мн, Во ГОСТ 27575-87&#41;";s:4:"dpic";s:27:"/upload/iblock/4bf/3021.jpg";s:11:"preview_pic";s:27:"/upload/iblock/1fc/3021.jpg";s:4:"bxid";s:6:"200634";s:5:"alias";s:0:"";s:7:"section";s:5:"11733";}i:53;a:14:{s:2:"id";s:4:"1752";s:3:"act";s:1:"N";s:9:"prod_type";s:0:"";s:4:"name";s:66:"Костюм ФАВОРИТ (к+пк) муж цв.т.сер/сер";s:3:"art";s:11:"Кос508Э";s:6:"search";s:587:"КОСТЮМ ФАВОРИТ (К+ПК) МУЖ ЦВ.Т.СЕР/СЕР

КУРТКА УКОРОЧЕННАЯ НА ПОЯСЕ, С НАКЛАДНЫМИ И ВНУТРЕННИМИ КАРМАНАМИ, СУПАТНОЙ ЗАСТЁЖКОЙ НА МОЛНИЮ. ПОЛУКОМБИНЕЗОН С ВНУТРЕННИМИ КАРМАНАМИ, ЗАСТЁЖКОЙ ГУЛЬФИКА НА МОЛНИЮ. ТКАНЬ: СМЕСОВАЯ 67%-П/Э, 33%-Х/Б, ПОВ. ПЛ.-210 Г/КВ.М. ЦВЕТ: ТЕМНО-СЕРЫЙ С СЕРЫМ РАЗМЕР: УТОЧНЯЙТЕ У МЕНЕДЖЕРА РОСТ:170-176, 182-188 .";s:6:"parent";s:2:"76";s:4:"durl";s:59:"rasprodazha/odezhda/kostyum-favorit-k-pk-muzh-tsv-t-ser-ser";s:4:"dtxt";s:525:"Куртка укороченная на поясе, с накладными и внутренними карманами, супатной застёжкой на молнию. Полукомбинезон с внутренними карманами, застёжкой гульфика на молнию. Ткань: смесовая 67&#37;-п/э, 33&#37;-х/б, пов. пл.-210 г/кв.м. Цвет: темно-серый с серым Размер: уточняйте у менеджера Рост:170-176, 182-188 .";s:4:"dpic";s:27:"/upload/iblock/f1c/6311.jpg";s:11:"preview_pic";s:27:"/upload/iblock/29d/6311.jpg";s:4:"bxid";s:6:"200635";s:5:"alias";s:0:"";s:7:"section";s:5:"11733";}i:54;a:14:{s:2:"id";s:4:"1753";s:3:"act";s:1:"N";s:9:"prod_type";s:0:"";s:4:"name";s:69:"Костюм ФАВОРИТ (к+пк) муж цв.черн/красн";s:3:"art";s:9:"Кос506";s:6:"search";s:1378:"КОСТЮМ ФАВОРИТ (К+ПК) МУЖ ЦВ.ЧЕРН/КРАСН

КОСТЮМ ФАВОРИТ СОСТОИТ ИЗ КУРТКИ И ПОЛУКОМБИНЕЗОНА. КУРТКА УКОРОЧЕННАЯ НА ПОЯСЕ, С НАКЛАДНЫМИ И ВНУТРЕННИМИ КАРМАНАМИ, СУПАТНОЙ ЗАСТЕЖКОЙ НА МОЛНИЮ. ЭЛЕМЕНТЫ ОТДЕЛКИ ИЗ КОНТРАСТНОЙ ТКАНИ. ПОЛУКОМБИНЕЗОН ПРЯМОГО СИЛУЭТА С БОКОВОЙ ЗАСТЕЖКОЙ НА МОЛНИЮ, НА ПОЯСЕ.НА ГРУДКЕ НАКЛАДНОЙ КАРМАН С КЛАПАНОМ И ДВУМЯ ЗОНАЛЬНЫМИ ДЕЛЕНИЯМИ.ПЕРЕДНИЕ ПОЛОВИНКИ ПОЛУКОМБИНЕЗОНА С БОКОВЫМИ ВНУТРЕННИМИ КАРМАНАМИ, НАКЛАДНЫМИ КАРМАНАМИ С ПАТАМИ,ОБЪЁМНЫМИ НАКОЛЕННИКАМИ С ПАТАМИ,ЗАСТЁГИВАЮЩИМИСЯ НА ЛЕНТУ КОНТАКТ. НА ПЕРВОЙ ПОЛОВИНКЕ П/К РАСПОЛОЖЕН КАРМАН ДЛЯ ИНСТРУМЕНТОВ, НА НЕГО НАСТРОЧЕН МАЛЫЙ НАКЛАДНОЙ КАРМАН. ТКАНЬСМЕСОВАЯ ГРЕТА (65% ПОЛИЭСТЕР, 35%ХЛОПОК), ПЛ. 210 Г/М? ЦВЕТ: ЧЕРНЫЙ С КРАСНЫМ ЗАЩИТНЫЕ СВОЙСТВАЗ, МИ, ВО ГОСТ 27575-87";s:6:"parent";s:2:"76";s:4:"durl";s:61:"rasprodazha/odezhda/kostyum-favorit-k-pk-muzh-tsv-chern-krasn";s:4:"dtxt";s:1321:"Костюм Фаворит состоит из куртки и полукомбинезона. Куртка укороченная на поясе, с накладными и внутренними карманами, супатной застежкой на молнию. Элементы отделки из контрастной ткани. Полукомбинезон прямого силуэта с боковой застежкой на молнию, на поясе.На грудке накладной карман с клапаном и двумя зональными делениями.Передние половинки полукомбинезона с боковыми внутренними карманами, накладными карманами с патами,объёмными наколенниками с патами,застёгивающимися на ленту Контакт. На первой половинке п/к расположен карман для инструментов, на него настрочен малый накладной карман. Тканьсмесовая Грета &#40;65&#37; полиэстер, 35&#37;хлопок&#41;, пл. 210 г/м? Цвет: черный с красным Защитные свойстваЗ, Ми, Во ГОСТ 27575-87";s:4:"dpic";s:28:"/upload/iblock/75f/10256.jpg";s:11:"preview_pic";s:28:"/upload/iblock/c68/10256.jpg";s:4:"bxid";s:6:"200636";s:5:"alias";s:0:"";s:7:"section";s:5:"11733";}i:55;a:14:{s:2:"id";s:4:"1754";s:3:"act";s:1:"N";s:9:"prod_type";s:0:"";s:4:"name";s:39:"Костюм Фея цв.голубой";s:3:"art";s:9:"Кос088";s:6:"search";s:463:"КОСТЮМ ФЕЯ ЦВ.ГОЛУБОЙ

БЛУЗА: ОТЛОЖНОЙ ВОРОТНИК, РУКАВА КОРОТКИЕ, НА ТАЛИИ - ХЛЯСТИК. БРЮКИ НА ШИРОКОЙ РЕЗИНКЕ. ЦВЕТ: СВЕТЛО-ГОЛУБАЯ С ВАСИЛЬКОВОЙ ОТДЕЛКОЙ ТКАНЬ: СМЕСОВАЯ «ТИСИ» (65% ПОЛИЭФИР, 35% ХЛОПОК) ПЛ.120 Г/М2 РАЗМЕР: С 80-84 ПО 120-124 РОСТ: 158-164, 170-176 ГОСТ 9896-88 .";s:6:"parent";s:2:"76";s:4:"durl";s:44:"rasprodazha/odezhda/kostyum-feya-tsv-goluboy";s:4:"dtxt";s:436:"Блуза: отложной воротник, рукава короткие, на талии - хлястик. Брюки на широкой резинке. Цвет: светло-голубая с васильковой отделкой Ткань: смесовая «Тиси» &#40;65&#37; полиэфир, 35&#37; хлопок&#41; пл.120 г/м2 Размер: с 80-84 по 120-124 Рост: 158-164, 170-176 ГОСТ 9896-88 .";s:4:"dpic";s:28:"/upload/iblock/843/11589.jpg";s:11:"preview_pic";s:28:"/upload/iblock/be4/11589.jpg";s:4:"bxid";s:6:"200642";s:5:"alias";s:0:"";s:7:"section";s:5:"11733";}i:56;a:14:{s:2:"id";s:4:"1755";s:3:"act";s:1:"N";s:9:"prod_type";s:0:"";s:4:"name";s:20:"Костюм №26-3";s:3:"art";s:9:"Кос261";s:6:"search";s:614:"КОСТЮМ №26-3

КОСТЮМ МЕДИЦИНСКИЙ № 26-3 БЛУЗА БЕЛОГО ЦВЕТА ПОЛУПРИЛЕГАЮЩЕГО СИЛУЭТА С РЕЛЬЕФАМИ ИЗ ПЛЕЧЕВОГО ШВА, РУКАВАМИ 3/4 И ОТЛОЖНЫМ ВОРОТНИКОМ, НА ПУГОВИЦАХ. ОТДЕЛКА ВОРОТНИКА, КАРМАНОВ И МАНЖЕТ РУКАВОВ ПОД ЦВЕТ БРЮК. БРЮКИ НА ЭЛАСТИЧНОЙ ЛЕНТЕ. ТКАНЬ: СМЕСОВАЯ ТИСИ (65% ПОЛИЭФИР, 35% ХЛОПОК), ПЛОТНОСТЬ 120 Г/КВ. М РАЗМЕРЫ С 40 ПО 62 ГОСТ 9896-88 .";s:6:"parent";s:2:"76";s:4:"durl";s:32:"rasprodazha/odezhda/kostyum-26-3";s:4:"dtxt";s:606:"Костюм медицинский № 26-3 Блуза белого цвета полуприлегающего силуэта с рельефами из плечевого шва, рукавами 3/4 и отложным воротником, на пуговицах. Отделка воротника, карманов и манжет рукавов под цвет брюк. Брюки на эластичной ленте. Ткань: смесовая Тиси &#40;65&#37; полиэфир, 35&#37; хлопок&#41;, плотность 120 г/кв. м Размеры с 40 по 62 ГОСТ 9896-88 .";s:4:"dpic";s:27:"/upload/iblock/fca/9768.jpg";s:11:"preview_pic";s:27:"/upload/iblock/91d/9768.jpg";s:4:"bxid";s:6:"200652";s:5:"alias";s:0:"";s:7:"section";s:5:"11733";}i:57;a:14:{s:2:"id";s:4:"1756";s:3:"act";s:1:"N";s:9:"prod_type";s:0:"";s:4:"name";s:66:"Костюм для сферы услуг василек р.48/170";s:3:"art";s:9:"Кос905";s:6:"search";s:451:"КОСТЮМ ДЛЯ СФЕРЫ УСЛУГ ВАСИЛЕК Р.48/170

КОСТЮМ ДЛЯ СФЕРЫ УСЛУГ. КОСТЮМ СОСТОИТ ИЗ КУРТКИ И БРЮК. БЛУЗА С ОТЛОЖНЫМ ВОРОТНИКОМ И ЛАЦКАНАМИ, УКОРОЧЕННЫМИ РУКАВАМИ И НАКЛАДНЫМИ КАРМАНАМИ. БРЮКИ УМЕРЕННОГО ОБЪЕМА НА РЕЗИНКЕ. ЦВ. ВАСИЛЕК ТК. ТИСИ ГОСТ 9896-88";s:6:"parent";s:2:"76";s:4:"durl";s:61:"rasprodazha/odezhda/kostyum-dlya-sfery-uslug-vasilek-r-48-170";s:4:"dtxt";s:381:"Костюм для сферы услуг. Костюм состоит из куртки и брюк. Блуза с отложным воротником и лацканами, укороченными рукавами и накладными карманами. Брюки умеренного объема на резинке. цв. Василек тк. Тиси ГОСТ 9896-88";s:4:"dpic";s:27:"/upload/iblock/3a7/6960.jpg";s:11:"preview_pic";s:27:"/upload/iblock/93d/6960.jpg";s:4:"bxid";s:6:"200660";s:5:"alias";s:0:"";s:7:"section";s:5:"11733";}i:58;a:14:{s:2:"id";s:4:"1757";s:3:"act";s:1:"N";s:9:"prod_type";s:0:"";s:4:"name";s:58:"Костюм женский модель 093 52-54/170-176";s:3:"art";s:9:"Кос093";s:6:"search";s:600:"КОСТЮМ ЖЕНСКИЙ МОДЕЛЬ 093 52-54/170-176

КОСТЮМ ЖЕНСКИЙ СОСТОИТ ИЗ БЛУЗЫ И БРЮК. БЛУЗА БЕЛОГО ЦВЕТА РУКАВ 3/4 С НАКЛАДНЫМИ КАРМАНАМИ. ВАСИЛЬКОВАЯ ОТДЕЛКА В ВИДЕ КАНТА ПО РУКАВАМ И НА КАРМАНАХ. БРЮКИ ВАСИЛЬКОВОГО ЦВЕТА УМЕРЕННОЙ ШИРИНЫ НА РЕЗИНКЕ. ТКАНЬ: СМЕСОВАЯ «ТИСИ» (65% ПОЛИЭФИР, 35% ХЛОПОК), ПЛ.120 Г/М? ЦВЕТ: БЕЛЫЙ+СИНИЙ СТАНДАРТ ГОСТ 9896-88";s:6:"parent";s:2:"76";s:4:"durl";s:60:"rasprodazha/odezhda/kostyum-zhenskiy-model-093-52-54-170-176";s:4:"dtxt";s:558:"Костюм женский состоит из блузы и брюк. Блуза белого цвета рукав 3/4 с накладными карманами. васильковая отделка в виде канта по рукавам и на карманах. Брюки василькового цвета умеренной ширины на резинке. Ткань: смесовая «Тиси» &#40;65&#37; полиэфир, 35&#37; хлопок&#41;, пл.120 г/м? Цвет: белый&#43;синий Стандарт ГОСТ 9896-88";s:4:"dpic";s:27:"/upload/iblock/0b9/7997.jpg";s:11:"preview_pic";s:27:"/upload/iblock/c1f/7997.jpg";s:4:"bxid";s:6:"200661";s:5:"alias";s:0:"";s:7:"section";s:5:"11733";}i:59;a:14:{s:2:"id";s:4:"1758";s:3:"act";s:1:"N";s:9:"prod_type";s:0:"";s:4:"name";s:65:"Костюм мед. №23 (халат+брюки)  52-54/170-176";s:3:"art";s:9:"Кос807";s:6:"search";s:487:"КОСТЮМ МЕД. №23 (ХАЛАТ+БРЮКИ)  52-54/170-176

КОСТЮМ МЕДИЦИНСКИЙ СОСТОИТ ИЗ ХАЛАТА И БРЮК. ХАЛАТ КЛАСИЧЕСКОГО КРОЯ С ОТЛОЖНЫМ ВОРОТНИКОМ ЗАСТЕЖКА НА ПУГОВИЦЫ. ХАЛАТ ИМЕЕТ 3 НАКЛАДНЫХ КАРМАНА. ЦВЕТ: БЕЛЫЙ БРЮКИ КЛАСИЧЕСКОГО КРОЯ НА РЕЗИНКЕ. ЦВЕТ: БЕЖЕВЫЙ ТКАНЬ:ТИСИ. ГОСТ 9896-88 .";s:6:"parent";s:2:"76";s:4:"durl";s:62:"rasprodazha/odezhda/kostyum-med-23-khalat-bryuki-52-54-170-176";s:4:"dtxt";s:418:"Костюм медицинский состоит из халата и брюк. Халат класического кроя с отложным воротником застежка на пуговицы. Халат имеет 3 накладных кармана. Цвет: белый Брюки класического кроя на резинке. Цвет: бежевый Ткань:Тиси. ГОСТ 9896-88 .";s:4:"dpic";s:28:"/upload/iblock/228/13573.jpg";s:11:"preview_pic";s:28:"/upload/iblock/d4e/13573.jpg";s:4:"bxid";s:6:"200665";s:5:"alias";s:0:"";s:7:"section";s:5:"11733";}i:60;a:14:{s:2:"id";s:4:"1759";s:3:"act";s:1:"N";s:9:"prod_type";s:0:"";s:4:"name";s:25:"Костюм повара";s:3:"art";s:9:"Кос169";s:6:"search";s:29:"КОСТЮМ ПОВАРА

";s:6:"parent";s:2:"76";s:4:"durl";s:34:"rasprodazha/odezhda/kostyum-povara";s:4:"dtxt";s:0:"";s:4:"dpic";N;s:11:"preview_pic";N;s:4:"bxid";s:6:"200678";s:5:"alias";s:0:"";s:7:"section";s:5:"11733";}i:61;a:14:{s:2:"id";s:4:"1760";s:3:"act";s:1:"N";s:9:"prod_type";s:0:"";s:4:"name";s:61:"Костюм против с сеткой ЛЕС (грета)";s:3:"art";s:9:"Кос275";s:6:"search";s:826:"КОСТЮМ ПРОТИВ С СЕТКОЙ ЛЕС (ГРЕТА)

ОПИСАНИЕ: КОСТЮМ МУЖСКОЙ ДЛЯ ЗАЩИТЫ ОТ ВРЕДНЫХ БИОЛОГИЧЕСКИХ ФАКТОРОВ. СОСТОИТ ИЗ КУРТКИ ТИПА БЛУЗЫ С НАГРУДНЫМ КАРМАНОМ И БРЮК. РУКАВА КУРТКИ С ТРИКОТАЖНЫМИ НАПУЛЬСНИКАМИ. БРЮКИ ИМЕЮТ ДВА ЗАДНИХ КАРМАНА С КЛАПАНАМИ. ПОЯС И НИЗ БРЮК СТЯНУТЫ ЭЛАСТИЧНОЙ ЛЕНТОЙ. УКОМПЛЕКТОВАН ПРОТИВОМОСКИТНОЙ СЕТКОЙ, КОТОРАЯ КРЕПИТСЯ К КАПЮШОНУ. РАЗМЕР: 44-46 ПО 60-62 РОСТ : 170-176, 182-188 ТКАНЬ: ГРЕТТА (47% ХЛОПКА, 53% ПОЛИЭСТЕРА. РАСЦВЕТКА: ЛЕС .)";s:6:"parent";s:2:"76";s:4:"durl";s:53:"rasprodazha/odezhda/kostyum-protiv-s-setkoy-les-greta";s:4:"dtxt";s:777:"Описание: Костюм мужской для защиты от вредных биологических факторов. Состоит из куртки типа блузы с нагрудным карманом и брюк. Рукава куртки с трикотажными напульсниками. Брюки имеют два задних кармана с клапанами. Пояс и низ брюк стянуты эластичной лентой. Укомплектован противомоскитной сеткой, которая крепится к капюшону. Размер: 44-46 по 60-62 Рост : 170-176, 182-188 Ткань: гретта &#40;47&#37; хлопка, 53&#37; полиэстера. Расцветка: ЛЕС .&#41;";s:4:"dpic";s:28:"/upload/iblock/aba/12843.jpg";s:11:"preview_pic";s:28:"/upload/iblock/59f/12843.jpg";s:4:"bxid";s:6:"200680";s:5:"alias";s:0:"";s:7:"section";s:5:"11733";}i:62;a:14:{s:2:"id";s:4:"1761";s:3:"act";s:1:"N";s:9:"prod_type";s:0:"";s:4:"name";s:70:"Костюм против с сеткой СОП (тк.палатка)";s:3:"art";s:9:"Кос278";s:6:"search";s:979:"КОСТЮМ ПРОТИВ С СЕТКОЙ СОП (ТК.ПАЛАТКА)

ОПИСАНИЕ: КОСТЮМ МУЖСКОЙ ДЛЯ ЗАЩИТЫ ОТ ВРЕДНЫХ БИОЛОГИЧЕСКИХ ФАКТОРОВ. СОСТОИТ ИЗ КУРТКИ ТИПА БЛУЗЫ И БРЮК. КУРТКА ИМЕЕТ ДВА НАГРУДНЫХ КАРМАНА С КЛАПАНАМИ. РУКАВА КУРТКИ С ТРИКОТАЖНЫМИ НАПУЛЬСНИКАМИ. БРЮКИ С ДВУМЯ ПЕРЕДНИМИ НАКЛАДНЫМИ КАРМАНАМИ С КЛАПАНАМИ. ПОЯС И НИЗ БРЮК СТЯНУТЫ ЭЛАСТИЧНОЙ ЛЕНТОЙ. УКОМПЛЕКТОВАН ПРОТИВОМОСКИТНОЙ СЕТКОЙ, КОТОРАЯ КРЕПИТСЯ К КАПЮШОНУ. СВЕТОВОЗВРАЩАЮЩИЕ ПОЛОСЫ ПО ЛИНИИ ГРУДИ, ПОЯСА И РУКАВАМ. РАЗМЕР: 44-46 ПО 60-62 РОСТ : 170-176, 182-188 ТКАНЬ: ПАЛАТКА. СОСТАВ: 100% ХЛОПОК .";s:6:"parent";s:2:"76";s:4:"durl";s:58:"rasprodazha/odezhda/kostyum-protiv-s-setkoy-sop-tk-palatka";s:4:"dtxt";s:909:"Описание: Костюм мужской для защиты от вредных биологических факторов. Состоит из куртки типа блузы и брюк. Куртка имеет два нагрудных кармана с клапанами. Рукава куртки с трикотажными напульсниками. Брюки с двумя передними накладными карманами с клапанами. Пояс и низ брюк стянуты эластичной лентой. Укомплектован противомоскитной сеткой, которая крепится к капюшону. Световозвращающие полосы по линии груди, пояса и рукавам. Размер: 44-46 по 60-62 Рост : 170-176, 182-188 Ткань: палатка. Состав: 100&#37; хлопок .";s:4:"dpic";s:28:"/upload/iblock/755/13207.jpg";s:11:"preview_pic";s:28:"/upload/iblock/11d/13207.jpg";s:4:"bxid";s:6:"200682";s:5:"alias";s:0:"";s:7:"section";s:5:"11733";}i:63;a:14:{s:2:"id";s:4:"1762";s:3:"act";s:1:"N";s:9:"prod_type";s:0:"";s:4:"name";s:88:"Костюм противоэнцефалитный АНТИГНУС-3 (тк.Саржа)";s:3:"art";s:9:"Кос288";s:6:"search";s:792:"КОСТЮМ ПРОТИВОЭНЦЕФАЛИТНЫЙ АНТИГНУС-3 (ТК.САРЖА)

КОСТЮМ ПРОТИВОЭНЦЕФАЛИТНЫЙ АНТИГНУС-3 ОПИСАНИЕ: КУРТКА ПРЯМОГО СИЛУЭТА С ПРИТАЧНЫМ КАПЮШОНОМ И ПРОТИВОМОСКИТНОЙ СЕТКОЙ, С БОКОВЫМИ КАРМАНАМИ НА МОЛНИИ, РУКАВА ОТДЕЛАНЫ ТРИКОТАЖНЫМИ МАНЖЕТАМИ. ПО ЛИНИИ КОКЕТКИ СПЕРЕДИ И СЗАДИ ЗАЩИТНАЯ АНТИМОСКИТНАЯ ПЛАНКА. ПО НИЗУ БРЮК И В ПОЯСЕ- ЭЛАСТИЧНАЯ ТЕСЬМА. БРЮКИ УСИЛЕНЫ НАКОЛЕННИКАМИ. ТКАНЬ:САРЖА, 100% Х/Б РАЗМЕР: С 44-46 ПО 64-66 РОСТ: 170-176, 182-188 .";s:6:"parent";s:2:"76";s:4:"durl";s:69:"rasprodazha/odezhda/kostyum-protivoentsefalitnyy-antignus-3-tk-sarzha";s:4:"dtxt";s:704:"Костюм противоэнцефалитный Антигнус-3 Описание: Куртка прямого силуэта с притачным капюшоном и противомоскитной сеткой, с боковыми карманами на молнии, рукава отделаны трикотажными манжетами. По линии кокетки спереди и сзади защитная антимоскитная планка. По низу брюк и в поясе- эластичная тесьма. Брюки усилены наколенниками. Ткань:Саржа, 100&#37; х/б Размер: с 44-46 по 64-66 Рост: 170-176, 182-188 .";s:4:"dpic";s:28:"/upload/iblock/6d7/14683.jpg";s:11:"preview_pic";s:28:"/upload/iblock/f88/14683.jpg";s:4:"bxid";s:6:"200683";s:5:"alias";s:0:"";s:7:"section";s:5:"11733";}i:64;a:14:{s:2:"id";s:4:"1763";s:3:"act";s:1:"N";s:9:"prod_type";s:0:"";s:4:"name";s:79:"Костюм рабочий мужской (к+бр.) цв. сер.желтый";s:3:"art";s:9:"Кос465";s:6:"search";s:575:"КОСТЮМ РАБОЧИЙ МУЖСКОЙ (К+БР.) ЦВ. СЕР.ЖЕЛТЫЙ

КУРТКА ПРЯМОГО СИЛУЭТА С ЗАСТЁЖКОЙ НА ПУГОВИЦЫ И НАКЛАДНЫМИ КАРМАНАМИ, РУКАВА С МАНЖЕТАМИ НА ПУГОВИЦАХ. БРЮКИ НА ПОЯСЕ, С ПЕРЕДНИМИ НАКЛАДНЫМИ КАРМАНАМИ. СРЕДНИЙ ШОВ БРЮК УСИЛЕН ДВОЙНОЙ СТРОЧКОЙ. ЦВЕТ: СЕРЫЙ С ЖЕЛТОЙ КОКЕТКОЙ ТКАНЬ: СМЕСОВАЯ 65% П/Э, 35% Х/Б, ПЛ. 215 Г/:З МИ ВУ .";s:6:"parent";s:2:"76";s:4:"durl";s:66:"rasprodazha/odezhda/kostyum-rabochiy-muzhskoy-k-br-tsv-ser-zheltyy";s:4:"dtxt";s:500:"Куртка прямого силуэта с застёжкой на пуговицы и накладными карманами, рукава с манжетами на пуговицах. Брюки на поясе, с передними накладными карманами. Средний шов брюк усилен двойной строчкой. Цвет: серый с желтой кокеткой Ткань: смесовая 65&#37; п/э, 35&#37; х/б, пл. 215 г/:З Ми Ву .";s:4:"dpic";s:28:"/upload/iblock/3aa/15194.jpg";s:11:"preview_pic";s:28:"/upload/iblock/445/15194.jpg";s:4:"bxid";s:6:"200684";s:5:"alias";s:0:"";s:7:"section";s:5:"11733";}i:65;a:14:{s:2:"id";s:4:"1764";s:3:"act";s:1:"N";s:9:"prod_type";s:0:"";s:4:"name";s:78:"Куртка Балтика женская т.синяя (тк.оксфорд)";s:3:"art";s:9:"Кур523";s:6:"search";s:1141:"КУРТКА БАЛТИКА ЖЕНСКАЯ Т.СИНЯЯ (ТК.ОКСФОРД)

КУРТКА ЗИМНЯЯ БАЛТИКА ОСОБЕННОСТИ МОДЕЛИ: КУРТКА ОДНОТОННАЯ ПРЯМОГО СИЛУЭТА С СВЕТООТРАЖАЮЩИМ КАНТОМ, ЦЕНТРАЛЬНАЯ ЗАСТЕЖКА-МОЛНИЯ ЗАЩИЩЕНА УТЕПЛЕННОЙ ВЕТРОЗАЩИТНОЙ ПЛАНКОЙ, ФИКСИРУЮЩЕЙСЯ НА И ЛЕНТЕ 'ВЕЛЬКРО'. РЕГУЛИРУЕМЫЙ ОТСТЕГИВАЮЩИЙСЯ КАПЮШОН. ТРИКОТАЖНЫЙ УТЕПЛИТЕЛЬ ЗАПЯСТЬЯ. РЕКОМЕНДУЕТСЯ ДЛЯ ЗАЩИТЫ ОТ ПОНИЖЕННЫХ ТЕМПЕРАТУР РАБОТНИКАМ СТРОИТЕЛЬНЫХ СПЕЦИАЛЬНОСТЕЙ, СЕРВИСНЫХ СЛУЖБ. ТКАНЬ ВЕРХА: ОКСФОРД ПОДКЛАДКА: 100% ПОЛИЭСТЕР УТЕПЛИТЕЛЬ: СИНТЕПОН 120 Г/М2 - СПИНКА И ПОЛОЧКА 3 СЛОЯ, РУКАВА 2 СЛОЯ, КАПЮШОН 1 СЛОЙ ЦВЕТ: ТЕМНО-СИНИЙ РАЗМЕР:44/46- 60/62 РОСТ: 158-164, 170/176 ГОСТ: 12.4.236-2007";s:6:"parent";s:2:"76";s:4:"durl";s:65:"rasprodazha/odezhda/kurtka-baltika-zhenskaya-t-sinyaya-tk-oksford";s:4:"dtxt";s:1071:"Куртка зимняя Балтика Особенности модели: Куртка однотонная прямого силуэта с светоотражающим кантом, центральная застежка-молния защищена утепленной ветрозащитной планкой, фиксирующейся на и ленте &#39;велькро&#39;. Регулируемый отстегивающийся капюшон. Трикотажный утеплитель запястья. Рекомендуется для защиты от пониженных температур работникам строительных специальностей, сервисных служб. Ткань верха: Оксфорд Подкладка: 100&#37; полиэстер Утеплитель: синтепон 120 г/м2 - спинка и полочка 3 слоя, рукава 2 слоя, капюшон 1 слой Цвет: темно-синий Размер:44/46- 60/62 Рост: 158-164, 170/176 ГОСТ: 12.4.236-2007";s:4:"dpic";s:27:"/upload/iblock/309/6344.jpg";s:11:"preview_pic";s:27:"/upload/iblock/960/6344.jpg";s:4:"bxid";s:6:"200760";s:5:"alias";s:0:"";s:7:"section";s:5:"11733";}i:66;a:14:{s:2:"id";s:4:"1765";s:3:"act";s:1:"N";s:9:"prod_type";s:0:"";s:4:"name";s:55:"Куртка Беркут утепл. (тк.Алова)";s:3:"art";s:9:"Кур531";s:6:"search";s:571:"КУРТКА БЕРКУТ УТЕПЛ. (ТК.АЛОВА)

ПРЕДНАЗНАЧЕНА ДЛЯ ЗАЩИТЫ ОТ ПОНИЖЕННЫХ ТЕМПЕРАТУР СПЕЦИАЛИСТОВ, РАБОТАЮЩИХ В ЗИМНИЙ ПЕРИОД, А ТАК ЖЕ ОЧЕНЬ УДОБЕНА ДЛЯ ОХОТНИКОВ И РЫБАКОВ. ТК. ВЕРХА - МЕБРАННАЯ ТКАНЬ «АЛОВА» УТЕПЛИТЕЛЬ В КУРТКЕ – СИНТЕПОН ПЛ. 250 Г/М2+ФЛИСОВАЯ ПОДКЛАДКА ПЛ.180Г/М2 РАЗМЕР: С 96-100 ПО 120-124 РОСТ: 170-176, 182-188 .";s:6:"parent";s:2:"76";s:4:"durl";s:48:"rasprodazha/odezhda/kurtka-berkut-utepl-tk-alova";s:4:"dtxt";s:516:"Предназначена для защиты от пониженных температур специалистов, работающих в зимний период, а так же очень удобена для охотников и рыбаков. Тк. верха - мебранная ткань «Алова» Утеплитель в куртке – синтепон пл. 250 г/м2&#43;флисовая подкладка пл.180г/м2 Размер: с 96-100 по 120-124 Рост: 170-176, 182-188 .";s:4:"dpic";s:28:"/upload/iblock/e5f/12001.jpg";s:11:"preview_pic";s:28:"/upload/iblock/db7/12001.jpg";s:4:"bxid";s:6:"200762";s:5:"alias";s:0:"";s:7:"section";s:5:"11733";}i:67;a:14:{s:2:"id";s:4:"1766";s:3:"act";s:1:"N";s:9:"prod_type";s:0:"";s:4:"name";s:40:"Куртка Комбат березка";s:3:"art";s:9:"Кур223";s:6:"search";s:789:"КУРТКА КОМБАТ БЕРЕЗКА

ТКАНЬ: СОРОЧЕЧНАЯ. РАЗМЕРНЫЙ РЯД: 40-42 РОСТ(170-176), 44-46 РОСТ(170-176), 48-50 РОСТ (170-176), 48-50 РОСТ (182-188), 52-54 РОСТ(170-176), 52-54 РОСТ(182-188), 56-58 РОСТ(170-176), 56-58 (182-188), 60-62 РОСТ (182-188), 64-66 РОСТ(182-188). КУРТКА ВЫПОЛНЕНА ИЗ СОРОЧЕЧНОЙ ТКАНИ КАМУФЛЯЖНОЙ РАСЦВЕТКИ - БЕРЕЗКА. КУРТКА НА МОЛНИИ ПРЕДУСМАТРИВАЕТ ДВА НАКЛАДНЫХ КАРМАНА С КЛАПАНОМ И КАПЮШОН ЗАТЯГИВАЮЩИЙСЯ РЕЗИНКОЙ С ФИКСАТОРАМИ. МАНЖЕТЫ НА РУКАВАХ, НИЗ КУРТКИ ВЫПОЛНЕНЫ НА РЕЗИНКЕ .";s:6:"parent";s:2:"76";s:4:"durl";s:41:"rasprodazha/odezhda/kurtka-kombat-berezka";s:4:"dtxt";s:825:"Ткань: Сорочечная. Размерный ряд: 40-42 рост&#40;170-176&#41;, 44-46 рост&#40;170-176&#41;, 48-50 рост &#40;170-176&#41;, 48-50 рост &#40;182-188&#41;, 52-54 рост&#40;170-176&#41;, 52-54 рост&#40;182-188&#41;, 56-58 рост&#40;170-176&#41;, 56-58 &#40;182-188&#41;, 60-62 рост &#40;182-188&#41;, 64-66 рост&#40;182-188&#41;. Куртка выполнена из сорочечной ткани камуфляжной расцветки - березка. Куртка на молнии предусматривает два накладных кармана с клапаном и капюшон затягивающийся резинкой с фиксаторами. Манжеты на рукавах, низ куртки выполнены на резинке .";s:4:"dpic";s:28:"/upload/iblock/34f/14140.jpg";s:11:"preview_pic";s:28:"/upload/iblock/628/14140.jpg";s:4:"bxid";s:6:"200775";s:5:"alias";s:0:"";s:7:"section";s:5:"11733";}i:68;a:14:{s:2:"id";s:4:"1767";s:3:"act";s:1:"N";s:9:"prod_type";s:0:"";s:4:"name";s:72:"Куртка Найт утепл. черная (тк.Курточная)";s:3:"art";s:9:"Кур307";s:6:"search";s:555:"КУРТКА НАЙТ УТЕПЛ. ЧЕРНАЯ (ТК.КУРТОЧНАЯ)

КУРТКА УТЕПЛЕННАЯ ПРЯМОГО СИЛУЭТА. ЦЕНТРАЛЬНАЯ ЗАСТЕЖКА НА МОЛНИИ С ВЕТРОЗАЩИТНОЙ ПЛАНКОЙ НА ЛИПУЧКЕ. ЦВЕТ ЧЕРНЫЙ (ТК.КУРТОЧНАЯ) КАПЮШОН ОТСТЕГИВАЮЩИЙСЯ УТЕПЛЕННЫЙ С КУЛИСКОЙ. 2 ВЕРХНИХ НАКЛАДНЫХ ВМЕСТИТЕЛЬНЫХ КАРМАНА С КЛАПАНАМИ И 2 НИЖНИХ ПРОРЕЗНЫХ КАРМАНА. .";s:6:"parent";s:2:"76";s:4:"durl";s:61:"rasprodazha/odezhda/kurtka-nayt-utepl-chernaya-tk-kurtochnaya";s:4:"dtxt";s:487:"Куртка утепленная прямого силуэта. Центральная застежка на молнии с ветрозащитной планкой на липучке. Цвет черный &#40;тк.Курточная&#41; Капюшон отстегивающийся утепленный с кулиской. 2 верхних накладных вместительных кармана с клапанами и 2 нижних прорезных кармана. .";s:4:"dpic";s:28:"/upload/iblock/d1e/15318.jpg";s:11:"preview_pic";s:28:"/upload/iblock/eaf/15318.jpg";s:4:"bxid";s:6:"200780";s:5:"alias";s:0:"";s:7:"section";s:5:"11733";}i:69;a:14:{s:2:"id";s:4:"1768";s:3:"act";s:1:"N";s:9:"prod_type";s:0:"";s:4:"name";s:61:"Куртка Соня детская цв.св.зеленый";s:3:"art";s:9:"Кур031";s:6:"search";s:154:"КУРТКА СОНЯ ДЕТСКАЯ ЦВ.СВ.ЗЕЛЕНЫЙ

КУРТКА ДЕТСКАЯ УТЕПЛЕННАЯ ЦВЕТ СВЕТЛО - ЗЕЛЕНЫЙ .";s:6:"parent";s:2:"76";s:4:"durl";s:56:"rasprodazha/odezhda/kurtka-sonya-detskaya-tsv-sv-zelenyy";s:4:"dtxt";s:89:"Куртка детская утепленная цвет светло - зеленый .";s:4:"dpic";s:28:"/upload/iblock/ff1/14134.jpg";s:11:"preview_pic";s:28:"/upload/iblock/300/14134.jpg";s:4:"bxid";s:6:"200794";s:5:"alias";s:0:"";s:7:"section";s:5:"11733";}i:70;a:14:{s:2:"id";s:4:"1769";s:3:"act";s:1:"N";s:9:"prod_type";s:0:"";s:4:"name";s:62:"Куртка Стелла жен тк.Тиси цв.белый";s:3:"art";s:9:"Кур217";s:6:"search";s:708:"КУРТКА СТЕЛЛА ЖЕН ТК.ТИСИ ЦВ.БЕЛЫЙ

КУРТКА МЕДИЦИНСКАЯ ЖЕНСКАЯ СТЕЛЛА КУРТКА ПРИТАЛЕННОГО СИЛУЭТА, УКОРОЧЕННАЯ, С ЦЕНТРАЛЬНОЙ БОРТОВОЙ ЗАСТЕЖКОЙ НА ТРИ КНОПКИ. АНГЛИЙСКИЙ ВОРОТНИК. РУКАВА ДЛИННЫЕ С МАНЖЕТОЙ НА КНОПКАХ. ПО ЛИНИИ КОКЕТКИ И ЛИНИИ ТАЛИИ КАРМАНЫ С КЛАПАНОМ НА КНОПКЕ. ЦВЕТ: БЕЛЫЙ ТКАНЬ: СМЕСОВАЯ ТИСИ (65% ПОЛИЭФИР, 35% ХЛОПОК), ПЛОТНОСТЬ 120 Г/КВ. М РАЗМЕРЫ: 44-50 РОСТ: 170-176 ГОСТ 9896-88 .";s:6:"parent";s:2:"76";s:4:"durl";s:56:"rasprodazha/odezhda/kurtka-stella-zhen-tk-tisi-tsv-belyy";s:4:"dtxt";s:658:"Куртка медицинская женская Стелла Куртка приталенного силуэта, укороченная, с центральной бортовой застежкой на три кнопки. Английский воротник. Рукава длинные с манжетой на кнопках. По линии кокетки и линии талии карманы с клапаном на кнопке. Цвет: белый Ткань: смесовая Тиси &#40;65&#37; полиэфир, 35&#37; хлопок&#41;, плотность 120 г/кв. м Размеры: 44-50 Рост: 170-176 Гост 9896-88 .";s:4:"dpic";s:28:"/upload/iblock/f41/11116.jpg";s:11:"preview_pic";s:28:"/upload/iblock/b60/11116.jpg";s:4:"bxid";s:6:"200796";s:5:"alias";s:0:"";s:7:"section";s:5:"11733";}i:71;a:14:{s:2:"id";s:4:"1770";s:3:"act";s:1:"N";s:9:"prod_type";s:0:"";s:4:"name";s:43:"Куртка Урал жен. син/вас";s:3:"art";s:9:"Кур554";s:6:"search";s:743:"КУРТКА УРАЛ ЖЕН. СИН/ВАС

ОСОБЕННОСТИ МОДЕЛИ: ОТСТЕГИВАЮЩИЙСЯ КАПЮШОН С МЕХОВОЙ ОПУШКОЙ, СВЕТООТРАЖАЮЩИЙ КАНТ, ВНУТРЕННИЕ ТРИКОТАЖНЫЕ МАНЖЕТЫ, ВНУТРЕННИЙ КАРМАН, РЕГУЛИРОВКА ОБЪЕМА ПО ТАЛИИ ЦВЕТ: ТЕМНО-СИНИЙ С КРАСНОЙ ОТДЕЛКОЙ, ТЕМНО-СИНИЙ С ВАСИЛЬКОВОЙ ОТДЕЛКОЙ ТКАНЬ: «ВОСТОК» (100% ПОЛИЭФИР) ПЛ. 160 Г/КВ. М. ПОДКЛАДКА: 100% НЕЙЛОН УТЕПЛИТЕЛЬ: СИНТЕПОН ПЛ. 360 Г/КВ. М. РАЗМЕР: С 44-46 ПО 60-62. РОСТ: 158-164, 170-176. ГОСТ 29338-92 .";s:6:"parent";s:2:"76";s:4:"durl";s:44:"rasprodazha/odezhda/kurtka-ural-zhen-sin-vas";s:4:"dtxt";s:712:"Особенности модели: отстегивающийся капюшон с меховой опушкой, светоотражающий кант, внутренние трикотажные манжеты, внутренний карман, регулировка объема по талии Цвет: темно-синий с красной отделкой, темно-синий с васильковой отделкой Ткань: «Восток» &#40;100&#37; полиэфир&#41; пл. 160 г/кв. м. Подкладка: 100&#37; нейлон Утеплитель: синтепон пл. 360 г/кв. м. Размер: с 44-46 по 60-62. Рост: 158-164, 170-176. ГОСТ 29338-92 .";s:4:"dpic";s:27:"/upload/iblock/c7a/8949.jpg";s:11:"preview_pic";s:27:"/upload/iblock/470/8949.jpg";s:4:"bxid";s:6:"200798";s:5:"alias";s:0:"";s:7:"section";s:5:"11733";}i:72;a:14:{s:2:"id";s:4:"1771";s:3:"act";s:1:"N";s:9:"prod_type";s:0:"";s:4:"name";s:44:"Куртка Фаервол сварщика";s:3:"art";s:9:"Кур020";s:6:"search";s:1751:"КУРТКА ФАЕРВОЛ СВАРЩИКА

КУРТКА СВАРЩИКА ФАЕРВОЛ 3 КЛАСС ЗАЩИТЫ – УСИЛЕННАЯ МОДЕЛЬ ДЛЯ ЗАЩИТЫ ОТ ИСКР, БРЫЗГ РАСПЛАВЛЕННОГО МЕТАЛЛА, КОНТАКТА С НАГРЕТЫМИ ПОВЕРХНОСТЯМИ – ДЛЯ ИСПОЛЬЗОВАНИЯ В КАЧЕСТВЕ ОСНОВНОГО СРЕДСТВА ЗАЩИТЫ ПРИ ИНТЕНСИВНЫХ ГАЗОСВАРОЧНЫХ РАБОТАХ – НАКЛАДКИ В ПЕРЕДНЕЙ ЧАСТИ И В РУКАВАХ КУРТКИ – ПРОШИТ ОГНЕЗАЩИТНЫМИ НИТКАМИ – МАТЕРИАЛ КУРТКИ ПРИ ДЛИТЕЛЬНОМ ВОЗДЕЙСТВИИ ПЛАМЕНИ НЕ ГОРИТ И НЕ ПЛАВИТСЯ, А КАРБОНИЗИРУЕТСЯ, ЧТО ИСКЛЮЧАЕТ ВТО- РИЧНЫЕ ОЖОГИ – ЗАПАТЕНТОВАННАЯ ТЕХНОЛОГИЯ PROBAN ГАРАНТИРУЕТ СОХРАНЕНИЕ ОГНЕЗАЩИТНЫХ СВОЙСТВ ТКАНИ БОЛЕЕ 200 ПРОМЫШЛЕННЫХ СТИРОК И СУШКЕ ПРИ ТЕМПЕРАТУРЕ ДО 75°С – CРОК ЭКСПЛУАТАЦИИ ПО НАЗНАЧЕНИЮ: НЕ МЕНЕЕ 12 МЕСЯЦЕВ ЦВЕТ: ТЕМНО-СИНИЙ С КРАСНОЙ ОТДЕЛКОЙ МАТЕРИАЛЫ: «ФЛЭЙМШИЛД» (100% ХЛОПОК) ПЛ.400 Г/М2, ПЕРЕПЛЕТЕНИЕ «САТИН», ОГНЕСТОЙКАЯ ТЕХНОЛОГИЯ PROBAN (CARRINGTON, ВЕЛИКОБРИТАНИЯ) УХОД: СТИРКА ПРИ ТЕМПЕРАТУРЕ ДО 75°С ТУ 8572-001-72179571-2001 *ИЗДЕЛИЕ НЕ РЕКОМЕНДУЕТСЯ ЭКСПЛУАТИРОВАТЬ ПРИ ПРОВЕДЕНИЕ ПОТОЛОЧНОЙ СВАРКИ";s:6:"parent";s:2:"76";s:4:"durl";s:46:"rasprodazha/odezhda/kurtka-faervol-svarshchika";s:4:"dtxt";s:1723:"Куртка сварщика Фаервол 3 класс защиты – усиленная модель для защиты от искр, брызг расплавленного металла, контакта с нагретыми поверхностями – для использования в качестве основного средства защиты при интенсивных газосварочных работах – накладки в передней части и в рукавах куртки – прошит огнезащитными нитками – материал куртки при длительном воздействии пламени не горит и не плавится, а карбонизируется, что исключает вто- ричные ожоги – запатентованная технология PROBAN гарантирует сохранение огнезащитных свойств ткани более 200 промышленных стирок и сушке при температуре до 75°С – cрок эксплуатации по назначению: не менее 12 месяцев Цвет: темно-синий с красной отделкой Материалы: «Флэймшилд» &#40;100&#37; хлопок&#41; пл.400 г/м2, переплетение «Сатин», огнестойкая технология PROBAN &#40;Carrington, Великобритания&#41; Уход: стирка при температуре до 75°С ТУ 8572-001-72179571-2001 *изделие не рекомендуется эксплуатировать при проведение потолочной сварки";s:4:"dpic";s:28:"/upload/iblock/152/10643.jpg";s:11:"preview_pic";s:28:"/upload/iblock/ac3/10643.jpg";s:4:"bxid";s:6:"200799";s:5:"alias";s:0:"";s:7:"section";s:5:"11733";}i:73;a:14:{s:2:"id";s:4:"1772";s:3:"act";s:1:"N";s:9:"prod_type";s:0:"";s:4:"name";s:49:"Куртка пекаря на пуговицах";s:3:"art";s:9:"Кур018";s:6:"search";s:424:"КУРТКА ПЕКАРЯ НА ПУГОВИЦАХ

КУРТКА: • ЦЕНТРАЛЬНАЯ ЗАСТЁЖКА НА ПЕТЛИ И ПУГОВИЦЫ • НАКЛАДНЫЕ КАРМАНЫ • ДЛИННЫЙ РУКАВ ОТЛОЖНОЙ ВОРОТНИК .ЦВЕТ: БЕЛЫЙ ТКАНЬ: БЯЗЬ (100% ХЛОПОК) ПЛ.120–125 Г/М2 РАЗМЕРЫ: С 44–48 ПО 60–62 РОСТ:170–176, 182 – 188 ГОСТ 9897-88 .";s:6:"parent";s:2:"76";s:4:"durl";s:49:"rasprodazha/odezhda/kurtka-pekarya-na-pugovitsakh";s:4:"dtxt";s:383:"Куртка: • центральная застёжка на петли и пуговицы • накладные карманы • длинный рукав отложной воротник .Цвет: белый Ткань: бязь &#40;100&#37; хлопок&#41; пл.120–125 г/м2 Размеры: с 44–48 по 60–62 Рост:170–176, 182 – 188 ГОСТ 9897-88 .";s:4:"dpic";s:28:"/upload/iblock/ae1/10920.jpg";s:11:"preview_pic";s:28:"/upload/iblock/52c/10920.jpg";s:4:"bxid";s:6:"200804";s:5:"alias";s:0:"";s:7:"section";s:5:"11733";}i:74;a:14:{s:2:"id";s:4:"1773";s:3:"act";s:1:"N";s:9:"prod_type";s:0:"";s:4:"name";s:39:"Плащ прорезиненный М1";s:3:"art";s:9:"Пла005";s:6:"search";s:462:"ПЛАЩ ПРОРЕЗИНЕННЫЙ М1

ПЛАЩ ПРЯМОГО СИЛУЭТА С ЦЕНТРАЛЬНОЙ ЗАСТЕЖКОЙ НА ПУГОВИЦЫ, ОТЛОЖНЫМ ВОРОТНИКОМ, ОТСТЕГИВАЮЩИМСЯ КАПЮШОНОМ, ДВУМЯ НАКЛАДНЫМИ КАРМАНАМИ, ВЕНТИЛЯЦИОННЫЕ ОТВЕРСТИЯ НА СПИНЕ ТКАНЬ: ДИАГОНАЛЬ ПРОРЕЗИНЕННАЯ, ОСНОВА 100 % Х/Б ЦВЕТ: СИНИЙ .";s:6:"parent";s:2:"76";s:4:"durl";s:44:"rasprodazha/odezhda/plashch-prorezinennyy-m1";s:4:"dtxt";s:423:"Плащ прямого силуэта с центральной застежкой на пуговицы, отложным воротником, отстегивающимся капюшоном, двумя накладными карманами, вентиляционные отверстия на спине Ткань: диагональ прорезиненная, основа 100 &#37; х/б Цвет: синий .";s:4:"dpic";s:28:"/upload/iblock/f8f/11194.jpg";s:11:"preview_pic";s:28:"/upload/iblock/1a7/11194.jpg";s:4:"bxid";s:6:"201152";s:5:"alias";s:0:"";s:7:"section";s:5:"11733";}i:75;a:14:{s:2:"id";s:4:"1774";s:3:"act";s:1:"N";s:9:"prod_type";s:0:"";s:4:"name";s:96:"Техническая салфетка 40 на 40 отбеленная оверлож (уп.10)";s:3:"art";s:15:"ТехСалф3";s:6:"search";s:943:"ТЕХНИЧЕСКАЯ САЛФЕТКА 40 НА 40 ОТБЕЛЕННАЯ ОВЕРЛОЖ (УП.10)

ТЕХНИЧЕСКАЯ БЕСШОВНАЯ САЛФЕТКА ИЗГОТАВЛИВАЕТСЯ ИЗ ОТБЕЛЕННОЙ БЯЗИ, ИМЕЕТ ПРАВИЛЬНУЮ ФОРМУ И РАЗМЕР 40Х40 СМ. ТЕХНИЧЕСКИЕ БЕСШОВНЫЕ САЛФЕТКИ ПРОИЗВОДЯТСЯ ИЗ ЦЕЛЬНОГО КУСКА ТКАНИ, НЕ ИМЕЮТ ШВОВ. ИСПОЛЬЗУЕТСЯ МАТЕРИАЛ С САМЫМИ РАЗНЫМИ ЦЕЛЯМИ: ДЛЯ ОБТИРКИ ПОВЕРХНОСТЕЙ ОБОРУДОВАНИЯ, В ТОМ ЧИСЛЕ И БОЛЬШОЙ ПЛОЩАДИ, ОЧИСТКИ СТЕКЛЯННЫХ ПОВЕРХНОСТЕЙ, ФАСАДОВ МЕБЕЛИ, УБОРКИ ПОМЕЩЕНИЙ, В РАБОТЕ С ЧУВСТВИТЕЛЬНЫМ ОБОРУДОВАНИЕМ. САЛФЕТКИ ПОСТАВЛЯЮТСЯ В МЕШКАХ ПО 1000 ШТ. .";s:6:"parent";s:2:"76";s:4:"durl";s:79:"rasprodazha/odezhda/tekhnicheskaya-salfetka-40-na-40-otbelennaya-overlozh-up-10";s:4:"dtxt";s:843:"Техническая бесшовная салфетка изготавливается из отбеленной бязи, имеет правильную форму и размер 40Х40 см. Технические бесшовные салфетки производятся из цельного куска ткани, не имеют швов. Используется материал с самыми разными целями: для обтирки поверхностей оборудования, в том числе и большой площади, очистки стеклянных поверхностей, фасадов мебели, уборки помещений, в работе с чувствительным оборудованием. Салфетки поставляются в мешках по 1000 шт. .";s:4:"dpic";s:27:"/upload/iblock/a6e/5181.jpg";s:11:"preview_pic";s:27:"/upload/iblock/0eb/5181.jpg";s:4:"bxid";s:6:"201585";s:5:"alias";s:0:"";s:7:"section";s:5:"11733";}i:76;a:14:{s:2:"id";s:4:"1775";s:3:"act";s:1:"N";s:9:"prod_type";s:0:"";s:4:"name";s:68:"Фартук с грудкой тк.полулен цв.клетка";s:3:"art";s:9:"Фар003";s:6:"search";s:344:"ФАРТУК С ГРУДКОЙ ТК.ПОЛУЛЕН ЦВ.КЛЕТКА

.ФАРТУК ПОВАРА С ГРУДКОЙ РЕКОМЕНДУЕТСЯ ДЛЯ РАБОТНИКОВ ПИЩЕВОЙ ПРОМЫШЛЕННОСТИ, СФЕРЫ УСЛУГ. ТКАНЬ: БЯЗЬ(100% ХЛОПОК) ПЛ.115-120 Г/М2 ЗАЩИТНЫЕ СВОЙСТВА: МИ З .";s:6:"parent";s:2:"76";s:4:"durl";s:58:"rasprodazha/odezhda/fartuk-s-grudkoy-tk-polulen-tsv-kletka";s:4:"dtxt";s:284:".Фартук повара с грудкой Рекомендуется для работников пищевой промышленности, сферы услуг. Ткань: бязь&#40;100&#37; хлопок&#41; пл.115-120 г/м2 Защитные свойства: Ми З .";s:4:"dpic";s:27:"/upload/iblock/4d6/9967.jpg";s:11:"preview_pic";s:27:"/upload/iblock/4a5/9967.jpg";s:4:"bxid";s:6:"201653";s:5:"alias";s:0:"";s:7:"section";s:5:"11733";}i:77;a:14:{s:2:"id";s:4:"1776";s:3:"act";s:1:"N";s:9:"prod_type";s:0:"";s:4:"name";s:107:"Фартук-сарафан Солнышко цв.василек тк.Габардин (молния) р.48";s:3:"art";s:9:"Фар115";s:6:"search";s:111:"ФАРТУК-САРАФАН СОЛНЫШКО ЦВ.ВАСИЛЕК ТК.ГАБАРДИН (МОЛНИЯ) Р.48

";s:6:"parent";s:2:"76";s:4:"durl";s:81:"rasprodazha/odezhda/fartuk-sarafan-solnyshko-tsv-vasilek-tk-gabardin-molniya-r-48";s:4:"dtxt";s:0:"";s:4:"dpic";s:28:"/upload/iblock/031/16247.jpg";s:11:"preview_pic";s:28:"/upload/iblock/dcc/16247.jpg";s:4:"bxid";s:6:"201676";s:5:"alias";s:0:"";s:7:"section";s:5:"11733";}i:78;a:14:{s:2:"id";s:4:"1777";s:3:"act";s:1:"N";s:9:"prod_type";s:0:"";s:4:"name";s:55:"Халат Анна ТИСИ  (цвет василек)";s:3:"art";s:9:"Хал877";s:6:"search";s:287:"ХАЛАТ АННА ТИСИ  (ЦВЕТ ВАСИЛЕК)

.ТКАНЬ: СМЕСОВАЯ «ТИСИ» (65% ПОЛИЭФИР, 35% ХЛОПОК), ПЛОТНОСТЬ 120 Г/М? ЦВЕТ: ВАСИЛЬКОВЫЙ ЗАЩИТНЫЕ СВОЙСТВА: З, МИ СТАНДАРТ ГОСТ 25194-82 .";s:6:"parent";s:2:"76";s:4:"durl";s:50:"rasprodazha/odezhda/khalat-anna-tisi-tsvet-vasilek";s:4:"dtxt";s:244:".Ткань: смесовая «Тиси» &#40;65&#37; полиэфир, 35&#37; хлопок&#41;, плотность 120 г/м? Цвет: васильковый Защитные свойства: З, Ми Стандарт ГОСТ 25194-82 .";s:4:"dpic";s:27:"/upload/iblock/a50/5762.jpg";s:11:"preview_pic";s:27:"/upload/iblock/a5c/5762.jpg";s:4:"bxid";s:6:"201702";s:5:"alias";s:0:"";s:7:"section";s:5:"11733";}i:79;a:14:{s:2:"id";s:4:"1778";s:3:"act";s:1:"N";s:9:"prod_type";s:0:"";s:4:"name";s:76:"Халат Мимоза тк.габардин цв.серый/розовый";s:3:"art";s:9:"Хал307";s:6:"search";s:309:"ХАЛАТ МИМОЗА ТК.ГАБАРДИН ЦВ.СЕРЫЙ/РОЗОВЫЙ

. ХАЛАТ МИМОЗА ПРЯМОГО СИЛУЭТА С ЗАСТЕЖКОЙ НА ТЕСЬМУ-МОЛНИЮ И ФИГУРНОЙ КОКЕТКОЙ. РУКАВА КОРОТКИЕ. ТКАНЬ:ГАБАРДИН РАЗМЕРЫ: 44-56 .";s:6:"parent";s:2:"76";s:4:"durl";s:63:"rasprodazha/odezhda/khalat-mimoza-tk-gabardin-tsv-seryy-rozovyy";s:4:"dtxt";s:229:". Халат Мимоза Прямого силуэта с застежкой на тесьму-молнию и фигурной кокеткой. Рукава короткие. Ткань:Габардин Размеры: 44-56 .";s:4:"dpic";s:28:"/upload/iblock/d23/12290.jpg";s:11:"preview_pic";s:28:"/upload/iblock/281/12290.jpg";s:4:"bxid";s:6:"201718";s:5:"alias";s:0:"";s:7:"section";s:5:"11733";}i:80;a:14:{s:2:"id";s:4:"1779";s:3:"act";s:1:"N";s:9:"prod_type";s:0:"";s:4:"name";s:51:"Халат Роман цв.белый тк.Тиси";s:3:"art";s:9:"Хал551";s:6:"search";s:996:"ХАЛАТ РОМАН ЦВ.БЕЛЫЙ ТК.ТИСИ

. В МЕДИЦИНСКОЙ ОДЕЖДЕ ДЛЯ МУЖЧИН ВСЁ ДОЛЖНО БЫТЬ СТРОГО И ПРАКТИЧНО, А ПОТОМУ БУДУТ КРАЙНЕ НЕЕСТЕСТВЕННО СМОТРЕТЬСЯ ВСЕВОЗМОЖНЫЕ СКЛАДКИ, ПРИПУСКИ И ДАЖЕ ОТЛОЖНОЙ ВОРОТНИК. ЭТО ДЕТАЛИ ЖЕНСКИХ МЕДИЦИНСКИХ ХАЛАТОВ. СТРОГИЕ ВОРОТНИЧКИ-СТОЙКИ, УДОБНЫЕ РУКАВА ,КАРМАНЫ – ВОТ ИДЕАЛЬНЫЙ ВАРИАНТ МУЖСКОГО МЕДИЦИНСКОГО ХАЛАТА, В КОТОРОМ МЕДИЦИНСКОМУ РАБОТНИКУ ВСЕГДА БУДЕТ КОМФОРТНО. ЗНАЯ ОПИСАННЫЕ ОСОБЕННОСТИ ЭТОЙ ПРОДУКЦИИ, КУПИТЬ КАЧЕСТВЕННЫЙ И УДОБНЫЙ МЕДИЦИНСКИЙ МУЖСКОЙ ХАЛАТ СТАНЕТ ЛЕГКО ВЫПОЛНИМОЙ ЗАДАЧЕЙ! .";s:6:"parent";s:2:"76";s:4:"durl";s:50:"rasprodazha/odezhda/khalat-roman-tsv-belyy-tk-tisi";s:4:"dtxt";s:941:". В медицинской одежде для мужчин всё должно быть строго и практично, а потому будут крайне неестественно смотреться всевозможные складки, припуски и даже отложной воротник. Это детали женских медицинских халатов. Строгие воротнички-стойки, удобные рукава ,карманы – вот идеальный вариант мужского медицинского халата, в котором медицинскому работнику всегда будет комфортно. Зная описанные особенности этой продукции, купить качественный и удобный медицинский мужской халат станет легко выполнимой задачей! .";s:4:"dpic";s:28:"/upload/iblock/99a/13780.jpg";s:11:"preview_pic";s:28:"/upload/iblock/74e/13780.jpg";s:4:"bxid";s:6:"201726";s:5:"alias";s:0:"";s:7:"section";s:5:"11733";}i:81;a:14:{s:2:"id";s:4:"1780";s:3:"act";s:1:"N";s:9:"prod_type";s:0:"";s:4:"name";s:64:"Халат Роман цв.василек тк.Тиси р.56-58";s:3:"art";s:9:"Хал552";s:6:"search";s:223:"ХАЛАТ РОМАН ЦВ.ВАСИЛЕК ТК.ТИСИ Р.56-58

.ХАЛАТ КЛАССИЧЕСКИЙ ТКАНЬ СМЕСОВАЯ. ПЛОТНОСТЬ 120-200 ГР В ЗАВИСИМОСТИ ОТ ВЫБОРА ТКАНИ. .";s:6:"parent";s:2:"76";s:4:"durl";s:60:"rasprodazha/odezhda/khalat-roman-tsv-vasilek-tk-tisi-r-56-58";s:4:"dtxt";s:155:".Халат классический Ткань смесовая. Плотность 120-200 гр в зависимости от выбора ткани. .";s:4:"dpic";s:28:"/upload/iblock/9fe/13786.jpg";s:11:"preview_pic";s:28:"/upload/iblock/8da/13786.jpg";s:4:"bxid";s:6:"201727";s:5:"alias";s:0:"";s:7:"section";s:5:"11733";}i:82;a:14:{s:2:"id";s:4:"1781";s:3:"act";s:1:"N";s:9:"prod_type";s:0:"";s:4:"name";s:63:"Халат Таня №28  тк.Тиси цв.голуб/син";s:3:"art";s:9:"Хал028";s:6:"search";s:684:"ХАЛАТ ТАНЯ №28  ТК.ТИСИ ЦВ.ГОЛУБ/СИН

.ХАЛАТ МЕДИЦИНСКИЙ ЖЕНСКИЙ ТАНЯ ПРИТАЛЕННЫЙ, НА КНОПКАХ. РУКАВА 3/4, РЕГУЛИРУЮТСЯ ТРАНСФОРМЕРОМ НА КНОПКЕ. ПОГОНЧИКИ НА ПЛЕЧАХ И ПАТЫ НА КАРМАНАХ - НА КНОПКАХ. ВОРОТНИК, ПАТЫ, ТРАНСФОРМЕРЫ И ПОГОНЫ ВЫПОЛНЕНЫ ИЗ ОТДЕЛОЧНОЙ ТКАНИ. ЦВЕТ: ГОЛУБОЙ С СИНИМ ТКАНЬ: СМЕСОВАЯ ТИСИ (65% ПОЛИЭФИР, 35% ХЛОПОК), ПЛОТНОСТЬ 120 Г/КВ. М РАЗМЕРЫ С 40 ПО 62 + ВЕЛИКАНЫ. .";s:6:"parent";s:2:"76";s:4:"durl";s:57:"rasprodazha/odezhda/khalat-tanya-28-tk-tisi-tsv-golub-sin";s:4:"dtxt";s:637:".Халат медицинский женский Таня Приталенный, на кнопках. Рукава 3/4, регулируются трансформером на кнопке. Погончики на плечах и паты на карманах - на кнопках. Воротник, паты, трансформеры и погоны выполнены из отделочной ткани. Цвет: голубой с синим Ткань: смесовая Тиси &#40;65&#37; полиэфир, 35&#37; хлопок&#41;, плотность 120 г/кв. м Размеры с 40 по 62 &#43; великаны. .";s:4:"dpic";s:28:"/upload/iblock/661/13189.jpg";s:11:"preview_pic";s:28:"/upload/iblock/780/13189.jpg";s:4:"bxid";s:6:"201737";s:5:"alias";s:0:"";s:7:"section";s:5:"11733";}i:83;a:14:{s:2:"id";s:4:"1782";s:3:"act";s:1:"N";s:9:"prod_type";s:0:"";s:4:"name";s:73:"Халат Экстра (№12) тк.Габардин цв.красный";s:3:"art";s:9:"Хал124";s:6:"search";s:677:"ХАЛАТ ЭКСТРА (№12) ТК.ГАБАРДИН ЦВ.КРАСНЫЙ

.ХАЛАТ ЭКСТРА ПРЯМОГО СИЛУЭТА С ЗАСТЕЖКОЙ НА ТЕСЬМУ-МОЛНИЮ И ФИГУРНОЙ КОКЕТКОЙ. РУКАВА КОРОТКИЕ. ДВА НАКЛАДНЫХ КАРМАНА. ПО ВОРОТУ, КАРМАНАМ, КОКЕТКЕ, РУКАВАМ И ПОЛОЧКАМ ОТДЕЛКА КАНТОМ. ПО ЛИНИИ ТАЛИИ РЕГУЛИРУЕТСЯ ХЛЯСТИКОМ. В БОКОВЫХ ШВАХ СДЕЛАНЫ РАЗРЕЗЫ. ЦВЕТ: КРАСНЫЙ ТКАНЬ: ГАБАРДИН (100% ПОЛИЭФИР) РАЗМЕР: УТОЧНЯЙТЕ У МЕНЕДЖЕРА .";s:6:"parent";s:2:"76";s:4:"durl";s:60:"rasprodazha/odezhda/khalat-ekstra-12-tk-gabardin-tsv-krasnyy";s:4:"dtxt";s:612:".Халат Экстра Прямого силуэта с застежкой на тесьму-молнию и фигурной кокеткой. Рукава короткие. Два накладных кармана. По вороту, карманам, кокетке, рукавам и полочкам отделка кантом. По линии талии регулируется хлястиком. В боковых швах сделаны разрезы. Цвет: красный Ткань: Габардин &#40;100&#37; полиэфир&#41; Размер: уточняйте у менеджера .";s:4:"dpic";s:28:"/upload/iblock/276/10015.jpg";s:11:"preview_pic";s:28:"/upload/iblock/5ff/10015.jpg";s:4:"bxid";s:6:"201744";s:5:"alias";s:0:"";s:7:"section";s:5:"11733";}i:84;a:14:{s:2:"id";s:4:"1783";s:3:"act";s:1:"N";s:9:"prod_type";s:0:"";s:4:"name";s:49:"Халат Юлия цв.белый тк.Тиси";s:3:"art";s:9:"Хал549";s:6:"search";s:555:"ХАЛАТ ЮЛИЯ ЦВ.БЕЛЫЙ ТК.ТИСИ

ХАЛАТ С ЦЕНТРАЛЬНОЙ ЗАСТЕЖКОЙ НА КНОПКАХ, V-ОБРАЗНЫЙ ВЫРЕЗ ГОРЛОВИНЫ, ВТАЧНОЙ ПРАВЫЙ КАРМАН. РУКАВ ДЛИННЫЙ С МАНЖЕТОМ НА КНОПКЕ. ШИРИНА ТАЛИИ РЕГУЛИРУЕТСЯ ХЛЯСТИКОМ ЦВЕТ: БЕЛЫЙ ТКАНЬ: СМЕСОВАЯ «ТИСИ» (65% ПОЛИЭФИР, 35% ХЛОПОК) ПЛ.120 Г/М2 РАЗМЕР: С 40-42 ПО 60-62 РОСТ: 158-164, 170-176 ГОСТ 24760-81 .";s:6:"parent";s:2:"76";s:4:"durl";s:51:"rasprodazha/odezhda/khalat-yuliya-tsv-belyy-tk-tisi";s:4:"dtxt";s:518:"Халат с центральной застежкой на кнопках, V-образный вырез горловины, втачной правый карман. Рукав длинный с манжетом на кнопке. Ширина талии регулируется хлястиком Цвет: белый Ткань: смесовая «Тиси» &#40;65&#37; полиэфир, 35&#37; хлопок&#41; пл.120 г/м2 Размер: с 40-42 по 60-62 Рост: 158-164, 170-176 ГОСТ 24760-81 .";s:4:"dpic";s:28:"/upload/iblock/6da/13769.jpg";s:11:"preview_pic";s:28:"/upload/iblock/aaa/13769.jpg";s:4:"bxid";s:6:"201745";s:5:"alias";s:0:"";s:7:"section";s:5:"11733";}i:85;a:14:{s:2:"id";s:4:"1784";s:3:"act";s:1:"N";s:9:"prod_type";s:0:"";s:4:"name";s:53:"Халат Юлия цв.василек тк.Тиси";s:3:"art";s:9:"Хал550";s:6:"search";s:559:"ХАЛАТ ЮЛИЯ ЦВ.ВАСИЛЕК ТК.ТИСИ

ХАЛАТ С ЦЕНТРАЛЬНОЙ ЗАСТЕЖКОЙ НА КНОПКАХ, V-ОБРАЗНЫЙ ВЫРЕЗ ГОРЛОВИНЫ, ВТАЧНОЙ ПРАВЫЙ КАРМАН. РУКАВ ДЛИННЫЙ С МАНЖЕТОМ НА КНОПКЕ. ШИРИНА ТАЛИИ РЕГУЛИРУЕТСЯ ХЛЯСТИКОМ ЦВЕТ: БЕЛЫЙ ТКАНЬ: СМЕСОВАЯ «ТИСИ» (65% ПОЛИЭФИР, 35% ХЛОПОК) ПЛ.120 Г/М2 РАЗМЕР: С 40-42 ПО 60-62 РОСТ: 158-164, 170-176 ГОСТ 24760-81 .";s:6:"parent";s:2:"76";s:4:"durl";s:53:"rasprodazha/odezhda/khalat-yuliya-tsv-vasilek-tk-tisi";s:4:"dtxt";s:518:"Халат с центральной застежкой на кнопках, V-образный вырез горловины, втачной правый карман. Рукав длинный с манжетом на кнопке. Ширина талии регулируется хлястиком Цвет: белый Ткань: смесовая «Тиси» &#40;65&#37; полиэфир, 35&#37; хлопок&#41; пл.120 г/м2 Размер: с 40-42 по 60-62 Рост: 158-164, 170-176 ГОСТ 24760-81 .";s:4:"dpic";s:28:"/upload/iblock/626/13774.jpg";s:11:"preview_pic";s:28:"/upload/iblock/452/13774.jpg";s:4:"bxid";s:6:"201746";s:5:"alias";s:0:"";s:7:"section";s:5:"11733";}i:86;a:14:{s:2:"id";s:4:"1785";s:3:"act";s:1:"N";s:9:"prod_type";s:0:"";s:4:"name";s:68:"Халат №13 медицинский женский тк.Тиси";s:3:"art";s:9:"Хал022";s:6:"search";s:193:"ХАЛАТ №13 МЕДИЦИНСКИЙ ЖЕНСКИЙ ТК.ТИСИ

.ХАЛАТ МЕДИЦИНСКИЙ ЖЕНСКИЙ ТК.ТИСИ ЦВЕТ: БЕЛЫЙ С ЗЕЛЕНОЙ ОТДЕЛКОЙ .";s:6:"parent";s:2:"76";s:4:"durl";s:59:"rasprodazha/odezhda/khalat-13-meditsinskiy-zhenskiy-tk-tisi";s:4:"dtxt";s:121:".Халат медицинский женский тк.Тиси цвет: белый с зеленой отделкой .";s:4:"dpic";s:27:"/upload/iblock/146/9875.jpg";s:11:"preview_pic";s:27:"/upload/iblock/9d8/9875.jpg";s:4:"bxid";s:6:"201749";s:5:"alias";s:0:"";s:7:"section";s:5:"11733";}i:87;a:14:{s:2:"id";s:4:"1786";s:3:"act";s:1:"Y";s:9:"prod_type";s:0:"";s:4:"name";s:25:"Шорты Березка";s:3:"art";s:9:"Шор100";s:6:"search";s:58:"ШОРТЫ БЕРЕЗКА

ШОРТЫ БЕРЕЗКА . .";s:6:"parent";s:2:"76";s:4:"durl";s:34:"rasprodazha/odezhda/shorty-berezka";s:4:"dtxt";s:29:"Шорты Березка . .";s:4:"dpic";s:28:"/upload/iblock/9e6/10488.jpg";s:11:"preview_pic";s:28:"/upload/iblock/bac/10488.jpg";s:4:"bxid";s:6:"201824";s:5:"alias";s:0:"";s:7:"section";s:5:"11733";}i:88;a:14:{s:2:"id";s:4:"1787";s:3:"act";s:1:"N";s:9:"prod_type";s:0:"";s:4:"name";s:59:"Шорты Саванна (тк.Рип-стоп) цифра";s:3:"art";s:9:"Шор101";s:6:"search";s:125:"ШОРТЫ САВАННА (ТК.РИП-СТОП) ЦИФРА

ШОРТЫ САВАННА (ТК.РИП-СТОП) ЦИФРА. .";s:6:"parent";s:2:"76";s:4:"durl";s:53:"rasprodazha/odezhda/shorty-savanna-tk-rip-stop-tsifra";s:4:"dtxt";s:70:"Шорты Саванна &#40;тк.Рип-стоп&#41; цифра. .";s:4:"dpic";s:27:"/upload/iblock/15d/7620.jpg";s:11:"preview_pic";s:27:"/upload/iblock/466/7620.jpg";s:4:"bxid";s:6:"201825";s:5:"alias";s:0:"";s:7:"section";s:5:"11733";}i:89;a:14:{s:2:"id";s:4:"1788";s:3:"act";s:1:"N";s:9:"prod_type";s:0:"";s:4:"name";s:95:"Костюм Дорожник (к+пк) 3 кл.защ тк.Грета+Балтекс-блеск";s:3:"art";s:9:"Кос255";s:6:"search";s:99:"КОСТЮМ ДОРОЖНИК (К+ПК) 3 КЛ.ЗАЩ ТК.ГРЕТА+БАЛТЕКС-БЛЕСК

";s:6:"parent";s:2:"76";s:4:"durl";s:77:"rasprodazha/odezhda/kostyum-dorozhnik-k-pk-3-kl-zashch-tk-greta-balteks-blesk";s:4:"dtxt";s:0:"";s:4:"dpic";N;s:11:"preview_pic";N;s:4:"bxid";s:6:"201973";s:5:"alias";s:0:"";s:7:"section";s:5:"11733";}i:90;a:14:{s:2:"id";s:4:"1789";s:3:"act";s:1:"N";s:9:"prod_type";s:0:"";s:4:"name";s:49:"Костюм Мастер (к+бр) син-вас";s:3:"art";s:9:"Кос212";s:6:"search";s:53:"КОСТЮМ МАСТЕР (К+БР) СИН-ВАС

";s:6:"parent";s:2:"76";s:4:"durl";s:47:"rasprodazha/odezhda/kostyum-master-k-br-sin-vas";s:4:"dtxt";s:0:"";s:4:"dpic";N;s:11:"preview_pic";N;s:4:"bxid";s:6:"201974";s:5:"alias";s:0:"";s:7:"section";s:5:"11733";}i:91;a:14:{s:2:"id";s:4:"1790";s:3:"act";s:1:"N";s:9:"prod_type";s:0:"";s:4:"name";s:76:"Костюм Наби (к+бр) жен. цв.т.синий/серый СОП";s:3:"art";s:9:"Кос565";s:6:"search";s:80:"КОСТЮМ НАБИ (К+БР) ЖЕН. ЦВ.Т.СИНИЙ/СЕРЫЙ СОП

";s:6:"parent";s:2:"76";s:4:"durl";s:64:"rasprodazha/odezhda/kostyum-nabi-k-br-zhen-tsv-t-siniy-seryy-sop";s:4:"dtxt";s:0:"";s:4:"dpic";N;s:11:"preview_pic";N;s:4:"bxid";s:6:"201975";s:5:"alias";s:0:"";s:7:"section";s:5:"11733";}i:92;a:14:{s:2:"id";s:4:"1791";s:3:"act";s:1:"N";s:9:"prod_type";s:0:"";s:4:"name";s:56:"Костюм Охранника василек (к+бр)";s:3:"art";s:9:"Кос497";s:6:"search";s:60:"КОСТЮМ ОХРАННИКА ВАСИЛЕК (К+БР)

";s:6:"parent";s:2:"76";s:4:"durl";s:51:"rasprodazha/odezhda/kostyum-okhrannika-vasilek-k-br";s:4:"dtxt";s:0:"";s:4:"dpic";N;s:11:"preview_pic";N;s:4:"bxid";s:6:"201976";s:5:"alias";s:0:"";s:7:"section";s:5:"11733";}i:93;a:14:{s:2:"id";s:4:"1792";s:3:"act";s:1:"N";s:9:"prod_type";s:0:"";s:4:"name";s:37:"Костюм Профессионал";s:3:"art";s:9:"Кос264";s:6:"search";s:41:"КОСТЮМ ПРОФЕССИОНАЛ

";s:6:"parent";s:2:"76";s:4:"durl";s:40:"rasprodazha/odezhda/kostyum-professional";s:4:"dtxt";s:0:"";s:4:"dpic";s:27:"/upload/iblock/324/2905.jpg";s:11:"preview_pic";s:27:"/upload/iblock/514/2905.jpg";s:4:"bxid";s:6:"201977";s:5:"alias";s:0:"";s:7:"section";s:5:"11733";}i:94;a:14:{s:2:"id";s:4:"1793";s:3:"act";s:1:"N";s:9:"prod_type";s:0:"";s:4:"name";s:84:"Костюм Сигнальный т.син/оранж с СОП тк.балтекс";s:3:"art";s:9:"Кос238";s:6:"search";s:88:"КОСТЮМ СИГНАЛЬНЫЙ Т.СИН/ОРАНЖ С СОП ТК.БАЛТЕКС

";s:6:"parent";s:2:"76";s:4:"durl";s:67:"rasprodazha/odezhda/kostyum-signalnyy-t-sin-oranzh-s-sop-tk-balteks";s:4:"dtxt";s:0:"";s:4:"dpic";s:28:"/upload/iblock/c5b/12275.jpg";s:11:"preview_pic";s:28:"/upload/iblock/649/12275.jpg";s:4:"bxid";s:6:"201978";s:5:"alias";s:0:"";s:7:"section";s:5:"11733";}i:95;a:14:{s:2:"id";s:4:"1794";s:3:"act";s:1:"N";s:9:"prod_type";s:0:"";s:4:"name";s:74:"Костюм поварской модель 124(корич) 44-46/158-164";s:3:"art";s:9:"Кос124";s:6:"search";s:78:"КОСТЮМ ПОВАРСКОЙ МОДЕЛЬ 124(КОРИЧ) 44-46/158-164

";s:6:"parent";s:2:"76";s:4:"durl";s:68:"rasprodazha/odezhda/kostyum-povarskoy-model-124-korich-44-46-158-164";s:4:"dtxt";s:0:"";s:4:"dpic";N;s:11:"preview_pic";N;s:4:"bxid";s:6:"201979";s:5:"alias";s:0:"";s:7:"section";s:5:"11733";}i:96;a:14:{s:2:"id";s:4:"1795";s:3:"act";s:1:"N";s:9:"prod_type";s:0:"";s:4:"name";s:65:"Костюм против без сетки (тк.палатка)";s:3:"art";s:9:"Кос232";s:6:"search";s:69:"КОСТЮМ ПРОТИВ БЕЗ СЕТКИ (ТК.ПАЛАТКА)

";s:6:"parent";s:2:"76";s:4:"durl";s:55:"rasprodazha/odezhda/kostyum-protiv-bez-setki-tk-palatka";s:4:"dtxt";s:0:"";s:4:"dpic";s:27:"/upload/iblock/e0f/3086.jpg";s:11:"preview_pic";s:27:"/upload/iblock/432/3086.jpg";s:4:"bxid";s:6:"201980";s:5:"alias";s:0:"";s:7:"section";s:5:"11733";}i:97;a:14:{s:2:"id";s:4:"1796";s:3:"act";s:1:"N";s:9:"prod_type";s:0:"";s:4:"name";s:62:"Костюм сварщика со спилком Эконом";s:3:"art";s:9:"Кос222";s:6:"search";s:66:"КОСТЮМ СВАРЩИКА СО СПИЛКОМ ЭКОНОМ

";s:6:"parent";s:2:"76";s:4:"durl";s:57:"rasprodazha/odezhda/kostyum-svarshchika-so-spilkom-ekonom";s:4:"dtxt";s:0:"";s:4:"dpic";N;s:11:"preview_pic";N;s:4:"bxid";s:6:"201981";s:5:"alias";s:0:"";s:7:"section";s:5:"11733";}i:98;a:14:{s:2:"id";s:4:"1797";s:3:"act";s:1:"N";s:9:"prod_type";s:0:"";s:4:"name";s:75:"Куртка Наби цв.т.синий/серый СОП (логотип)";s:3:"art";s:9:"Кур564";s:6:"search";s:79:"КУРТКА НАБИ ЦВ.Т.СИНИЙ/СЕРЫЙ СОП (ЛОГОТИП)

";s:6:"parent";s:2:"76";s:4:"durl";s:61:"rasprodazha/odezhda/kurtka-nabi-tsv-t-siniy-seryy-sop-logotip";s:4:"dtxt";s:0:"";s:4:"dpic";N;s:11:"preview_pic";N;s:4:"bxid";s:6:"201982";s:5:"alias";s:0:"";s:7:"section";s:5:"11733";}i:99;a:14:{s:2:"id";s:4:"1798";s:3:"act";s:1:"N";s:9:"prod_type";s:0:"";s:4:"name";s:28:"Халат Анна ТИСИ";s:3:"art";s:9:"Хал876";s:6:"search";s:32:"ХАЛАТ АННА ТИСИ

";s:6:"parent";s:2:"76";s:4:"durl";s:36:"rasprodazha/odezhda/khalat-anna-tisi";s:4:"dtxt";s:0:"";s:4:"dpic";N;s:11:"preview_pic";N;s:4:"bxid";s:6:"201983";s:5:"alias";s:0:"";s:7:"section";s:5:"11733";}i:100;a:14:{s:2:"id";s:4:"1799";s:3:"act";s:1:"N";s:9:"prod_type";s:0:"";s:4:"name";s:95:"Халат Рапсодия тк.габардин цв.василек длинный рукав";s:3:"art";s:9:"Хал092";s:6:"search";s:451:"ХАЛАТ РАПСОДИЯ ТК.ГАБАРДИН ЦВ.ВАСИЛЕК ДЛИННЫЙ РУКАВ

ХАЛАТ РАПСОДИЯ ПРЯМОГО СИЛУЭТА С ОТЛОЖНЫМ ВОРОТНИКОМ НА ПУГОВИЦАХ. РУКАВ ДЛИННЫЙ. ДВА НАКЛАДНЫХ КАРМАНА. ПО ВОРОТНИКУ И КАРМАНАМ ОТДЕЛКА ЦВЕТНЫМ КАНТОМ. ПО ЛИНИИ ТАЛИИ РЕГУЛИРУЕТСЯ ХЛЯСТИКОМ.";s:6:"parent";s:2:"76";s:4:"durl";s:74:"rasprodazha/odezhda/khalat-rapsodiya-tk-gabardin-tsv-vasilek-dlinnyy-rukav";s:4:"dtxt";s:352:"Халат Рапсодия прямого силуэта с отложным воротником на пуговицах. Рукав длинный. Два накладных кармана. По воротнику и карманам отделка цветным кантом. По линии талии регулируется хлястиком.";s:4:"dpic";s:27:"/upload/iblock/dc9/8339.jpg";s:11:"preview_pic";s:27:"/upload/iblock/38a/8339.jpg";s:4:"bxid";s:6:"201984";s:5:"alias";s:0:"";s:7:"section";s:5:"11733";}i:101;a:14:{s:2:"id";s:4:"1800";s:3:"act";s:1:"N";s:9:"prod_type";s:0:"";s:4:"name";s:95:"Халат Рапсодия тк.габардин цв.зеленый длинный рукав";s:3:"art";s:9:"Хал093";s:6:"search";s:99:"ХАЛАТ РАПСОДИЯ ТК.ГАБАРДИН ЦВ.ЗЕЛЕНЫЙ ДЛИННЫЙ РУКАВ

";s:6:"parent";s:2:"76";s:4:"durl";s:74:"rasprodazha/odezhda/khalat-rapsodiya-tk-gabardin-tsv-zelenyy-dlinnyy-rukav";s:4:"dtxt";s:0:"";s:4:"dpic";s:28:"/upload/iblock/ec8/10009.jpg";s:11:"preview_pic";s:28:"/upload/iblock/867/10009.jpg";s:4:"bxid";s:6:"201985";s:5:"alias";s:0:"";s:7:"section";s:5:"11733";}i:102;a:14:{s:2:"id";s:4:"1801";s:3:"act";s:1:"N";s:9:"prod_type";s:0:"";s:4:"name";s:58:"Халат № 1 тк Габардин цв.василек";s:3:"art";s:9:"Хал100";s:6:"search";s:62:"ХАЛАТ № 1 ТК ГАБАРДИН ЦВ.ВАСИЛЕК

";s:6:"parent";s:2:"76";s:4:"durl";s:52:"rasprodazha/odezhda/khalat-1-tk-gabardin-tsv-vasilek";s:4:"dtxt";s:0:"";s:4:"dpic";s:27:"/upload/iblock/7df/6572.jpg";s:11:"preview_pic";s:27:"/upload/iblock/598/6572.jpg";s:4:"bxid";s:6:"201986";s:5:"alias";s:0:"";s:7:"section";s:5:"11733";}i:103;a:14:{s:2:"id";s:4:"1802";s:3:"act";s:1:"N";s:9:"prod_type";s:0:"";s:4:"name";s:55:"Халат № 11 тк Габардин цв.бордо";s:3:"art";s:9:"Хал111";s:6:"search";s:59:"ХАЛАТ № 11 ТК ГАБАРДИН ЦВ.БОРДО

";s:6:"parent";s:2:"76";s:4:"durl";s:51:"rasprodazha/odezhda/khalat-11-tk-gabardin-tsv-bordo";s:4:"dtxt";s:0:"";s:4:"dpic";N;s:11:"preview_pic";N;s:4:"bxid";s:6:"201987";s:5:"alias";s:0:"";s:7:"section";s:5:"11733";}i:104;a:14:{s:2:"id";s:4:"1803";s:3:"act";s:1:"N";s:9:"prod_type";s:0:"";s:4:"name";s:59:"Халат № 11 тк Габардин цв.василек";s:3:"art";s:9:"Хал112";s:6:"search";s:63:"ХАЛАТ № 11 ТК ГАБАРДИН ЦВ.ВАСИЛЕК

";s:6:"parent";s:2:"76";s:4:"durl";s:53:"rasprodazha/odezhda/khalat-11-tk-gabardin-tsv-vasilek";s:4:"dtxt";s:0:"";s:4:"dpic";N;s:11:"preview_pic";N;s:4:"bxid";s:6:"201988";s:5:"alias";s:0:"";s:7:"section";s:5:"11733";}i:105;a:14:{s:2:"id";s:4:"1804";s:3:"act";s:1:"N";s:9:"prod_type";s:0:"";s:4:"name";s:61:"Халат № 9 цв.бордо ТИСИ, кор. рукав";s:3:"art";s:9:"Хал091";s:6:"search";s:65:"ХАЛАТ № 9 ЦВ.БОРДО ТИСИ, КОР. РУКАВ

";s:6:"parent";s:2:"76";s:4:"durl";s:53:"rasprodazha/odezhda/khalat-9-tsv-bordo-tisi-kor-rukav";s:4:"dtxt";s:0:"";s:4:"dpic";N;s:11:"preview_pic";N;s:4:"bxid";s:6:"201989";s:5:"alias";s:0:"";s:7:"section";s:5:"11733";}i:106;a:14:{s:2:"id";s:4:"1805";s:3:"act";s:1:"N";s:9:"prod_type";s:0:"";s:4:"name";s:54:"Халат №17 медицинский женский";s:3:"art";s:9:"Хал171";s:6:"search";s:58:"ХАЛАТ №17 МЕДИЦИНСКИЙ ЖЕНСКИЙ

";s:6:"parent";s:2:"76";s:4:"durl";s:51:"rasprodazha/odezhda/khalat-17-meditsinskiy-zhenskiy";s:4:"dtxt";s:0:"";s:4:"dpic";s:27:"/upload/iblock/0b5/9933.jpg";s:11:"preview_pic";s:27:"/upload/iblock/3be/9933.jpg";s:4:"bxid";s:6:"201990";s:5:"alias";s:0:"";s:7:"section";s:5:"11733";}i:107;a:14:{s:2:"id";s:4:"1806";s:3:"act";s:1:"N";s:9:"prod_type";s:0:"";s:4:"name";s:41:"Халат №17-4 медицинский";s:3:"art";s:9:"Хал174";s:6:"search";s:45:"ХАЛАТ №17-4 МЕДИЦИНСКИЙ

";s:6:"parent";s:2:"76";s:4:"durl";s:44:"rasprodazha/odezhda/khalat-17-4-meditsinskiy";s:4:"dtxt";s:0:"";s:4:"dpic";N;s:11:"preview_pic";N;s:4:"bxid";s:6:"201991";s:5:"alias";s:0:"";s:7:"section";s:5:"11733";}i:108;a:14:{s:2:"id";s:4:"1807";s:3:"act";s:1:"N";s:9:"prod_type";s:0:"";s:4:"name";s:48:"Халат женский модель 069 р.46";s:3:"art";s:9:"Хал069";s:6:"search";s:52:"ХАЛАТ ЖЕНСКИЙ МОДЕЛЬ 069 Р.46

";s:6:"parent";s:2:"76";s:4:"durl";s:50:"rasprodazha/odezhda/khalat-zhenskiy-model-069-r-46";s:4:"dtxt";s:0:"";s:4:"dpic";s:27:"/upload/iblock/95a/7473.jpg";s:11:"preview_pic";s:27:"/upload/iblock/7a1/7473.jpg";s:4:"bxid";s:6:"201992";s:5:"alias";s:0:"";s:7:"section";s:5:"11733";}i:109;a:14:{s:2:"id";s:4:"1808";s:3:"act";s:1:"N";s:9:"prod_type";s:0:"";s:4:"name";s:56:"Халат женский модель 105 48-50/158-164";s:3:"art";s:9:"Хал105";s:6:"search";s:305:"ХАЛАТ ЖЕНСКИЙ МОДЕЛЬ 105 48-50/158-164

ТКАНЬ: СМЕСОВАЯ «ТИСИ» (65% ПОЛИЭФИР, 35% ХЛОПОК), ПЛОТНОСТЬ 120 Г/М? РАЗМЕР С 40-42 ПО 60-62 ЦВЕТ: БЕЛЫЙ ЗАЩИТНЫЕ СВОЙСТВАЗ, МИ СТАНДАРТГОСТ 25194-82 .";s:6:"parent";s:2:"76";s:4:"durl";s:59:"rasprodazha/odezhda/khalat-zhenskiy-model-105-48-50-158-164";s:4:"dtxt";s:261:"Ткань: смесовая «Тиси» &#40;65&#37; полиэфир, 35&#37; хлопок&#41;, плотность 120 г/м? Размер с 40-42 по 60-62 Цвет: белый Защитные свойстваЗ, Ми СтандартГОСТ 25194-82 .";s:4:"dpic";s:27:"/upload/iblock/88b/7480.jpg";s:11:"preview_pic";s:27:"/upload/iblock/b5c/7480.jpg";s:4:"bxid";s:6:"201993";s:5:"alias";s:0:"";s:7:"section";s:5:"11733";}i:110;a:14:{s:2:"id";s:4:"1809";s:3:"act";s:1:"N";s:9:"prod_type";s:0:"";s:4:"name";s:40:"Халат мед. №65   48-50/158-164";s:3:"art";s:9:"Хал502";s:6:"search";s:290:"ХАЛАТ МЕД. №65   48-50/158-164

ХАЛАТ МЕДИЦИНСКИЙ ТКАНЬ: СМЕСОВАЯ «ТИСИ» (65% ПОЛИЭФИР, 35% ХЛОПОК), ПЛОТНОСТЬ 120 Г/М? ЦВЕТ: БЕЛЫЙ ЗАЩИТНЫЕ СВОЙСТВАЗ, МИ СТАНДАРТГОСТ 25194-82 .";s:6:"parent";s:2:"76";s:4:"durl";s:47:"rasprodazha/odezhda/khalat-med-65-48-50-158-164";s:4:"dtxt";s:262:"Халат медицинский Ткань: смесовая «Тиси» &#40;65&#37; полиэфир, 35&#37; хлопок&#41;, плотность 120 г/м? Цвет: белый Защитные свойстваЗ, Ми СтандартГОСТ 25194-82 .";s:4:"dpic";s:28:"/upload/iblock/781/13572.jpg";s:11:"preview_pic";s:28:"/upload/iblock/240/13572.jpg";s:4:"bxid";s:6:"201994";s:5:"alias";s:0:"";s:7:"section";s:5:"11733";}i:111;a:14:{s:2:"id";s:4:"1810";s:3:"act";s:1:"N";s:9:"prod_type";s:0:"";s:4:"name";s:46:"Куртка утеплённая чёрная";s:3:"art";s:9:"Кур001";s:6:"search";s:422:"КУРТКА УТЕПЛЁННАЯ ЧЁРНАЯ

КУРТКА УТЕПЛЕННАЯ. КУРТКА ПРЯМОГО ПОКРОЯ С ДВУМЯ БОКОВЫМИ НАКЛАДНЫМИ КАРМАНАМИ К КЛАПАНОМ; ЦЕНТРАЛЬНАЯ БОРТОВАЯ ЗАСТЕЖКА НА ПУГОВИЦАХ С ВЕТРОЗАЩИТНОЙ ПЛАНКОЙ, ОТЛОЖНОЙ ВОРОТНИК, УТЕПЛИТЕЛЬ - СИНТЕПОН. .";s:6:"parent";s:2:"76";s:4:"durl";s:49:"rasprodazha/odezhda/kurtka-uteplyennaya-chyernaya";s:4:"dtxt";s:372:"Куртка утепленная. Куртка прямого покроя с двумя боковыми накладными карманами к клапаном; центральная бортовая застежка на пуговицах с ветрозащитной планкой, отложной воротник, Утеплитель - синтепон. .";s:4:"dpic";s:27:"/upload/iblock/b9d/8792.jpg";s:11:"preview_pic";s:27:"/upload/iblock/ed1/8792.jpg";s:4:"bxid";s:6:"202027";s:5:"alias";s:0:"";s:7:"section";s:5:"11733";}i:112;a:14:{s:2:"id";s:4:"1811";s:3:"act";s:1:"N";s:9:"prod_type";s:0:"";s:4:"name";s:43:"Костюм Ударница син.вас";s:3:"art";s:9:"Кос503";s:6:"search";s:47:"КОСТЮМ УДАРНИЦА СИН.ВАС

";s:6:"parent";s:2:"76";s:4:"durl";s:45:"rasprodazha/odezhda/kostyum-udarnitsa-sin-vas";s:4:"dtxt";s:0:"";s:4:"dpic";s:27:"/upload/iblock/8fc/6447.jpg";s:11:"preview_pic";s:27:"/upload/iblock/606/6447.jpg";s:4:"bxid";s:6:"202028";s:5:"alias";s:0:"";s:7:"section";s:5:"11733";}i:113;a:14:{s:2:"id";s:4:"1812";s:3:"act";s:1:"N";s:9:"prod_type";s:0:"";s:4:"name";s:58:"Костюм Комбат цв.Олива р.48-50/170-176";s:3:"art";s:9:"Кос387";s:6:"search";s:462:"КОСТЮМ КОМБАТ ЦВ.ОЛИВА Р.48-50/170-176

КОСТЮМ КОМБАТ КУРТКА УКОРОЧЕННАЯ НА РЕЗИНКЕ С КАПЮШОНОМ, С ЗАСТЁЖКОЙ НА МОЛНИЮ, РУКАВА НА МАНЖЕТЕ-РЕЗИНКЕ, КАРМАНЫ НАКЛАДНЫЕ. БРЮКИ С ДВУМЯ КАРМАНАМИ С ПОЯСОМ НА РЕЗИНКЕ. ТКАНЬ - СОРОЧКА. РАЗМЕР: 48-50 (170-176) РАСЦВЕТКА: ОЛИВА";s:6:"parent";s:2:"76";s:4:"durl";s:60:"rasprodazha/odezhda/kostyum-kombat-tsv-oliva-r-48-50-170-176";s:4:"dtxt";s:408:"Костюм КОМБАТ Куртка укороченная на резинке с капюшоном, с застёжкой на молнию, рукава на манжете-резинке, карманы накладные. Брюки с двумя карманами с поясом на резинке. ТКАНЬ - сорочка. Размер: 48-50 &#40;170-176&#41; Расцветка: олива";s:4:"dpic";s:28:"/upload/iblock/d03/16539.jpg";s:11:"preview_pic";s:28:"/upload/iblock/3d0/16539.jpg";s:4:"bxid";s:6:"202045";s:5:"alias";s:0:"";s:7:"section";s:5:"11733";}i:114;a:14:{s:2:"id";s:4:"1813";s:3:"act";s:1:"N";s:9:"prod_type";s:0:"";s:4:"name";s:57:"Жилет тк.Оксфорд цв.красный СОП";s:3:"art";s:9:"Жил007";s:6:"search";s:585:"ЖИЛЕТ ТК.ОКСФОРД ЦВ.КРАСНЫЙ СОП

ИЗДЕЛИЕ ПОВЫШЕННОЙ ВИДИМОСТИ 1-ГО КЛАССА. ЦЕНТРАЛЬНАЯ ЗАСТЕЖКА НА КОНТАКТНУЮ ЛЕНТУ, ШИРОКАЯ СВЕТООТРАЖАЮЩАЯ ПОЛОСА 5 СМ, ИЗНОСОСТОЙКИЙ КАНТ. ДВА НАКЛАДНЫХ БОКОВЫХ КАРМАНА. ЛЕГКО СТИРАЕТСЯ, ДОЛГО СОХРАНЯЕТ ЦВЕТ СЕЗОННОСТЬ: ВСЕСЕЗОННЫЙ ВИД: УНИСЕКС РАЗМЕР: 60-62 ЦВЕТ: КРАСНЫЙ ТКАНЬ: ОКСФОРД";s:6:"parent";s:2:"76";s:4:"durl";s:53:"rasprodazha/odezhda/zhilet-tk-oksford-tsv-krasnyy-sop";s:4:"dtxt";s:524:"Изделие повышенной видимости 1-го класса. Центральная застежка на контактную ленту, широкая светоотражающая полоса 5 см, износостойкий кант. Два накладных боковых кармана. Легко стирается, долго сохраняет цвет Сезонность: всесезонный Вид: унисекс Размер: 60-62 Цвет: красный Ткань: оксфорд";s:4:"dpic";s:28:"/upload/iblock/082/16298.jpg";s:11:"preview_pic";s:28:"/upload/iblock/41f/16298.jpg";s:4:"bxid";s:6:"202049";s:5:"alias";s:0:"";s:7:"section";s:5:"11733";}i:115;a:14:{s:2:"id";s:4:"1814";s:3:"act";s:1:"N";s:9:"prod_type";s:0:"";s:4:"name";s:53:"Жилет тк.Оксфорд цв.синий СОП";s:3:"art";s:9:"Жил056";s:6:"search";s:588:"ЖИЛЕТ ТК.ОКСФОРД ЦВ.СИНИЙ СОП

ИЗДЕЛИЕ ПОВЫШЕННОЙ ВИДИМОСТИ 1-ГО КЛАССА. ЦЕНТРАЛЬНАЯ ЗАСТЕЖКА НА КОНТАКТНУЮ ЛЕНТУ, ШИРОКАЯ СВЕТООТРАЖАЮЩАЯ ПОЛОСА 5 СМ, ИЗНОСОСТОЙКИЙ КАНТ. ДВА НАКЛАДНЫХ БОКОВЫХ КАРМАНА. ЛЕГКО СТИРАЕТСЯ, ДОЛГО СОХРАНЯЕТ ЦВЕТ СЕЗОННОСТЬ: ВСЕСЕЗОННЫЙ ВИД: УНИСЕКС РАЗМЕР: 64-66 ЦВЕТ: ТЕМНО-СИНИЙ ТКАНЬ: ОКСФОРД";s:6:"parent";s:2:"76";s:4:"durl";s:51:"rasprodazha/odezhda/zhilet-tk-oksford-tsv-siniy-sop";s:4:"dtxt";s:531:"Изделие повышенной видимости 1-го класса. Центральная застежка на контактную ленту, широкая светоотражающая полоса 5 см, износостойкий кант. Два накладных боковых кармана. Легко стирается, долго сохраняет цвет Сезонность: всесезонный Вид: унисекс Размер: 64-66 Цвет: темно-синий Ткань: оксфорд";s:4:"dpic";s:28:"/upload/iblock/cb5/16233.jpg";s:11:"preview_pic";s:28:"/upload/iblock/fbe/16233.jpg";s:4:"bxid";s:6:"202050";s:5:"alias";s:0:"";s:7:"section";s:5:"11733";}i:116;a:14:{s:2:"id";s:4:"1815";s:3:"act";s:1:"N";s:9:"prod_type";s:0:"";s:4:"name";s:75:"Костюм Мастер-2 (к+пк) тк.Саржа цв.т.син/вас";s:3:"art";s:9:"Кос357";s:6:"search";s:544:"КОСТЮМ МАСТЕР-2 (К+ПК) ТК.САРЖА ЦВ.Т.СИН/ВАС

КУРТКА УКОРОЧЕННАЯ НА ПОЯСЕ С СУПАТНОЙ ЗАСТЕЖКОЙ НА ПУГОВИЦЫ. ПОЛОЧКИ И СПИНКА НА КОКЕТКАХ КОНТРАСТНОГО ЦВЕТА. СВЕРХУ ДВА НАКЛАДНЫХ КАРМАНА НА КЛАПАНАХ, СНИЗУ ДВА НАКЛАДНЫХ С КОСЫМ ВХОДОМ. КУРТКА + БРЮКИ ЦВЕТ ТЕМНО-СИНИЙ С ВАСИЛЬКОМ ТКАНЬ САРЖА, 100% ХЛОПОК";s:6:"parent";s:2:"76";s:4:"durl";s:65:"rasprodazha/odezhda/kostyum-master-2-k-pk-tk-sarzha-tsv-t-sin-vas";s:4:"dtxt";s:473:"Куртка укороченная на поясе с супатной застежкой на пуговицы. Полочки и спинка на кокетках контрастного цвета. Сверху два накладных кармана на клапанах, снизу два накладных с косым входом. Куртка &#43; брюки Цвет темно-синий с васильком Ткань Саржа, 100&#37; хлопок";s:4:"dpic";N;s:11:"preview_pic";N;s:4:"bxid";s:6:"202053";s:5:"alias";s:0:"";s:7:"section";s:5:"11733";}i:117;a:14:{s:2:"id";s:4:"1816";s:3:"act";s:1:"N";s:9:"prod_type";s:0:"";s:4:"name";s:55:"Фартук КЩС мод.В (с горловиной)";s:3:"art";s:9:"Фар061";s:6:"search";s:487:"ФАРТУК КЩС МОД.В (С ГОРЛОВИНОЙ)

ЦЕЛЬНОКРОЕНЫЙ ПРИТАЧНОЙ НАГРУДНИК, ПЕРЕХОДЯЩИЙ СЗАДИ В КОКЕТКУ, К НИЖНЕЙ ЧАСТИ КОТОРОЙ ПРИТАЧАНА ЭЛАСТИЧНАЯ ЛЕНТА – К БОКОВЫМ УГЛАМ НА ЛИНИИ ТАЛИИ ПРИТАЧАНА ТЕСЬМА МАТЕРИАЛ: ТКАНЬ ПРОРЕЗИНЕННАЯ КЩС РАЗМЕР: УНИВЕРСАЛЬНЫЙ ДЛИНА: 123 СМ";s:6:"parent";s:2:"76";s:4:"durl";s:52:"rasprodazha/odezhda/fartuk-kshchs-mod-v-s-gorlovinoy";s:4:"dtxt";s:428:"цельнокроеный притачной нагрудник, переходящий сзади в кокетку, к нижней части которой притачана эластичная лента – к боковым углам на линии талии притачана тесьма Материал: ткань прорезиненная КЩС Размер: универсальный Длина: 123 см";s:4:"dpic";s:28:"/upload/iblock/f38/12221.jpg";s:11:"preview_pic";s:28:"/upload/iblock/e90/12221.jpg";s:4:"bxid";s:6:"202155";s:5:"alias";s:0:"";s:7:"section";s:5:"11733";}i:118;a:14:{s:2:"id";s:4:"1817";s:3:"act";s:1:"N";s:9:"prod_type";s:0:"";s:4:"name";s:82:"Костюм Автомойщик эконом (к+пк) синий/василек";s:3:"art";s:11:"Кос566Э";s:6:"search";s:1135:"КОСТЮМ АВТОМОЙЩИК ЭКОНОМ (К+ПК) СИНИЙ/ВАСИЛЕК

КОСТЮМ СОСТОИТ ИЗ КУРТКИ И ПОЛУКОМБИНЕЗОНА. КУРТКА НА ПОЯСЕ С ПОТАЙНОЙ ЗАСТЕЖКОЙ, НАКЛАДНЫМИ КАРМАНАМИ. ПОЛУКОМБИНЕЗОН НА БРЕТЕЛЯХ С ЗАСТЁЖКОЙ НА ФАСТЕКСЫ. ОТЛИЧИТЕЛЬНАЯ ЧЕРТА: ИСПОЛЬЗОВАНИЕ ВЛАГОЗАЩИТНОЙ ТКАНИ, ВЕНТИЛЯЦИОННЫЕ ОТВЕРСТИЯ СО СТОРОНЫ СПИНКИ. - СКРЫТАЯ ФУРНИТУРА ПРЕДОТВРАТИТ КОНТАКТ С РАБОЧЕЙ ПОВЕРХНОСТЬЮ - СПИНКА ПОЛУКОМБИНЕЗОНА ИЗ ТРИКОТАЖНОЙ СЕТКИ ДЛЯ ВОЗДУХООБМЕНА ЦВЕТ: Т/СИНИЙ С ВАСИЛЬКОМ МАТЕРИАЛЫ: ОСНОВНОЙ: СМЕСОВАЯ ПЛ.210 Г/М2, ВО НАКЛАДКИ: 100% ПОЛИЭФИР НА ВЕТРОЗАЩИТНОЙ ПЛАНКЕ ИМЕЮТСЯ НЕЗНАЧИТЕЛЬНЫЕ МЕХАНИЧЕСКИЕ ПОВРЕЖДЕНИЯ. РАЗМЕР: 56-58 РОСТ:170-176";s:6:"parent";s:2:"76";s:4:"durl";s:67:"rasprodazha/odezhda/kostyum-avtomoyshchik-ekonom-k-pk-siniy-vasilek";s:4:"dtxt";s:1053:"Костюм состоит из куртки и полукомбинезона. Куртка на поясе с потайной застежкой, накладными карманами. Полукомбинезон на бретелях с застёжкой на фастексы. Отличительная черта: использование влагозащитной ткани, вентиляционные отверстия со стороны спинки. - скрытая фурнитура предотвратит контакт с рабочей поверхностью - спинка полукомбинезона из трикотажной сетки для воздухообмена Цвет: т/синий с васильком Материалы: основной: смесовая пл.210 г/м2, ВО накладки: 100&#37; полиэфир На ветрозащитной планке имеются незначительные механические повреждения. Размер: 56-58 Рост:170-176";s:4:"dpic";s:28:"/upload/iblock/c96/16673.jpg";s:11:"preview_pic";s:28:"/upload/iblock/71d/16673.jpg";s:4:"bxid";s:6:"202173";s:5:"alias";s:0:"";s:7:"section";s:5:"11733";}i:119;a:14:{s:2:"id";s:4:"1818";s:3:"act";s:1:"N";s:9:"prod_type";s:0:"";s:4:"name";s:46:"Брюки Стандарт цв.син/вас";s:3:"art";s:9:"Брю009";s:6:"search";s:50:"БРЮКИ СТАНДАРТ ЦВ.СИН/ВАС

";s:6:"parent";s:2:"76";s:4:"durl";s:47:"rasprodazha/odezhda/bryuki-standart-tsv-sin-vas";s:4:"dtxt";s:0:"";s:4:"dpic";N;s:11:"preview_pic";N;s:4:"bxid";s:6:"202277";s:5:"alias";s:0:"";s:7:"section";s:5:"11733";}i:120;a:14:{s:2:"id";s:4:"1688";s:3:"act";s:1:"N";s:9:"prod_type";s:0:"";s:4:"name";s:51:"Бахилы мужские МК-01 с чулком";s:3:"art";s:9:"Бах003";s:6:"search";s:1478:"БАХИЛЫ МУЖСКИЕ МК-01 С ЧУЛКОМ

МУЖСКИЕ САПОГИ ПРЕДНАЗНАЧЕНЫ ДЛЯ РЫБАКОВ ОХОТНИКОВ И ЛЮДЕЙ, РАБОТАЮЩИХ НА ОТКРЫТОМ ВОЗДУХЕ. РАЗРАБОТАНЫ ДЛЯ ДЛИТЕЛЬНОГО ПРЕБЫВАНИЯ НА МОРОЗЕ. 1)ГАЛОША, ВЫПОЛНЕНА ИЗ ТЕРМОЭЛАСТАПЛАСТА (ТЭП) УСТОЙЧИВА К НИЗКИМ ТЕМПЕРАТУРАМ, НЕ ПРОМОКАЕТ, ЛЕГЧЕ РЕЗИНОВОЙ, УСТОЙЧИВА К ИСТИРАНИЮ. 2) ГОЛЕНИЩЕ САПОГА ИЗГОТОВЛЕНО ИЗ ВОДОНЕПРОНИЦАЕМОЙ ТКАНИ ОКСФОРД 600 И ТРИПЛИРОВАННОЙ ПОРОЛОНОМ И СЕТКИ ТРИКОТАЖНОЙ. СУЩЕСТВУЕТ НЕСКОЛЬКО РАСЦВЕТОК ТКАНИ. 3) ЧУЛОК ДВУХСЛОЙНЫЙ: ФОЛЬГИРОВАННОЕ ИГЛОПРОБИВНОЕ ПОЛОТНО, МЕХ ИСКУССТВЕННЫЙ. СОЕДИНЕНИЕ ВЕРХА С ГАЛОШЕЙ ПРОИСХОДИТ С ПОМОЩЬЮ КОЖАНЫХ ЭЛЕМЕНТОВ, ЧТО ОБЕСПЕЧИВАЕТ ПРОЧНОСТЬ СОЕДИНЕНИЯ ГОЛЕНИЩА С ГАЛОШЕЙ. С ПОМОЩЬЮ ШНУРОВКИ РЕГУЛИРУЕТСЯ ШИРИНА ГОЛЕНИЩА. КОМФОРТНОЕ ИСПОЛЬЗОВАНИЕ САПОГ ДО -40°С. РАЗМЕР: 41-45 КОЛИЧЕСТВО В УПАКОВКЕ: 5 ПАР В УПАКОВКЕ";s:6:"parent";s:2:"75";s:4:"durl";s:49:"rasprodazha/obuv/bakhily-muzhskie-mk-01-s-chulkom";s:4:"dtxt";s:1443:"Мужские сапоги предназначены для рыбаков охотников и людей, работающих на открытом воздухе. Разработаны для длительного пребывания на морозе. 1&#41;Галоша, выполнена из термоэластапласта &#40;ТЭП&#41; устойчива к низким температурам, не промокает, легче резиновой, устойчива к истиранию. 2&#41; Голенище сапога изготовлено из водонепроницаемой ткани Оксфорд 600 и триплированной поролоном и сетки трикотажной. Существует несколько расцветок ткани. 3&#41; Чулок двухслойный: фольгированное иглопробивное полотно, мех искусственный. Соединение верха с галошей происходит с помощью кожаных элементов, что обеспечивает прочность соединения голенища с галошей. С помощью шнуровки регулируется ширина голенища. Комфортное использование сапог до -40°С. Размер: 41-45 Количество в упаковке: 5 пар в упаковке";s:4:"dpic";s:28:"/upload/iblock/436/12090.jpg";s:11:"preview_pic";s:28:"/upload/iblock/872/12090.jpg";s:4:"bxid";s:6:"200187";s:5:"alias";s:0:"";s:7:"section";s:5:"11732";}i:121;a:14:{s:2:"id";s:4:"1689";s:3:"act";s:1:"N";s:9:"prod_type";s:0:"";s:4:"name";s:28:"Ботинки Кинг МП";s:3:"art";s:13:"Бот010МП";s:6:"search";s:1092:"БОТИНКИ КИНГ МП

МАТЕРИАЛ ДЕТАЛЕЙ ВЕРХА: CОЮЗКА, ЗАДИНКА - НАТУРАЛЬНАЯ КОЖА, КРУГОВОЙ КЛАПАН, МЯГКИЙ КАНТ - ИСКУССТВЕННЫЙ МАТЕРИАЛ, ПОДКЛАДКА - НЕТКАНЫЙ МАТЕРИАЛ, ДУБЛИРОВАННЫЙ ПОРОЛОНОМ, АНТИКОРРОЗИЙНАЯ ФУРНИТУРА, ЖЕСТКИЙ ФОРМОВАННЫЙ ИЛИ МЕТАЛЛИЧЕСКИЙ ДО 200 ДЖ ПОДНОСОК. МАТЕРИАЛ ДЕТАЛЕЙ НИЗА: ВТАЧНАЯ СТЕЛЬКА ИЗ НЕТКАНОГО МАТЕРИАЛА, КОМФОРТНАЯ ВКЛАДНАЯ СТЕЛЬКА. ПОДОШВА:ИЗ ВСПЕНЕННОГО ПОЛИУРЕТАНА С НАПЛЫВОМ В НОСОЧНОЙ ЧАСТИ (ИЗНОСОСТОЙКАЯ, МАСЛОБЕНЗОСТОЙКАЯ, КИСЛОТОЩЕЛОЧЕСТОЙКАЯ, АНТИСТАТИК, АНТИСКОЛЬЗЯЩИЙ САМООЧИЩАЮЩИЙСЯ ПРОФИЛЬ ХОДОВОЙ ПОВЕРХНОСТИ). УДОБНАЯ КОЛОДКА. РАЗМЕРНЫЙ РЯД: 36- 47";s:6:"parent";s:2:"75";s:4:"durl";s:32:"rasprodazha/obuv/botinki-king-mp";s:4:"dtxt";s:1068:"Материал деталей верха: cоюзка, задинка - натуральная кожа, круговой клапан, мягкий кант - искусственный материал, подкладка - нетканый материал, дублированный поролоном, антикоррозийная фурнитура, жесткий формованный или металлический до 200 Дж подносок. Материал деталей низа: втачная стелька из нетканого материала, комфортная вкладная стелька. Подошва:из вспененного полиуретана с наплывом в носочной части &#40;износостойкая, маслобензостойкая, кислотощелочестойкая, антистатик, антискользящий самоочищающийся профиль ходовой поверхности&#41;. Удобная колодка. Размерный ряд: 36- 47";s:4:"dpic";s:28:"/upload/iblock/eca/14996.jpg";s:11:"preview_pic";s:28:"/upload/iblock/26b/14996.jpg";s:4:"bxid";s:6:"200224";s:5:"alias";s:0:"";s:7:"section";s:5:"11732";}i:122;a:14:{s:2:"id";s:4:"1690";s:3:"act";s:1:"N";s:9:"prod_type";s:0:"";s:4:"name";s:37:"Ботинки Комфорт с МП";s:3:"art";s:9:"Бот016";s:6:"search";s:1579:"БОТИНКИ КОМФОРТ С МП

УНИВЕРСАЛЬНАЯ МОДЕЛЬ ДЛЯ ТЯЖЕЛЫХ РАБОТ В РАЗЛИЧНЫХ ОТРАСЛЯХ ПРОМЫШЛЕННОСТИ: НЕФТЕГАЗОВОЙ, ГОРНОДОБЫВАЮЩЕЙ, ЭНЕРГЕТИЧЕСКОЙ, В ЧЕРНОЙ И ЦВЕТНОЙ МЕТАЛЛУРГИИ, НА ТРАНСПОРТЕ И В СЕЛЬСКОМ ХОЗЯЙСТВЕ. МАТЕРИАЛ ВЕРХА - ТЕРМОУСТОЙЧИВАЯ ВОДООТТАЛКИВАЮЩАЯ КОЖА ПОВЫШЕННОЙ ТОЛЩИНЫ (2,0 - 2,2 ММ). ЛЕГКАЯ ПУ/ТПУ МБС ПОДОШВА ОБЕСПЕЧИВАЕТ ЗАЩИТУ ОТ АГРЕССИВНЫХ СРЕД, ВОЗДЕЙСТВИЯ НИЗКИХ И ВЫСОКИХ ТЕМПЕРАТУР (ОТ -40 ДО +100), ОБЛАДАЕТ АМОРТИЗИРУЮЩИМИ И АНТИСТАТИЧЕСКИМИ СВОЙСТВАМИ, ГАСИТ УДАРНЫЕ НАГРУЗКИ. ГЛУХОЙ КЛАПАН ИСКЛЮЧАЕТ ПОПАДАНИЕ ВНУТРЬ ВЛАГИ, ПЫЛИ И МЕЛКИХ ПРЕДМЕТОВ. МЯГКИЙ КАНТ ЗАЩИЩАЕТ ОТ БОКОВЫХ УДАРОВ. ВКЛАДНАЯ СТЕЛЬКА АНАТОМИЧЕСКОЙ ФОРМЫ ЭФФЕКТИВНО РАСПРЕДЕЛЯЕТ НАГРУЗКУ ПО ВСЕЙ ПОВЕРХНОСТИ СТОПЫ. КОЛОДКА СПЕЦИАЛЬНОЙ КОНСТРУКЦИИ ДАЕТ ВОЗМОЖНОСТЬ РАБОТАТЬ ЦЕЛЫЙ ДЕНЬ, НЕ ИСПЫТЫВАЯ ДИСКОМФОРТА И УСТАЛОСТИ. МЕТОД КРЕПЛЕНИЯ ПОДОШВЫ: ЛИТЬЕВОЙ";s:6:"parent";s:2:"75";s:4:"durl";s:37:"rasprodazha/obuv/botinki-komfort-s-mp";s:4:"dtxt";s:1558:"Универсальная модель для тяжелых работ в различных отраслях промышленности: нефтегазовой, горнодобывающей, энергетической, в черной и цветной металлургии, на транспорте и в сельском хозяйстве. Материал верха - термоустойчивая водоотталкивающая кожа повышенной толщины &#40;2,0 - 2,2 мм&#41;. Легкая ПУ/ТПУ МБС подошва обеспечивает защиту от агрессивных сред, воздействия низких и высоких температур &#40;от -40 до &#43;100&#41;, обладает амортизирующими и антистатическими свойствами, гасит ударные нагрузки. Глухой клапан исключает попадание внутрь влаги, пыли и мелких предметов. Мягкий кант защищает от боковых ударов. Вкладная стелька анатомической формы эффективно распределяет нагрузку по всей поверхности стопы. Колодка специальной конструкции дает возможность работать целый день, не испытывая дискомфорта и усталости. Метод крепления подошвы: Литьевой";s:4:"dpic";s:28:"/upload/iblock/c72/13574.jpg";s:11:"preview_pic";s:28:"/upload/iblock/de2/13574.jpg";s:4:"bxid";s:6:"200226";s:5:"alias";s:0:"";s:7:"section";s:5:"11732";}i:123;a:14:{s:2:"id";s:4:"1691";s:3:"act";s:1:"Y";s:9:"prod_type";s:0:"";s:4:"name";s:62:"Ботинки Леди Крафт юфт. бортопрош.";s:3:"art";s:9:"Бот004";s:6:"search";s:680:"БОТИНКИ ЛЕДИ КРАФТ ЮФТ. БОРТОПРОШ.

РЕКОМЕНДУЕТСЯ ДЛЯ РАБОТНИКОВ БОЛЬШИНСТВА ОТРАСЛЕЙ ПРОМЫШЛЕННОСТИ. СОЮЗКА И БЕРЦЫ ИЗ ЮФТИ, СТЕЛЬКА ИЗ СТЕЛЕЧНОГО КАРТОНА, ПОДОШВА ИЗ ФОРМОВАННОЙ РЕЗИНЫ БОРТОПРОШИВНОГО МЕТОДА КРЕПЛЕНИЯ. ФОРМОВАННЫЙ ЗАДНИК, ПЫЛЕВЛАГОЗАЩИТНЫЙ ЯЗЫК, МЯГКИЙ ЗАЩИТНЫЙ КАНТ. УТЕПЛЕННЫЕ ИСКУССТВЕННЫМ МЕХОМ. РЕКОМЕНДОВАНО ИСПОЛЬЗОВАТЬ ДО -20ОС. РАЗМЕРЫ: 36-41";s:6:"parent";s:2:"75";s:4:"durl";s:51:"rasprodazha/obuv/botinki-ledi-kraft-yuft-bortoprosh";s:4:"dtxt";s:614:"Рекомендуется для работников большинства отраслей промышленности. Союзка и берцы из юфти, стелька из стелечного картона, подошва из формованной резины бортопрошивного метода крепления. Формованный задник, пылевлагозащитный язык, мягкий защитный кант. Утепленные искусственным мехом. Рекомендовано использовать до -20оС. Размеры: 36-41";s:4:"dpic";s:27:"/upload/iblock/4ec/5598.jpg";s:11:"preview_pic";s:27:"/upload/iblock/dfa/5598.jpg";s:4:"bxid";s:6:"200229";s:5:"alias";s:0:"";s:7:"section";s:5:"11732";}i:124;a:14:{s:2:"id";s:4:"1692";s:3:"act";s:1:"N";s:9:"prod_type";s:0:"";s:4:"name";s:57:"Ботинки Стандарт утепленные МП";s:3:"art";s:13:"Бот011МП";s:6:"search";s:1098:"БОТИНКИ СТАНДАРТ УТЕПЛЕННЫЕ МП

МАТЕРИАЛ ДЕТАЛЕЙ ВЕРХА: СОЮЗКА, ЗАДИНКА - НАТУРАЛЬНАЯ КОЖА, ЯЗЫЧОК, МЯГКИЙ КАНТ - ИСКУССТВЕННЫЙ МАТЕРИАЛ, ПОДКЛАДКА - НЕТКАНЫЙ МАТЕРИАЛ, ДУБЛИРОВАННЫЙ ПОРОЛОНОМ, АНТИКОРРОЗИЙНАЯ ФУРНИТУРА, ЖЕСТКИЙ ФОРМОВАННЫЙ ИЛИ МЕТАЛЛИЧЕСКИЙ ДО 200 ДЖ ПОДНОСОК. МАТЕРИАЛ ДЕТАЛЕЙ НИЗА: ВТАЧНАЯ СТЕЛЬКА - НЕТКАНЫЙ МАТЕРИАЛ, КОМФОРТНАЯ ВКЛАДНАЯ СТЕЛЬКА. ПОДОШВА:ИЗ ВСПЕНЕННОГО ПОЛИУРЕТАНА С НАПЛЫВОМ В НОСОЧНОЙ ЧАСТИ (ИЗНОСОСТОЙКАЯ, МАСЛОБЕНЗОСТОЙКАЯ, КИСЛОТОЩЕЛОЧЕСТОЙКАЯ, АНТИСТАТИК, АНТИСКОЛЬЗЯЩИЙ САМООЧИЩАЮЩИЙСЯ ПРОФИЛЬ ХОДОВОЙ ПОВЕРХНОСТИ). УДОБНАЯ КОЛОДКА. РАЗМЕРНЫЙ РЯД: 36- 47";s:6:"parent";s:2:"75";s:4:"durl";s:47:"rasprodazha/obuv/botinki-standart-uteplennye-mp";s:4:"dtxt";s:1045:"Материал деталей верха: союзка, задинка - натуральная кожа, язычок, мягкий кант - искусственный материал, подкладка - нетканый материал, дублированный поролоном, антикоррозийная фурнитура, жесткий формованный или металлический до 200 Дж подносок. Материал деталей низа: втачная стелька - нетканый материал, комфортная вкладная стелька. Подошва:из вспененного полиуретана с наплывом в носочной части &#40;износостойкая, маслобензостойкая, кислотощелочестойкая, антистатик, антискользящий самоочищающийся профиль ходовой поверхности&#41;. Удобная колодка. Размерный ряд: 36- 47";s:4:"dpic";s:28:"/upload/iblock/90f/14997.jpg";s:11:"preview_pic";s:28:"/upload/iblock/ed9/14997.jpg";s:4:"bxid";s:6:"200234";s:5:"alias";s:0:"";s:7:"section";s:5:"11732";}i:125;a:14:{s:2:"id";s:4:"1693";s:3:"act";s:1:"N";s:9:"prod_type";s:0:"";s:4:"name";s:73:"Ботинки Универсал иск.мех, юфть,кирза ПУ";s:3:"art";s:9:"Бот008";s:6:"search";s:267:"БОТИНКИ УНИВЕРСАЛ ИСК.МЕХ, ЮФТЬ,КИРЗА ПУ

БОТИНКИ УНИВЕРСАЛ ИСК.МЕХ, ЮФТЬ,КИРЗА ПУ УТЕПЛИТЕЛЬ ИСКУССТВЕННЫЙ МЕХ. МАТЕРИАЛ: ЮФТЬ/КИРЗА ПОДОШВА: ПУ .";s:6:"parent";s:2:"75";s:4:"durl";s:57:"rasprodazha/obuv/botinki-universal-isk-mekh-yuft-kirza-pu";s:4:"dtxt";s:190:"Ботинки Универсал иск.мех, юфть,кирза ПУ Утеплитель искусственный мех. материал: юфть/кирза Подошва: ПУ .";s:4:"dpic";s:28:"/upload/iblock/bcb/14588.jpg";s:11:"preview_pic";s:28:"/upload/iblock/566/14588.jpg";s:4:"bxid";s:6:"200235";s:5:"alias";s:0:"";s:7:"section";s:5:"11732";}i:126;a:14:{s:2:"id";s:4:"1694";s:3:"act";s:1:"N";s:9:"prod_type";s:0:"";s:4:"name";s:56:"Ботинки с высоким берцем Буран";s:3:"art";s:9:"Бот018";s:6:"search";s:1211:"БОТИНКИ С ВЫСОКИМ БЕРЦЕМ БУРАН

МАТЕРИАЛ ДЕТАЛЕЙ ВЕРХА: СОЮЗКА, ЗАДИНКА, БЕРЦЫ, ПОЛУГЛУХОЙ КЛАПАН - НАТУРАЛЬНАЯ КОЖА, ПОДКЛАД ПОД СОЮЗКУ - НЕТКАНЫЙ МАТЕРИАЛ, АНТИКОРРОЗИЙНАЯ ФУРНИТУРА, ЖЕСТКИЙ ФОРМОВАННЫЙ ПОДНОСОК. МАТЕРИАЛ ДЕТАЛЕЙ НИЗА: ОСНОВНАЯ СТЕЛЬКА - ДВУХСЛОЙНЫЙ КОМПОЗИТНЫЙ МАТЕРИАЛ (ПОЛИКОЖА), КОМФОРТНАЯ ВКЛАДНАЯ СТЕЛЬКА. ПОДОШВА:ПОДОШВА ДВУХСЛОЙНАЯ ИЗ ВСПЕНЕННОГО ПОЛИУРЕТАНА И ХОДОВОЙ ПОВЕРХНОСТЬЮ ИЗ РЕЗИНЫ (МАСЛОБЕНЗОСТОЙКАЯ, КИСЛОТОЩЕЛОЧЕСТОЙКАЯ, ТЕРМОСТОЙКАЯ, АНТИСТАТИК, АНТИСКОЛЬЗЯЩИЙ САМООЧИЩАЮЩИЙСЯ ПРОФИЛЬ ХОДОВОЙ ПОВЕРХНОСТИ, ПОВЫШЕННАЯ ИЗНОСОУСТОЙЧИВОСТЬ). ВОЗМОЖНО УТЕПЛЕНИЕ ИСКУССТВЕННЫМ МЕХОМ. УДОБНАЯ КОЛОДКА. РАЗМЕРНЫЙ РЯД: 38-47";s:6:"parent";s:2:"75";s:4:"durl";s:48:"rasprodazha/obuv/botinki-s-vysokim-bertsem-buran";s:4:"dtxt";s:1167:"Материал деталей верха: союзка, задинка, берцы, полуглухой клапан - натуральная кожа, подклад под союзку - нетканый материал, антикоррозийная фурнитура, жесткий формованный подносок. Материал деталей низа: основная стелька - двухслойный композитный материал &#40;поликожа&#41;, комфортная вкладная стелька. Подошва:Подошва двухслойная из вспененного полиуретана и ходовой поверхностью из резины &#40;маслобензостойкая, кислотощелочестойкая, термостойкая, антистатик, антискользящий самоочищающийся профиль ходовой поверхности, повышенная износоустойчивость&#41;. Возможно утепление искусственным мехом. Удобная колодка. Размерный ряд: 38-47";s:4:"dpic";s:28:"/upload/iblock/356/15001.jpg";s:11:"preview_pic";s:28:"/upload/iblock/821/15001.jpg";s:4:"bxid";s:6:"200250";s:5:"alias";s:0:"";s:7:"section";s:5:"11732";}i:127;a:14:{s:2:"id";s:4:"1695";s:3:"act";s:1:"N";s:9:"prod_type";s:0:"";s:4:"name";s:60:"Валенки серые с обсоюзкой (на р/п)";s:3:"art";s:9:"Вал103";s:6:"search";s:1903:"ВАЛЕНКИ СЕРЫЕ С ОБСОЮЗКОЙ (НА Р/П)

ВЕРХ -ВОЙЛОК НАТУРАЛЬНЫЙ, ТОНКОШЕРСТНЫЙ, СЕРЫЙ НИЗ - ПВХ РАЗМЕРЫ С 36 ПО 46 (ЖЕНЩИНЫ, МУЖЧИНЫ) ВОЙЛОК. ПРИ ПРОИЗВОДСТВЕ ИСПОЛЬЗУЕТСЯ СПЕЦИАЛЬНЫЙ ВОЙЛОК ИЗ НАТУРАЛЬНОЙ ОВЕЧЬЕЙ ШЕРСТИ ПРОШЕДШИЙ ПРОМЫВКУ И ИСПОЛЬЗУЮЩИЙСЯ ТОЛЬКО В ОБУВНОЙ ПРОМЫШЛЕННОСТИ. ОВЕЧЬЯ ШЕРСТЬ ЗАМЕЧАТЕЛЬНО ПОГЛОЩАЕТ И ИСПАРЯЕТ ВЛАГУ, ПРИ ЭТОМ ОСТАВАЯСЬ СУХОЙ. ОБУВЬ ИЗ ШЕРСТИ ДЫШИТ, СОЗДАЕТ МАССАЖНОЕ ВОЗДЕЙСТВИЕ, СПОСОБСТВУЕТ УЛУЧШЕНИЮ ЦИРКУЛЯЦИИ КРОВИ. ТОЛЩИНА ВОЙЛОКА 4ММ-5 ММ. ПВХ НИЗ ОБУВИ -ПЛАСТМАССА ИЗ ПОЛИВИНИЛХЛОРИДНОЙ СМОЛЫ. ПОЛИВИНИЛХЛОРИДНЫЕ КОМПОЗИЦИИ МОГУТ БЫТЬ МОНОЛИТНЫМИ И ПОРИСТЫМИ. НАИБОЛЕЕ ЧАСТО В ОБУВНОМ ПРОИЗВОДСТВЕ ПРИМЕНЯЮТ МОНОЛИТНЫЕ ПВХ, ОБЛАДАЮЩИЕ ВЫСОКОЙ СТОЙКОСТЬЮ К ВОЗДЕЙСТВИЮ АГРЕССИВНЫХ СРЕД. СТРОГОЕ СОБЛЮДЕНИЕ ТЕХНОЛОГИЧЕСКИХ РЕЖИМОВ ЛИТЬЯ ГАРАНТИРУЕТ ВЫСОКУЮ ИЗНОСОСТОЙКОСТЬ ПВХ ПОДОШВ. ПРИ ПРОДОЛЖИТЕЛЬНОМ ВОЗДЕЙСТВИИ ПОНИЖЕННЫХ ТЕМПЕРАТУР (-25С И НИЖЕ) ТЕРЯЕТСЯ ЭЛАСТИЧНОСТЬ И ПОВЫШАЕТСЯ ЖЕСТКОСТЬ ПВХ ПОДОШВ. НЕ РЕКОМЕНДУЕТСЯ ИСПОЛЬЗОВАНИЕ ОБУВИ НА ПВХ ПОДОШВЕ ПРИ ТЕМПЕРАТУРЕ НИЖЕ -25С.";s:6:"parent";s:2:"75";s:4:"durl";s:50:"rasprodazha/obuv/valenki-serye-s-obsoyuzkoy-na-r-p";s:4:"dtxt";s:1855:"Верх -войлок натуральный, тонкошерстный, серый Низ - ПВХ Размеры с 36 по 46 &#40;женщины, мужчины&#41; Войлок. При производстве используется специальный войлок из натуральной овечьей шерсти прошедший промывку и использующийся только в обувной промышленности. Овечья шерсть замечательно поглощает и испаряет влагу, при этом оставаясь сухой. Обувь из шерсти дышит, создает массажное воздействие, способствует улучшению циркуляции крови. Толщина войлока 4мм-5 мм. ПВХ низ обуви -пластмасса из поливинилхлоридной смолы. Поливинилхлоридные композиции могут быть монолитными и пористыми. Наиболее часто в обувном производстве применяют монолитные ПВХ, обладающие высокой стойкостью к воздействию агрессивных сред. Строгое соблюдение технологических режимов литья гарантирует высокую износостойкость ПВХ подошв. При продолжительном воздействии пониженных температур &#40;-25С и ниже&#41; теряется эластичность и повышается жесткость ПВХ подошв. Не рекомендуется использование обуви на ПВХ подошве при температуре ниже -25С.";s:4:"dpic";s:27:"/upload/iblock/68f/9511.jpg";s:11:"preview_pic";s:27:"/upload/iblock/c7f/9511.jpg";s:4:"bxid";s:6:"200303";s:5:"alias";s:0:"";s:7:"section";s:5:"11732";}i:128;a:14:{s:2:"id";s:4:"1696";s:3:"act";s:1:"N";s:9:"prod_type";s:0:"";s:4:"name";s:29:"Клей для ЭВА 10мл";s:3:"art";s:7:"Кл002";s:6:"search";s:847:"КЛЕЙ ДЛЯ ЭВА 10МЛ

КЛЕЙ ИМЕЕТ ЖЕЛТОВАТЫЙ ОТТЕНОК, НО В ПРОЦЕССЕ ВЫСЫХАНИЯ ОН СТАНОВИТЬСЯ ПРОЗРАЧНЫМ. ЭЛАСТИЧНОСТЬ И ВОДОСТОЙКОСТЬ ДЕЛАЮТ ЭТОТ КЛЕЙ ПОКА НАИБОЛЕЕ ПРИЕМЛЕМЫМ ДЛЯ РЕМОНТА ЭВА ОБУВИ. СПОСОБ ПРИМЕНЕНИЯ КЛЕЯ ДЛЯ ЭВА: СКЛЕИВАЕМЫЕ ПОВЕРХНОСТИ ЗАЧИСТИТЬ И ОБЕЗЖИРИТЬ АЦЕТОНОМ. РАЗМАЗАТЬ КЛЕЙ ТОНКИМ СЛОЕМ ЗА 10-15 СЕК. СОЕДЕНИТЬ ЧЕРЕЗ 2-3 МИН. ДЕТАЛИ СИЛЬНО СДАВИТЬ И РАЗГЛАДИТЬ. ЧЕРЕЗ 3 ЧАСА ИЗДЕЛИЕ МОЖНО ИСПОЛЬЗОВАТЬ. ОКОНЧАТЕЛЬНОЕ ВРЕМЯ СКЛЕИВАНИЯ 24 ЧАСА.";s:6:"parent";s:2:"75";s:4:"durl";s:35:"rasprodazha/obuv/kley-dlya-eva-10ml";s:4:"dtxt";s:814:"Клей имеет желтоватый оттенок, но в процессе высыхания он становиться прозрачным. Эластичность и водостойкость делают этот клей пока наиболее приемлемым для ремонта ЭВА обуви. Способ применения клея для ЭВА: Склеиваемые поверхности зачистить и обезжирить ацетоном. Размазать клей тонким слоем за 10-15 сек. Соеденить через 2-3 мин. Детали сильно сдавить и разгладить. Через 3 часа изделие можно использовать. Окончательное время склеивания 24 часа.";s:4:"dpic";s:28:"/upload/iblock/181/14753.jpg";s:11:"preview_pic";s:28:"/upload/iblock/c3e/14753.jpg";s:4:"bxid";s:6:"200416";s:5:"alias";s:0:"";s:7:"section";s:5:"11732";}i:129;a:14:{s:2:"id";s:4:"1697";s:3:"act";s:1:"N";s:9:"prod_type";s:0:"";s:4:"name";s:64:"Кроссовки Фаворит синие на шнурках";s:3:"art";s:9:"Крс400";s:6:"search";s:259:"КРОССОВКИ ФАВОРИТ СИНИЕ НА ШНУРКАХ

КРОССОВКИ РАБОЧИЕ ВЕРХ - НАТУРАЛЬНЫЙ ВЕЛЮР ПОДОШВА - ПВХ РАЗМЕРЫ - 36-46 МЕТОД КРЕПЛЕНИЯ ПОДОШВЫ - ЛИТЬЕВОЙ .";s:6:"parent";s:2:"75";s:4:"durl";s:53:"rasprodazha/obuv/krossovki-favorit-sinie-na-shnurkakh";s:4:"dtxt";s:191:"Кроссовки рабочие Верх - натуральный велюр Подошва - ПВХ Размеры - 36-46 Метод крепления подошвы - литьевой .";s:4:"dpic";s:27:"/upload/iblock/f7c/4514.jpg";s:11:"preview_pic";s:27:"/upload/iblock/e5d/4514.jpg";s:4:"bxid";s:6:"200743";s:5:"alias";s:0:"";s:7:"section";s:5:"11732";}i:130;a:14:{s:2:"id";s:4:"1698";s:3:"act";s:1:"N";s:9:"prod_type";s:0:"";s:4:"name";s:36:"Полуботинки Степ МП";s:3:"art";s:13:"Пол012МП";s:6:"search";s:1059:"ПОЛУБОТИНКИ СТЕП МП

МАТЕРИАЛ ДЕТАЛЕЙ ВЕРХА: СОЮЗКА, КРУГОВОЙ КЛАПАН, ЗАДИНКА, БЕРЦЫ, МЯГКИЙ КАНТ - НАТУРАЛЬНАЯ КОЖА, ПОДКЛАДКА - НЕТКАНЫЙ МАТЕРИАЛ, ДУБЛИРОВАННЫЙ ПОРОЛОНОМ, АНТИКОРРОЗИЙНАЯ ФУРНИТУРА, ЖЕСТКИЙ ФОРМОВАННЫЙ ИЛИ МЕТАЛЛИЧЕСКИЙ ПОДНОСОК ДО 200 ДЖ. МАТЕРИАЛ ДЕТАЛЕЙ НИЗА: ВТАЧНАЯ СТЕЛЬКА - НЕТКАНЫЙ МАТЕРИАЛ, КОМФОРТНАЯ ВКЛАДНАЯ СТЕЛЬКА. ПОДОШВА:ИЗ ВСПЕНЕННОГО ПОЛИУРЕТАНА С НАПЛЫВОМ В НОСОЧНОЙ ЧАСТИ (ИЗНОСОСТОЙКАЯ, МАСЛОБЕНЗОСТОЙКАЯ, КИСЛОТОЩЕЛОЧЕСТОЙКАЯ, АНТИСТАТИК, АНТИСКОЛЬЗЯЩИЙ САМООЧИЩАЮЩИЙСЯ ПРОФИЛЬ ХОДОВОЙ ПОВЕРХНОСТИ). УДОБНАЯ КОЛОДКА. РАЗМЕРНЫЙ РЯД: 36-47";s:6:"parent";s:2:"75";s:4:"durl";s:36:"rasprodazha/obuv/polubotinki-step-mp";s:4:"dtxt";s:1027:"Материал деталей верха: союзка, круговой клапан, задинка, берцы, мягкий кант - натуральная кожа, подкладка - нетканый материал, дублированный поролоном, антикоррозийная фурнитура, жесткий формованный или металлический подносок до 200 Дж. Материал деталей низа: втачная стелька - нетканый материал, комфортная вкладная стелька. Подошва:из вспененного полиуретана с наплывом в носочной части &#40;износостойкая, маслобензостойкая, кислотощелочестойкая, антистатик, антискользящий самоочищающийся профиль ходовой поверхности&#41;. Удобная колодка. Размерный ряд: 36-47";s:4:"dpic";s:28:"/upload/iblock/1ee/14994.jpg";s:11:"preview_pic";s:28:"/upload/iblock/fee/14994.jpg";s:4:"bxid";s:6:"201176";s:5:"alias";s:0:"";s:7:"section";s:5:"11732";}i:131;a:14:{s:2:"id";s:4:"1699";s:3:"act";s:1:"N";s:9:"prod_type";s:0:"";s:4:"name";s:57:"Полуботинки Эскулап резинка ПУ";s:3:"art";s:11:"Пол53063";s:6:"search";s:357:"ПОЛУБОТИНКИ ЭСКУЛАП РЕЗИНКА ПУ

ВЕРХ ОБУВИ СНАБЖЕН РЕЗИНОВОЙ ВСТАВКОЙ, НАДЕЖНО ФИКСИРУЮЩЕЙ ОБУВЬ НА НОГЕ ЦВЕТ: БЕЛЫЙ МАТЕРИАЛЫ: ВЕРХ: ИСКУССТВЕННАЯ КОЖА ПОДКЛАДКА: CAMBRELLE ПОДОШВА: ПУ РАЗМЕРЫ: 35-48 .";s:6:"parent";s:2:"75";s:4:"durl";s:47:"rasprodazha/obuv/polubotinki-eskulap-rezinka-pu";s:4:"dtxt";s:296:"Верх обуви снабжен резиновой вставкой, надежно фиксирующей обувь на ноге Цвет: белый Материалы: верх: искусственная кожа подкладка: Cambrelle подошва: ПУ Размеры: 35-48 .";s:4:"dpic";s:28:"/upload/iblock/78e/11178.jpg";s:11:"preview_pic";s:28:"/upload/iblock/66a/11178.jpg";s:4:"bxid";s:6:"201178";s:5:"alias";s:0:"";s:7:"section";s:5:"11732";}i:132;a:14:{s:2:"id";s:4:"1700";s:3:"act";s:1:"N";s:9:"prod_type";s:0:"";s:4:"name";s:65:"Полуботинки хромовые ИТР бортопрош";s:3:"art";s:9:"Пол005";s:6:"search";s:574:"ПОЛУБОТИНКИ ХРОМОВЫЕ ИТР БОРТОПРОШ

ПОДХОДЯТ ДЛЯ РАБОТНИКОВ МУНИЦИПАЛЬНЫХ СЛУЖБ, НЕФТЕХИМИЧЕСКОГО ПРОИЗВОДСТВА И ДРУГИХ ОТРАСЛЕЙ. ИЗГОТОВЛЕНЫ ИЗ ХРОМОВОЙ КОЖИ ЧЁРНОГО ЦВЕТА СО СРЕДНИМ ТИСНЕНИЕМ, ТОЛЩИНОЙ 1,2-1,4 ММ. УСИЛЕННЫЙ ПОДНОСОК. ПОДКЛАДКА: НАТУРАЛЬНАЯ ПОДКЛАДОЧНАЯ КОЖА. ПОДОШВА - ЛИТАЯ РЕЗИНА. РАЗМЕРЫ: 35-46";s:6:"parent";s:2:"75";s:4:"durl";s:53:"rasprodazha/obuv/polubotinki-khromovye-itr-bortoprosh";s:4:"dtxt";s:505:"Подходят для работников муниципальных служб, нефтехимического производства и других отраслей. Изготовлены из хромовой кожи чёрного цвета со средним тиснением, толщиной 1,2-1,4 мм. Усиленный подносок. Подкладка: натуральная подкладочная кожа. Подошва - литая резина. Размеры: 35-46";s:4:"dpic";s:27:"/upload/iblock/d25/7182.jpg";s:11:"preview_pic";s:27:"/upload/iblock/61f/7182.jpg";s:4:"bxid";s:6:"201184";s:5:"alias";s:0:"";s:7:"section";s:5:"11732";}i:133;a:14:{s:2:"id";s:4:"1701";s:3:"act";s:1:"N";s:9:"prod_type";s:0:"";s:4:"name";s:81:"Сапоги Рекордюфть/кирза рег.гол.бортопрошив";s:3:"art";s:9:"Сап103";s:6:"search";s:287:"САПОГИ РЕКОРДЮФТЬ/КИРЗА РЕГ.ГОЛ.БОРТОПРОШИВ

САПОГИ РЕКОРД МАТЕРИАЛЬ: ЮФТЬ/КИРЗА РЕГУЛИРУЮЩИЙ РЕМЕШОК В ОБЛАСТИ ГОЛЕНИЩА МЕТОД КРЕПЛЕНИЯ: БОРТОПРОШИВНОЙ .";s:6:"parent";s:2:"75";s:4:"durl";s:61:"rasprodazha/obuv/sapogi-rekordyuft-kirza-reg-gol-bortoproshiv";s:4:"dtxt";s:202:"Сапоги Рекорд Материаль: юфть/кирза Регулирующий ремешок в области голенища Метод крепления: бортопрошивной .";s:4:"dpic";s:27:"/upload/iblock/814/4548.jpg";s:11:"preview_pic";s:27:"/upload/iblock/bf2/4548.jpg";s:4:"bxid";s:6:"201349";s:5:"alias";s:0:"";s:7:"section";s:5:"11732";}i:134;a:14:{s:2:"id";s:4:"1702";s:3:"act";s:1:"N";s:9:"prod_type";s:0:"";s:4:"name";s:72:"Сапоги Универсал иск.мех, юфть ПУ+ТПУ МП";s:3:"art";s:9:"Сап025";s:6:"search";s:481:"САПОГИ УНИВЕРСАЛ ИСК.МЕХ, ЮФТЬ ПУ+ТПУ МП

НАТУРАЛЬНАЯ КОЖА С ТИСНЕНИЕМ С ВОДОСТОЙКОЙ ПРОПИТКОЙ. ПОЛИУРЕТАНОВАЯ ПОДОШВА ЛИТЬЕВОГО МЕТОДА КРЕПЛЕНИЯ. РЕГУЛИРУЕМОЕ ГОЛИНИЩЕ, УДОБНАЯ ШИРОКАЯ КОЛОДКА, ВЫСОКИЙ ПОДЪЕМ. АММОРТИЗАЦИОННЫЙ СТАБИЛИЗАТОР В ПЯТОЧНОЙ ЧАСТИ. .";s:6:"parent";s:2:"75";s:4:"durl";s:57:"rasprodazha/obuv/sapogi-universal-isk-mekh-yuft-pu-tpu-mp";s:4:"dtxt";s:405:"Натуральная кожа с тиснением с водостойкой пропиткой. Полиуретановая подошва литьевого метода крепления. Регулируемое голинище, удобная широкая колодка, высокий подъем. Аммортизационный стабилизатор в пяточной части. .";s:4:"dpic";s:28:"/upload/iblock/3df/14587.jpg";s:11:"preview_pic";s:28:"/upload/iblock/5ff/14587.jpg";s:4:"bxid";s:6:"201353";s:5:"alias";s:0:"";s:7:"section";s:5:"11732";}i:135;a:14:{s:2:"id";s:4:"1703";s:3:"act";s:1:"N";s:9:"prod_type";s:0:"";s:4:"name";s:16:"Сапоги SPS";s:3:"art";s:9:"Сап184";s:6:"search";s:1181:"САПОГИ SPS

САПОГИ СПЕЦИАЛЬНЫЕ РАБОЧИЕ SPS - ВЫПОЛНЕНЫ ИЗ НАТУРАЛЬНОЙ ВОДОСТОЙКОЙ КОЖИ ПОВЫШЕННОЙ ТОЛЩИНЫ CRAZY HORSE. ВЫСОТА ГОЛЕНИЩА СОСТАВЛЯЕТ ОКОЛО 245ММ, УДОБНАЯ КОЛОДКА АНАТОМИЧЕСКОЙ ФОРМЫ, ПОДНАРЯД ИЗ ДЫШАЩЕГО ИСКУССТВЕННОГО МАТЕРИАЛА, ОСНОВНАЯ АНТИСТАТИЧЕСКАЯ КЕВЛАРОВАЯ АНТИПРОКОЛЬНАЯ СТЕЛЬКА, КОМФОРТНАЯ ВКЛАДНАЯ СТЕЛЬКА. КОЖАНЫЕ САПОГИ SPS ИМЕЮТ КОМПОЗИТНЫЙ ОБЛЕГЧЕННЫЙ ПОДНОСОК УДАРНОЙ ПРОЧНОСТЬЮ 200 ДЖ, ДВУХСЛОЙНАЯ ПОЛИУРЕТАНОВАЯ ПОДОШВА: ДВУХСЛОЙНЫЙ ПОЛИУРЕТАН, АНТИСТАТИЧНАЯ, МАСЛОБЕНЗОСТОЙКАЯ, КИСЛОТОЩЕЛОЧЕСТОЙКАЯ, ИЗНОСОУСТОЙЧИВАЯ, ТЕМПЕРАТУРНЫЙ ДИАПАЗОН ИСПОЛЬЗОВАНИЯ -30°С +100°С, САМООЧИЩАЮЩИЙСЯ ПРОФИЛЬ ХОДОВОЙ ПОВЕРХНОСТИ. .";s:6:"parent";s:2:"75";s:4:"durl";s:27:"rasprodazha/obuv/sapogi-sps";s:4:"dtxt";s:1165:"Сапоги специальные рабочие SPS - выполнены из натуральной водостойкой кожи повышенной толщины Crazy Horse. Высота голенища составляет около 245мм, удобная колодка анатомической формы, поднаряд из дышащего искусственного материала, основная антистатическая кевларовая антипрокольная стелька, комфортная вкладная стелька. Кожаные Сапоги SPS имеют композитный облегченный подносок ударной прочностью 200 Дж, двухслойная полиуретановая подошва: двухслойный полиуретан, антистатичная, маслобензостойкая, кислотощелочестойкая, износоустойчивая, температурный диапазон использования -30°С &#43;100°С, самоочищающийся профиль ходовой поверхности. .";s:4:"dpic";s:28:"/upload/iblock/3ab/11379.jpg";s:11:"preview_pic";s:28:"/upload/iblock/67a/11379.jpg";s:4:"bxid";s:6:"201355";s:5:"alias";s:0:"";s:7:"section";s:5:"11732";}i:136;a:14:{s:2:"id";s:4:"1704";s:3:"act";s:1:"N";s:9:"prod_type";s:0:"";s:4:"name";s:46:"Сапоги детские резиновые";s:3:"art";s:9:"Сап007";s:6:"search";s:103:"САПОГИ ДЕТСКИЕ РЕЗИНОВЫЕ

САПОГИ ДЕТСКИЕ МАТЕРИАЛ ПВХ .";s:6:"parent";s:2:"75";s:4:"durl";s:41:"rasprodazha/obuv/sapogi-detskie-rezinovye";s:4:"dtxt";s:53:"сапоги детские Материал ПВХ .";s:4:"dpic";s:27:"/upload/iblock/ddd/3840.jpg";s:11:"preview_pic";s:27:"/upload/iblock/48d/3840.jpg";s:4:"bxid";s:6:"201357";s:5:"alias";s:0:"";s:7:"section";s:5:"11732";}i:137;a:14:{s:2:"id";s:4:"1705";s:3:"act";s:1:"N";s:9:"prod_type";s:0:"";s:4:"name";s:66:"Сапоги рез. выс. на молнии на каблуке";s:3:"art";s:8:"СРМК";s:6:"search";s:233:"САПОГИ РЕЗ. ВЫС. НА МОЛНИИ НА КАБЛУКЕ

САПОГИ ЖЕНСКИЕ НА КАБЛУКЕ, ИЗГОТОВЛЕННЫЕ ИЗ ОДНОТОННОГО ПВХ (ПОЛИВИНИЛХЛОРИД) НА МОЛНИИ .";s:6:"parent";s:2:"75";s:4:"durl";s:52:"rasprodazha/obuv/sapogi-rez-vys-na-molnii-na-kabluke";s:4:"dtxt";s:171:"Сапоги женские на каблуке, изготовленные из однотонного ПВХ &#40;поливинилхлорид&#41; на молнии .";s:4:"dpic";s:27:"/upload/iblock/c3e/5630.jpg";s:11:"preview_pic";s:27:"/upload/iblock/df7/5630.jpg";s:4:"bxid";s:6:"201412";s:5:"alias";s:0:"";s:7:"section";s:5:"11732";}i:138;a:14:{s:2:"id";s:4:"1706";s:3:"act";s:1:"N";s:9:"prod_type";s:0:"";s:4:"name";s:71:"Сапоги формовые морозостойкие Арктика";s:3:"art";s:9:"Сап002";s:6:"search";s:148:"САПОГИ ФОРМОВЫЕ МОРОЗОСТОЙКИЕ АРКТИКА

САПОГИ ФОРМОВЫЕ МОРОЗОСТОЙКИЕ АРКТИКА .";s:6:"parent";s:2:"75";s:4:"durl";s:54:"rasprodazha/obuv/sapogi-formovye-morozostoykie-arktika";s:4:"dtxt";s:73:"Сапоги формовые морозостойкие Арктика .";s:4:"dpic";s:27:"/upload/iblock/be3/9520.jpg";s:11:"preview_pic";s:27:"/upload/iblock/159/9520.jpg";s:4:"bxid";s:6:"201419";s:5:"alias";s:0:"";s:7:"section";s:5:"11732";}i:139;a:14:{s:2:"id";s:4:"1707";s:3:"act";s:1:"N";s:9:"prod_type";s:0:"";s:4:"name";s:29:"Сапоги формовые";s:3:"art";s:9:"Сап902";s:6:"search";s:380:"САПОГИ ФОРМОВЫЕ

САПОГИ РЕЗИНОВЫЕ ФОРМОВЫЕ РАБОЧИЕ МУЖСКИЕ	 ЗАЩИТНЫЕ СВОЙСТВА: СЫРЬЕ: РЕЗИНА ОПИСАНИЕ: ВЫСОТА 38-40 СМ. ВЕРХ ИЗ НЕЛАКИРОВАННОЙ ЧЁРНОЙ РЕЗИНЫ. РАЗМЕРЫ: 39-47 (24,7-30,7). ГОСТ-5375-79. ЕДИНИЦА ИЗМЕРЕНИЯ: ПАР";s:6:"parent";s:2:"75";s:4:"durl";s:32:"rasprodazha/obuv/sapogi-formovye";s:4:"dtxt";s:378:"Сапоги резиновые формовые рабочие мужские&nbsp;&nbsp;&nbsp;&nbsp; Защитные свойства: Сырье: Резина Описание: Высота 38-40 см. Верх из нелакированной чёрной резины. Размеры: 39-47 &#40;24,7-30,7&#41;. ГОСТ-5375-79. Единица измерения: пар";s:4:"dpic";s:27:"/upload/iblock/7b4/4042.jpg";s:11:"preview_pic";s:27:"/upload/iblock/8b2/4042.jpg";s:4:"bxid";s:6:"201420";s:5:"alias";s:0:"";s:7:"section";s:5:"11732";}i:140;a:14:{s:2:"id";s:4:"1708";s:3:"act";s:1:"N";s:9:"prod_type";s:0:"";s:4:"name";s:80:"Сапоги юф/кирза на иск.меху,бортопрош,регул.";s:3:"art";s:9:"Сап104";s:6:"search";s:341:"САПОГИ ЮФ/КИРЗА НА ИСК.МЕХУ,БОРТОПРОШ,РЕГУЛ.

САПОГИ КОМБИНИРОВАННЫЕ ЮФТЬ/КИРЗА, УТЕПЛЕННЫЕ ИСКУССТВЕННЫМ МЕХМ МЕТОД КРЕПЛЕНИЯ ПОДОШВЫ: БОРТОПРОШИВНОЙ РЕГУЛИРОВКА В ОБЛАСТИ ГОЛЕНИЩА. .";s:6:"parent";s:2:"75";s:4:"durl";s:63:"rasprodazha/obuv/sapogi-yuf-kirza-na-isk-mekhu-bortoprosh-regul";s:4:"dtxt";s:257:"Сапоги комбинированные юфть/кирза, Утепленные искусственным мехм Метод крепления подошвы: бортопрошивной Регулировка в области голенища. .";s:4:"dpic";s:27:"/upload/iblock/4d2/4292.jpg";s:11:"preview_pic";s:27:"/upload/iblock/c0e/4292.jpg";s:4:"bxid";s:6:"201441";s:5:"alias";s:0:"";s:7:"section";s:5:"11732";}i:141;a:14:{s:2:"id";s:4:"1709";s:3:"act";s:1:"Y";s:9:"prod_type";s:0:"";s:4:"name";s:57:"Сапожки ПВХ женские (ботильоны)";s:3:"art";s:5:"ПС5";s:6:"search";s:139:"САПОЖКИ ПВХ ЖЕНСКИЕ (БОТИЛЬОНЫ)

САПОГИ ЖЕНСКИЕ, МАТЕРИАЛ: ПВХ, ВЫСОТА 17 СМ. .";s:6:"parent";s:2:"75";s:4:"durl";s:48:"rasprodazha/obuv/sapozhki-pvkh-zhenskie-botilony";s:4:"dtxt";s:78:"Сапоги Женские, Материал: ПВХ, Высота 17 см. .";s:4:"dpic";s:27:"/upload/iblock/3b6/4055.jpg";s:11:"preview_pic";s:27:"/upload/iblock/660/4055.jpg";s:4:"bxid";s:6:"201442";s:5:"alias";s:0:"";s:7:"section";s:5:"11732";}i:142;a:14:{s:2:"id";s:4:"1710";s:3:"act";s:1:"N";s:9:"prod_type";s:0:"";s:4:"name";s:72:"Сапожки ПВХ женские (ботильоны) цветные";s:3:"art";s:8:"ПС5_С";s:6:"search";s:154:"САПОЖКИ ПВХ ЖЕНСКИЕ (БОТИЛЬОНЫ) ЦВЕТНЫЕ

САПОГИ ЖЕНСКИЕ, МАТЕРИАЛ: ПВХ, ВЫСОТА 17 СМ. .";s:6:"parent";s:2:"75";s:4:"durl";s:57:"rasprodazha/obuv/sapozhki-pvkh-zhenskie-botilony-tsvetnye";s:4:"dtxt";s:78:"Сапоги Женские, Материал: ПВХ, Высота 17 см. .";s:4:"dpic";s:27:"/upload/iblock/7f4/4056.jpg";s:11:"preview_pic";s:27:"/upload/iblock/4c7/4056.jpg";s:4:"bxid";s:6:"201443";s:5:"alias";s:0:"";s:7:"section";s:5:"11732";}i:143;a:14:{s:2:"id";s:4:"1711";s:3:"act";s:1:"N";s:9:"prod_type";s:0:"";s:4:"name";s:39:"Тапки ,г.Новороссийск";s:3:"art";s:7:"ТД_01";s:6:"search";s:43:"ТАПКИ ,Г.НОВОРОССИЙСК

";s:6:"parent";s:2:"75";s:4:"durl";s:37:"rasprodazha/obuv/tapki-g-novorossiysk";s:4:"dtxt";s:0:"";s:4:"dpic";N;s:11:"preview_pic";N;s:4:"bxid";s:6:"201499";s:5:"alias";s:0:"";s:7:"section";s:5:"11732";}i:144;a:14:{s:2:"id";s:4:"1712";s:3:"act";s:1:"N";s:9:"prod_type";s:0:"";s:4:"name";s:79:"Тапки закрытые черные (нат. кожа, кожа прес.)";s:3:"art";s:9:"Тап003";s:6:"search";s:302:"ТАПКИ ЗАКРЫТЫЕ ЧЕРНЫЕ (НАТ. КОЖА, КОЖА ПРЕС.)

ТАПКИ ЗАКРЫТЫЕ ЧЕРНЫЕ ТАПОЧКИ ИЗГОТОВЛЕНЫ ИЗ НАТУРАЛЬНОЙ КОЖИ. РЕКОМЕНДУЕТСЯ ИСПОЛЬЗОВАТЬ В ОТАПЛИВАЕМЫХ ПОМЕЩЕНИЯХ .";s:6:"parent";s:2:"75";s:4:"durl";s:61:"rasprodazha/obuv/tapki-zakrytye-chernye-nat-kozha-kozha-pres-";s:4:"dtxt";s:219:"Тапки закрытые черные Тапочки изготовлены из натуральной кожи. Рекомендуется использовать в отапливаемых помещениях .";s:4:"dpic";s:27:"/upload/iblock/919/4574.jpg";s:11:"preview_pic";s:27:"/upload/iblock/dfe/4574.jpg";s:4:"bxid";s:6:"201501";s:5:"alias";s:0:"";s:7:"section";s:5:"11732";}i:145;a:14:{s:2:"id";s:4:"1713";s:3:"act";s:1:"N";s:9:"prod_type";s:0:"";s:4:"name";s:71:"Сапоги детские резиновые с манжетом р31";s:3:"art";s:9:"Сап008";s:6:"search";s:75:"САПОГИ ДЕТСКИЕ РЕЗИНОВЫЕ С МАНЖЕТОМ Р31

";s:6:"parent";s:2:"75";s:4:"durl";s:57:"rasprodazha/obuv/sapogi-detskie-rezinovye-s-manzhetom-r31";s:4:"dtxt";s:0:"";s:4:"dpic";s:27:"/upload/iblock/607/3842.jpg";s:11:"preview_pic";s:27:"/upload/iblock/77b/3842.jpg";s:4:"bxid";s:6:"202194";s:5:"alias";s:0:"";s:7:"section";s:5:"11732";}i:146;a:14:{s:2:"id";s:4:"1674";s:3:"act";s:1:"N";s:9:"prod_type";s:0:"";s:4:"name";s:40:"Головной убор Каскад-1";s:3:"art";s:9:"Шап100";s:6:"search";s:1091:"ГОЛОВНОЙ УБОР КАСКАД-1

МАТЕРИАЛ ВЕРХА: ВОДОНЕПРОНИЦАЕМАЯ ТКАНЬ С ПОЛИМЕРНЫМ ПОКРЫТИЕМ СО СВОЙСТВАМИ МБС, АНТИСТАТИЧНОСТИ, ПОВЫШЕННОЙ ВЕТРОЗАЩИТНОСТИ. УТЕПЛИТЕЛЬ: ФАЙБЕРТЕК ПОДКЛАДКА: ХЛОПОК ЭКСПЛУАТАЦИОННАЯ ТЕМПЕРАТУРА: ДО -50°С УДЛИНЕННАЯ ПЕЛЕРИНА СПЕЦИАЛЬНОГО КРОЯ ДЛЯ ЗАЩИТЫ ПЛЕЧ И ШЕИ ОТ ВНЕШНЕГО ЗАГРЯЗНЕНИЯ ПРЕДУСМОТРЕНА РЕГУЛИРОВКА РАЗМЕРА ОТ 55 ДО 62 БЕЗ УЩЕРБА ДЛЯ ВНЕШНЕГО ВИДА ИЗДЕЛИЯ И ЕГО ОСНОВНЫМ ФУНКЦИОНАЛЬНЫМ ХАРАКТЕРИСТИКАМ ЗА СЧЕТ УДОБНЫХ ЗАСТЕЖЕК- ВЕЛЬКРО (ЛЕНТА-ЛИПУЧКА) ПЕЛЕРИНА И БОКОВЫЕ ШОРЫ ЛЕГКО УБИРАЮТСЯ И КАСКАД® ТРАНСФОРМИРУЕТСЯ В УДОБНЫЙ УТЕПЛЕННЫЙ ПОДШЛЕМНИК";s:6:"parent";s:2:"74";s:4:"durl";s:38:"rasprodazha/siz/golovnoy-ubor-kaskad-1";s:4:"dtxt";s:1055:"Материал верха: водонепроницаемая ткань с полимерным покрытием со свойствами МБС, антистатичности, повышенной ветрозащитности. Утеплитель: файбертек Подкладка: хлопок Эксплуатационная температура: до -50°С Удлиненная пелерина специального кроя для защиты плеч и шеи от внешнего загрязнения Предусмотрена регулировка размера от 55 до 62 без ущерба для внешнего вида изделия и его основным функциональным характеристикам За счет удобных застежек- велькро &#40;лента-липучка&#41; пелерина и боковые шоры легко убираются и Каскад® трансформируется в удобный утепленный подшлемник";s:4:"dpic";s:28:"/upload/iblock/482/14097.jpg";s:11:"preview_pic";s:28:"/upload/iblock/751/14097.jpg";s:4:"bxid";s:6:"200330";s:5:"alias";s:0:"";s:7:"section";s:5:"11730";}i:147;a:14:{s:2:"id";s:4:"1675";s:3:"act";s:1:"N";s:9:"prod_type";s:0:"";s:4:"name";s:40:"Головной убор Каскад-2";s:3:"art";s:9:"Шап101";s:6:"search";s:952:"ГОЛОВНОЙ УБОР КАСКАД-2

МАТЕРИАЛ ВЕРХА: ТКАНЬ С ВОДООТТАЛКИВАЮЩЕЙ ПРОПИТКОЙ УТЕПЛИТЕЛЬ: ФАЙБЕРТЕК ПОДКЛАДКА: ХЛОПОК ЭКСПЛУАТАЦИОННАЯ ТЕМПЕРАТУРА: ДО -40°С УДЛИНЕННАЯ ПЕЛЕРИНА СПЕЦИАЛЬНОГО КРОЯ ДЛЯ ЗАЩИТЫ ПЛЕЧ И ШЕИ ОТ ВНЕШНЕГО ЗАГРЯЗНЕНИЯ ПРЕДУСМОТРЕНА РЕГУЛИРОВКА РАЗМЕРА ОТ 55 ДО 62 БЕЗ УЩЕРБА ДЛЯ ВНЕШНЕГО ВИДА ИЗДЕЛИЯ И ЕГО ОСНОВНЫМ ФУНКЦИОНАЛЬНЫМ ХАРАКТЕРИСТИКАМ ЗА СЧЕТ УДОБНЫХ ЗАСТЕЖЕК- ВЕЛЬКРО (ЛЕНТА-ЛИПУЧКА) ПЕЛЕРИНА И БОКОВЫЕ ШОРЫ ЛЕГКО УБИРАЮТСЯ И КАСКАД® ТРАНСФОРМИРУЕТСЯ В УДОБНЫЙ УТЕПЛЕННЫЙ ПОДШЛЕМНИК.";s:6:"parent";s:2:"74";s:4:"durl";s:38:"rasprodazha/siz/golovnoy-ubor-kaskad-2";s:4:"dtxt";s:916:"Материал верха: ткань с водоотталкивающей пропиткой Утеплитель: файбертек Подкладка: хлопок Эксплуатационная температура: до -40°С Удлиненная пелерина специального кроя для защиты плеч и шеи от внешнего загрязнения Предусмотрена регулировка размера от 55 до 62 без ущерба для внешнего вида изделия и его основным функциональным характеристикам За счет удобных застежек- велькро &#40;лента-липучка&#41; пелерина и боковые шоры легко убираются и Каскад® трансформируется в удобный утепленный подшлемник.";s:4:"dpic";s:28:"/upload/iblock/425/14098.jpg";s:11:"preview_pic";s:28:"/upload/iblock/e8b/14098.jpg";s:4:"bxid";s:6:"200331";s:5:"alias";s:0:"";s:7:"section";s:5:"11730";}i:148;a:14:{s:2:"id";s:4:"1676";s:3:"act";s:1:"N";s:9:"prod_type";s:0:"";s:4:"name";s:40:"Головной убор Каскад-3";s:3:"art";s:9:"Шап102";s:6:"search";s:1119:"ГОЛОВНОЙ УБОР КАСКАД-3

МАТЕРИАЛ ВЕРХА: ВОДОНЕПРОНИЦАЕМАЯ ТКАНЬ С ПОЛИМЕРНЫМ ПОКРЫТИЕМ СО СВОЙСТВАМИ МБС, АНТИСТАТИЧНОСТИ, ПОВЫШЕННОЙ ВЕТРОЗАЩИТНОСТИ. УТЕПЛИТЕЛЬ: ФАЙБЕРТЕК ПОДКЛАДКА: ХЛОПОК ЭКСПЛУАТАЦИОННАЯ ТЕМПЕРАТУРА: ДО -50°С УДЛИНЕННАЯ ПЕЛЕРИНА СПЕЦИАЛЬНОГО КРОЯ ДЛЯ ЗАЩИТЫ ПЛЕЧ И ШЕИ ОТ ВНЕШНЕГО ЗАГРЯЗНЕНИЯ ПРЕДУСМОТРЕНА РЕГУЛИРОВКА РАЗМЕРА ОТ 55 ДО 62 БЕЗ УЩЕРБА ДЛЯ ВНЕШНЕГО ВИДА ИЗДЕЛИЯ И ЕГО ОСНОВНЫМ ФУНКЦИОНАЛЬНЫМ ХАРАКТЕРИСТИКАМ ЗА СЧЕТ УДОБНЫХ ЗАСТЕЖЕК- ВЕЛЬКРО (ЛЕНТА-ЛИПУЧКА) ПЕЛЕРИНА И БОКОВЫЕ ШОРЫ ЛЕГКО УБИРАЮТСЯ И «КАСКАД®» ТРАНСФОРМИРУЕТСЯ В УДОБНЫЙ УТЕПЛЕННЫЙ ПОДШЛЕМНИК ЦВЕТ: ЧЕРНЫЙ.";s:6:"parent";s:2:"74";s:4:"durl";s:38:"rasprodazha/siz/golovnoy-ubor-kaskad-3";s:4:"dtxt";s:1083:"Материал верха: водонепроницаемая ткань с полимерным покрытием со свойствами МБС, антистатичности, повышенной ветрозащитности. Утеплитель: файбертек Подкладка: хлопок Эксплуатационная температура: до -50°С Удлиненная пелерина специального кроя для защиты плеч и шеи от внешнего загрязнения Предусмотрена регулировка размера от 55 до 62 без ущерба для внешнего вида изделия и его основным функциональным характеристикам За счет удобных застежек- велькро &#40;лента-липучка&#41; пелерина и боковые шоры легко убираются и «Каскад®» трансформируется в удобный утепленный подшлемник Цвет: черный.";s:4:"dpic";s:28:"/upload/iblock/a79/14099.jpg";s:11:"preview_pic";s:28:"/upload/iblock/99a/14099.jpg";s:4:"bxid";s:6:"200332";s:5:"alias";s:0:"";s:7:"section";s:5:"11730";}i:149;a:14:{s:2:"id";s:4:"1677";s:3:"act";s:1:"N";s:9:"prod_type";s:0:"";s:4:"name";s:40:"Головной убор Каскад-4";s:3:"art";s:9:"Шап103";s:6:"search";s:1038:"ГОЛОВНОЙ УБОР КАСКАД-4

МАТЕРИАЛ ВЕРХА: ТКАНЬ С ВОДООТТАЛКИВАЮЩЕЙ ПРОПИТКОЙ УТЕПЛИТЕЛЬ: ФАЙБЕРТЕК ПОДКЛАДКА: ХЛОПОК ЭКСПЛУАТАЦИОННАЯ ТЕМПЕРАТУРА: ДО -40°С УДЛИНЕННАЯ ПЕЛЕРИНА СПЕЦИАЛЬНОГО КРОЯ ДЛЯ ЗАЩИТЫ ПЛЕЧ И ШЕИ ОТ ВНЕШНЕГО ЗАГРЯЗНЕНИЯ ПРЕДУСМОТРЕНА РЕГУЛИРОВКА РАЗМЕРА ОТ 55 ДО 62 БЕЗ УЩЕРБА ДЛЯ ВНЕШНЕГО ВИДА ИЗДЕЛИЯ И ЕГО ОСНОВНЫМ ФУНКЦИОНАЛЬНЫМ ХАРАКТЕРИСТИКАМ ЗА СЧЕТ УДОБНЫХ ЗАСТЕЖЕК- ВЕЛЬКРО (ЛЕНТА-ЛИПУЧКА) ПЕЛЕРИНА И БОКОВЫЕ ШОРЫ ЛЕГКО УБИРАЮТСЯ И «КАСКАД®» ТРАНСФОРМИРУЕТСЯ В УДОБНЫЙ УТЕПЛЕННЫЙ ПОДШЛЕМНИК. ЦВЕТ: ЧЕРНО-СИНИЙ СО СВЕТООТРАЖАЮЩЕЙ ЛЕНТОЙ.";s:6:"parent";s:2:"74";s:4:"durl";s:38:"rasprodazha/siz/golovnoy-ubor-kaskad-4";s:4:"dtxt";s:1002:"Материал верха: ткань с водоотталкивающей пропиткой Утеплитель: файбертек Подкладка: хлопок Эксплуатационная температура: до -40°С Удлиненная пелерина специального кроя для защиты плеч и шеи от внешнего загрязнения Предусмотрена регулировка размера от 55 до 62 без ущерба для внешнего вида изделия и его основным функциональным характеристикам За счет удобных застежек- велькро &#40;лента-липучка&#41; пелерина и боковые шоры легко убираются и «Каскад®» трансформируется в удобный утепленный подшлемник. Цвет: черно-синий со светоотражающей лентой.";s:4:"dpic";s:28:"/upload/iblock/5eb/14100.jpg";s:11:"preview_pic";s:28:"/upload/iblock/782/14100.jpg";s:4:"bxid";s:6:"200333";s:5:"alias";s:0:"";s:7:"section";s:5:"11730";}i:150;a:14:{s:2:"id";s:4:"1678";s:3:"act";s:1:"N";s:9:"prod_type";s:0:"";s:4:"name";s:48:"Каска Байкал люкс цв.синий";s:3:"art";s:12:"Кас136725";s:6:"search";s:1308:"КАСКА БАЙКАЛ ЛЮКС ЦВ.СИНИЙ

МАТЕРИАЛ КОРПУСА: ПОЛИЭТИЛЕН НИЗКОГО ДАВЛЕНИЯ (ПНД) МАССА: 434 Г. ВНУТРЕННЯЯ ОСНАСТКА: ТЕКСТИЛЬНАЯ ДИАПАЗОН РЕГУЛИРОВКИ РАЗМЕРА: 54-64 СМ. РЕГУЛЯТОР РАЗМЕРА - ФИКСИРОВАННЫЙ. ЭЛЕКТРОИЗОЛЯЦИЯ: 2000 В. ЭКСПЛУАТАЦИОННАЯ ТЕМПЕРАТУРА: ОТ -40° С ДО +50° С. КОМПЛЕКТУЕТСЯ ПОДБОРОЧНЫМ РЕМНЕМ И ЛЕНТОЙ ОТ ПОТА. ПРЕДУСМОТРЕНО МЕСТО ДЛЯ НАНЕСЕНИЯ ЛОГОТИПА. ПРИМЕНЕНИЕ: ПРЕДНАЗНАЧЕНА ДЛЯ ЗАЩИТЫ ГОЛОВЫ ОТ ПАДАЮЩИХ ПРЕДМЕТОВ И БОКОВОГО УДАРА, А ТАКЖЕ ОБЕСПЕЧИВАЕТ ДОПОЛНИТЕЛЬНУЮ ЗАЩИТУ ОТ ДРУГИХ МЕХАНИЧЕСКИХ ВОЗДЕЙСТВИЙ, ТЕПЛА, ЭЛЕКТРИЧЕСКОГО ТОКА РАБОТНИКОВ СТРОИТЕЛЬНОЙ, НЕФТЯНОЙ, ГАЗОВОЙ, ЛЕСНОЙ, ХИМИЧЕСКОЙ, ДЕРЕВООБРАБАТЫВАЮЩЕЙ, МАШИНОСТРОИТЕЛЬНОЙ, СУДОСТРОИТЕЛЬНОЙ И ЭНЕРГЕТИЧЕСКОЙ ПРОМЫШЛЕННОСТИ.";s:6:"parent";s:2:"74";s:4:"durl";s:44:"rasprodazha/siz/kaska-baykal-lyuks-tsv-siniy";s:4:"dtxt";s:1268:"Материал корпуса: полиэтилен низкого давления &#40;ПНД&#41; Масса: 434 г. Внутренняя оснастка: текстильная Диапазон регулировки размера: 54-64 см. Регулятор размера - фиксированный. Электроизоляция: 2000 В. Эксплуатационная температура: от -40° С до &#43;50° С. Комплектуется подборочным ремнем и лентой от пота. Предусмотрено место для нанесения логотипа. Применение: предназначена для защиты головы от падающих предметов и бокового удара, а также обеспечивает дополнительную защиту от других механических воздействий, тепла, электрического тока работников строительной, нефтяной, газовой, лесной, химической, деревообрабатывающей, машиностроительной, судостроительной и энергетической промышленности.";s:4:"dpic";s:28:"/upload/iblock/ba2/14210.jpg";s:11:"preview_pic";s:28:"/upload/iblock/318/14210.jpg";s:4:"bxid";s:6:"200374";s:5:"alias";s:0:"";s:7:"section";s:5:"11730";}i:151;a:14:{s:2:"id";s:4:"1679";s:3:"act";s:1:"N";s:9:"prod_type";s:0:"";s:4:"name";s:43:"Каска Бленхейм цв.белый";s:3:"art";s:12:"Кас116601";s:6:"search";s:1300:"КАСКА БЛЕНХЕЙМ ЦВ.БЕЛЫЙ

МАТЕРИАЛ КОРПУСА: ПОЛИЭТИЛЕН НИЗКОГО ДАВЛЕНИЯ (ПНД) МАССА: 392 Г. ВНУТРЕННЯЯ ОСНАСТКА: ПЛАСТИКОВАЯ ДИАПАЗОН РЕГУЛИРОВКИ РАЗМЕРА: 53-63 СМ. РЕГУЛЯТОР РАЗМЕРА: ФИКСИРОВАННЫЙ ЭЛЕКТРОИЗОЛЯЦИЯ: 440 В. ЭКСПЛУАТАЦИОННАЯ ТЕМПЕРАТУРА: ОТ -20° С ДО +50° С. КОМПЛЕКТУЕТСЯ ПОДБОРОЧНЫМ РЕМНЕМ И ЛЕНТОЙ ОТ ПОТА. ПРЕДУСМОТРЕНО МЕСТО ДЛЯ НАНЕСЕНИЯ ЛОГОТИПА. ПРИМЕНЕНИЕ: ПРЕДНАЗНАЧЕНА ДЛЯ ЗАЩИТЫ ГОЛОВЫ ОТ ПАДАЮЩИХ ПРЕДМЕТОВ И БОКОВОГО УДАРА, А ТАКЖЕ ОБЕСПЕЧИВАЕТ ДОПОЛНИТЕЛЬНУЮ ЗАЩИТУ ОТ ДРУГИХ МЕХАНИЧЕСКИХ ВОЗДЕЙСТВИЙ, ТЕПЛА, ЭЛЕКТРИЧЕСКОГО ТОКА РАБОТНИКОВ СТРОИТЕЛЬНОЙ, НЕФТЯНОЙ, ГАЗОВОЙ, ЛЕСНОЙ, ХИМИЧЕСКОЙ, ДЕРЕВООБРАБАТЫВАЮЩЕЙ, МАШИНОСТРОИТЕЛЬНОЙ, СУДОСТРОИТЕЛЬНОЙ И ЭНЕРГЕТИЧЕСКОЙ ПРОМЫШЛЕННОСТИ.";s:6:"parent";s:2:"74";s:4:"durl";s:41:"rasprodazha/siz/kaska-blenkheym-tsv-belyy";s:4:"dtxt";s:1265:"Материал корпуса: полиэтилен низкого давления &#40;ПНД&#41; Масса: 392 г. Внутренняя оснастка: пластиковая Диапазон регулировки размера: 53-63 см. Регулятор размера: фиксированный Электроизоляция: 440 В. Эксплуатационная температура: от -20° С до &#43;50° С. Комплектуется подборочным ремнем и лентой от пота. Предусмотрено место для нанесения логотипа. Применение: предназначена для защиты головы от падающих предметов и бокового удара, а также обеспечивает дополнительную защиту от других механических воздействий, тепла, электрического тока работников строительной, нефтяной, газовой, лесной, химической, деревообрабатывающей, машиностроительной, судостроительной и энергетической промышленности.";s:4:"dpic";s:28:"/upload/iblock/755/14211.jpg";s:11:"preview_pic";s:28:"/upload/iblock/5c6/14211.jpg";s:4:"bxid";s:6:"200375";s:5:"alias";s:0:"";s:7:"section";s:5:"11730";}i:152;a:14:{s:2:"id";s:4:"1680";s:3:"act";s:1:"N";s:9:"prod_type";s:0:"";s:4:"name";s:34:"Каска PELTOR G3000 белая";s:3:"art";s:9:"Кас019";s:6:"search";s:2103:"КАСКА PELTOR G3000 БЕЛАЯ

КАСКА ЗАЩИТНАЯ G3000 ВЫПОЛНЕНА МЕТОДОМ ЛИТЬЕВОГО ФОРМОВАНИЯ ПОД ДАВЛЕНИЕМ ИЗ ABS ПЛАСТИКА, УСТОЙЧИВОГО К ВОЗДЕЙСТВИЮ УЛЬТРАФИОЛЕТОВОГО ИЗЛУЧЕНИЯ. ЛЕГКАЯ РЕГУЛИРОВКА ПО РАЗМЕРУ ГОЛОВЫ. ПОД ДЛИТЕЛЬНЫМ ВОЗДЕЙСТВИЕМ УЛЬТРАФИОЛЕТОВОГО ИЗЛУЧЕНИЯ ПЛАСТИК ЛЮБЫХ ЗАЩИТНЫХ КАСОК СТАНОВИТСЯ ХРУПКИМ. ИНДИКАТОР UVICATOR НАХОДИТСЯ НА ВНЕШНЕЙ СТОРОНЕ КАСКИ PELTOR G3000. КОГДА КАСКА НОВАЯ, ИНДИКАТОР КРАСНЫЙ, ПОД ВОЗДЕЙСТВИЕМ УЛЬТРАФИОЛЕТОВОГО ИЗЛУЧЕНИЯ ИНДИКАТОР ПОСТЕПЕННО ВЫЦВЕТАЕТ. КАК ТОЛЬКО ОН ОКОНЧАТЕЛЬНО ПОТЕРЯЕТ СВОЙ ЦВЕТ, НЕОБХОДИМО СРОЧНО ЗАМЕНИТЬ КАСКУ. КОНСТРУКЦИЯ КАСКИ ПРЕДУСМАТРИВАЕТ МАКСИМАЛЬНУЮ АМОРТИЗАЦИЮ И РАВНОМЕРНОЕ РАСПРЕДЕЛЕНИЕ УДАРНЫХ НАГРУЗОК. КАСКА ХАРАКТЕРИЗУЕТСЯ ОТСУТСТВИЕМ ВЫСТУПАЮЩИХ ЧАСТЕЙ, ЧТО ПОВЫШАЕТ ЕЕ ЗАЩИТНЫЕ СВОЙСТВА, А УКОРОЧЕННЫЙ КОЗЫРЕК УЛУЧШАЕТ ОБЗОР. ОГОЛОВЬЕ ИЗ ТЕКСТИЛЬНЫХ ЛЕНТ ИМЕЕТ 4 ТОЧКИ КРЕПЛЕНИЯ. ЯВЛЯЕТСЯ ОДНОЙ ИЗ САМЫХ ЛЕГКИХ ЗАЩИТНЫХ КАСОК НА РЫНКЕ (310 Г) ИМЕЕТ БОЛЬШЕЕ КОЛИЧЕСТВО ВЕНТИЛЯЦИОННЫХ ОТВЕРСТИЙ, РАЗНЕСЕННЫХ ПО БОЛЬШЕЙ ПЛОЩАДИ, ДЛЯ ОПТИМАЛЬНОЙ ВЕНТИЛЯЦИИ ПАЗЫ ДЛЯ КРЕПЛЕНИЯ ПРОТИВОШУМНЫХ НАУШНИКОВ И ЗАЩИТНЫХ ЩИТКОВ. ВОЗМОЖНОСТЬ УСТАНОВКИ ЗАЩИТНЫХ ОЧКОВ V6 КОМПАНИИ PELTOR.";s:6:"parent";s:2:"74";s:4:"durl";s:41:"rasprodazha/siz/kaska-peltor-g3000-belaya";s:4:"dtxt";s:2073:"Каска защитная G3000 выполнена методом литьевого формования под давлением из ABS пластика, устойчивого к воздействию ультрафиолетового излучения. Легкая регулировка по размеру головы. Под длительным воздействием ультрафиолетового излучения пластик любых защитных касок становится хрупким. Индикатор Uvicator находится на внешней стороне каски Peltor G3000. Когда каска новая, индикатор красный, под воздействием ультрафиолетового излучения индикатор постепенно выцветает. Как только он окончательно потеряет свой цвет, необходимо срочно заменить каску. Конструкция каски предусматривает максимальную амортизацию и равномерное распределение ударных нагрузок. Каска характеризуется отсутствием выступающих частей, что повышает ее защитные свойства, а укороченный козырек улучшает обзор. Оголовье из текстильных лент имеет 4 точки крепления. Является одной из самых легких защитных касок на рынке &#40;310 г&#41; Имеет большее количество вентиляционных отверстий, разнесенных по большей площади, для оптимальной вентиляции Пазы для крепления противошумных наушников и защитных щитков. Возможность установки защитных очков V6 компании Peltor.";s:4:"dpic";s:27:"/upload/iblock/6e5/7173.jpg";s:11:"preview_pic";s:27:"/upload/iblock/98f/7173.jpg";s:4:"bxid";s:6:"200376";s:5:"alias";s:0:"";s:7:"section";s:5:"11730";}i:153;a:14:{s:2:"id";s:4:"1681";s:3:"act";s:1:"Y";s:9:"prod_type";s:0:"";s:4:"name";s:42:"Каска PELTOR G3000 оранжевая";s:3:"art";s:9:"Кас020";s:6:"search";s:2111:"КАСКА PELTOR G3000 ОРАНЖЕВАЯ

КАСКА ЗАЩИТНАЯ G3000 ВЫПОЛНЕНА МЕТОДОМ ЛИТЬЕВОГО ФОРМОВАНИЯ ПОД ДАВЛЕНИЕМ ИЗ ABS ПЛАСТИКА, УСТОЙЧИВОГО К ВОЗДЕЙСТВИЮ УЛЬТРАФИОЛЕТОВОГО ИЗЛУЧЕНИЯ. ЛЕГКАЯ РЕГУЛИРОВКА ПО РАЗМЕРУ ГОЛОВЫ. ПОД ДЛИТЕЛЬНЫМ ВОЗДЕЙСТВИЕМ УЛЬТРАФИОЛЕТОВОГО ИЗЛУЧЕНИЯ ПЛАСТИК ЛЮБЫХ ЗАЩИТНЫХ КАСОК СТАНОВИТСЯ ХРУПКИМ. ИНДИКАТОР UVICATOR НАХОДИТСЯ НА ВНЕШНЕЙ СТОРОНЕ КАСКИ PELTOR G3000. КОГДА КАСКА НОВАЯ, ИНДИКАТОР КРАСНЫЙ, ПОД ВОЗДЕЙСТВИЕМ УЛЬТРАФИОЛЕТОВОГО ИЗЛУЧЕНИЯ ИНДИКАТОР ПОСТЕПЕННО ВЫЦВЕТАЕТ. КАК ТОЛЬКО ОН ОКОНЧАТЕЛЬНО ПОТЕРЯЕТ СВОЙ ЦВЕТ, НЕОБХОДИМО СРОЧНО ЗАМЕНИТЬ КАСКУ. КОНСТРУКЦИЯ КАСКИ ПРЕДУСМАТРИВАЕТ МАКСИМАЛЬНУЮ АМОРТИЗАЦИЮ И РАВНОМЕРНОЕ РАСПРЕДЕЛЕНИЕ УДАРНЫХ НАГРУЗОК. КАСКА ХАРАКТЕРИЗУЕТСЯ ОТСУТСТВИЕМ ВЫСТУПАЮЩИХ ЧАСТЕЙ, ЧТО ПОВЫШАЕТ ЕЕ ЗАЩИТНЫЕ СВОЙСТВА, А УКОРОЧЕННЫЙ КОЗЫРЕК УЛУЧШАЕТ ОБЗОР. ОГОЛОВЬЕ ИЗ ТЕКСТИЛЬНЫХ ЛЕНТ ИМЕЕТ 4 ТОЧКИ КРЕПЛЕНИЯ. ЯВЛЯЕТСЯ ОДНОЙ ИЗ САМЫХ ЛЕГКИХ ЗАЩИТНЫХ КАСОК НА РЫНКЕ (310 Г) ИМЕЕТ БОЛЬШЕЕ КОЛИЧЕСТВО ВЕНТИЛЯЦИОННЫХ ОТВЕРСТИЙ, РАЗНЕСЕННЫХ ПО БОЛЬШЕЙ ПЛОЩАДИ, ДЛЯ ОПТИМАЛЬНОЙ ВЕНТИЛЯЦИИ ПАЗЫ ДЛЯ КРЕПЛЕНИЯ ПРОТИВОШУМНЫХ НАУШНИКОВ И ЗАЩИТНЫХ ЩИТКОВ. ВОЗМОЖНОСТЬ УСТАНОВКИ ЗАЩИТНЫХ ОЧКОВ V6 КОМПАНИИ PELTOR.";s:6:"parent";s:2:"74";s:4:"durl";s:46:"rasprodazha/siz/kaska-peltor-g3000-oranzhevaya";s:4:"dtxt";s:2073:"Каска защитная G3000 выполнена методом литьевого формования под давлением из ABS пластика, устойчивого к воздействию ультрафиолетового излучения. Легкая регулировка по размеру головы. Под длительным воздействием ультрафиолетового излучения пластик любых защитных касок становится хрупким. Индикатор Uvicator находится на внешней стороне каски Peltor G3000. Когда каска новая, индикатор красный, под воздействием ультрафиолетового излучения индикатор постепенно выцветает. Как только он окончательно потеряет свой цвет, необходимо срочно заменить каску. Конструкция каски предусматривает максимальную амортизацию и равномерное распределение ударных нагрузок. Каска характеризуется отсутствием выступающих частей, что повышает ее защитные свойства, а укороченный козырек улучшает обзор. Оголовье из текстильных лент имеет 4 точки крепления. Является одной из самых легких защитных касок на рынке &#40;310 г&#41; Имеет большее количество вентиляционных отверстий, разнесенных по большей площади, для оптимальной вентиляции Пазы для крепления противошумных наушников и защитных щитков. Возможность установки защитных очков V6 компании Peltor.";s:4:"dpic";s:27:"/upload/iblock/eac/7957.jpg";s:11:"preview_pic";s:27:"/upload/iblock/d7e/7957.jpg";s:4:"bxid";s:6:"200377";s:5:"alias";s:0:"";s:7:"section";s:5:"11730";}i:154;a:14:{s:2:"id";s:4:"1682";s:3:"act";s:1:"N";s:9:"prod_type";s:0:"";s:4:"name";s:56:"Маска электросварщика Катран-1";s:3:"art";s:12:"Мас251149";s:6:"search";s:3180:"МАСКА ЭЛЕКТРОСВАРЩИКА КАТРАН-1

МАСКА ЭЛЕКТРОСВАРЩИКА «КАТРАН 1®» С АВТОМАТИЧЕСКИ ЗАТЕМНЯЕМЫМ СВЕТОФИЛЬТРОМ (АСФ) ХАМЕЛЕОН С ФИКСИРОВАННОЙ СТЕПЕНЬЮ ЗАТЕМНЕНИЯ . ОСОБАЯ КОНСТРУКЦИЯ И ТЕХНОЛОГИЯ ИЗГОТОВЛЕНИЯ (ЛИТЬЕ) КОРПУСА ПОЗВОЛИЛИ ПОЛУЧИТЬ ЛЕГКУЮ, ЭРГОНОМИЧНУЮ МАСКУ ОБЕСПЕЧИВАЮЩУЮ МИНИМАЛЬНОЕ НАПРЯЖЕНИЕ МЫШЦ ШЕИ. СОЧЕТАНИЕ ЛИТЬЕВОЙ ТЕХНОЛОГИИ И ВЫСОКОКАЧЕСТВЕННОГО МАТЕРИАЛА (ПОЛИАМИД) ОБЕСПЕЧИВАЕТ ВЫСОКУЮ МЕХАНИЧЕСКУЮ И ТЕРМИЧЕСКУЮ ПРОЧНОСТЬ КОРПУСА ЩИТКА. ОБЕСПЕЧИВАЕТ ЗАЩИТУ ОТ БРЫЗГ РАСПЛАВЛЕННОГО МЕТАЛЛА. МАССА: 470 Г. КОРПУС: МАТЕРИАЛ - ПОЛИАМИД. ОГОЛОВЬЕ: ПЛАСТИКОВОЕ, С РЕГУЛИРОВКОЙ РАЗМЕРА КОЛЕСОМ- ХРАПОВИКОМ. 2 СПОСОБА РЕГУЛИРОВКИ РАССТОЯНИЯ МЕЖДУ ЛИЦОМ И МАСКОЙ ПОЗВОЛЯЮТ ИСПОЛЬЗОВАТЬ РЕСПИРАТОР, 5 СТЕПЕНЕЙ РЕГУЛИРОВКИ ПО УГЛУ НАКЛОНА: СИСТЕМА САМОБЛОКИРОВКИ НАДЕЖНО ПРЕДОТВРАЩАЕТ САМОПРОИЗВОЛЬНОЕ ИЗМЕНЕНИЕ РАЗМЕРОВ ОГОЛОВЬЯ. АСФ: СРАБАТЫВАЕТ АВТОМАТИЧЕСКИ ПРИ ИЗМЕНЕНИИ ОСВЕЩЕННОСТИ. СТЕПЕНЬ ЗАТЕМНЕНИЯ АСФ ПОДБИРАЕТСЯ В ЗАВИСИМОСТИ ОТ ВИДА И РЕЖИМА СВАРКИ. АСФ АВТОМАТИЧЕСКИ ВЫКЛЮЧАЕТСЯ ЧЕРЕЗ 5 МИНУТ ПОСЛЕ ОКОНЧАНИЯ РАБОТЫ. ПОСЛЕ ВЫКЛЮЧЕНИЯ АККУМУЛЯТОРЫ СВЕТОФИЛЬТРА СОХРАНЯЮТ НАКОПЛЕННЫЙ ЗАРЯД В ТЕЧЕНИИ ДЛИТЕЛЬНОГО ВРЕМЕНИ. С ВНЕШНЕЙ СТОРОНЫ АСФ ЗАКРЫТ ЗАЩИТНЫМИ СТЕКЛАМИ ИЗ ПОЛИКАРБОНАТА ДЛЯ ЗАЩИТЫ ОТ МЕХАНИЧЕСКИХ ПОВРЕЖДЕНИЙ. ОСОБАЯ КОНСТРУКЦИЯ КРЕПЕЖНОЙ РАМКИ ОБЕСПЕЧИВАЕТ НАДЕЖНОЕ КРЕПЛЕНИЕ СВЕТОФИЛЬТРА И ПРЕДОТВРАЩАЕТ ПОПАДАНИЕ СВАРОЧНЫХ ДЫМОВ В ПОДМАСОЧНОЕ ПРОСТРАНСТВО. СВЕТОФИЛЬТР: РАЗМЕР СВЕТОФИЛЬТРА: 110Х90 ММ. ПОЛЕ ЗРЕНИЯ: 88Х34 ММ. СКОРОСТЬ ЗАТЕМНЕНИЯ: 0,0001 СЕК. СКОРОСТЬ ПРОСВЕТЛЕНИЯ СВЕТОФИЛЬТРА: 0,3-0,5 СЕК. СТЕПЕНЬ ЗАТЕМНЕНИЯ СВЕТОФИЛЬТРА: В НЕАКТИВНОМ ПОЛОЖЕНИИ: 3 DIN, В АКТИВНОМ: 10 ИЛИ 11 DIN. ПИТАНИЕ: АККУМУЛЯТОРЫ С ПОДЗАРЯДКОЙ ОТ СОЛНЕЧНЫХ БАТАРЕЙ. РАБОЧАЯ ТЕМПЕРАТУРА: ОТ -5°С ДО +55°С.";s:6:"parent";s:2:"74";s:4:"durl";s:49:"rasprodazha/siz/maska-elektrosvarshchika-katran-1";s:4:"dtxt";s:3148:"Маска электросварщика «Катран 1®» с автоматически затемняемым светофильтром &#40;АСФ&#41; Хамелеон с фиксированной степенью затемнения . Особая конструкция и технология изготовления &#40;литье&#41; корпуса позволили получить легкую, эргономичную маску обеспечивающую минимальное напряжение мышц шеи. Сочетание литьевой технологии и высококачественного материала &#40;полиамид&#41; обеспечивает высокую механическую и термическую прочность корпуса щитка. Обеспечивает защиту от брызг расплавленного металла. Масса: 470 г. Корпус: Материал - полиамид. Оголовье: пластиковое, с регулировкой размера колесом- храповиком. 2 способа регулировки расстояния между лицом и маской позволяют использовать респиратор, 5 степеней регулировки по углу наклона: система самоблокировки надежно предотвращает самопроизвольное изменение размеров оголовья. АСФ: срабатывает автоматически при изменении освещенности. Степень затемнения АСФ подбирается в зависимости от вида и режима сварки. АСФ автоматически выключается через 5 минут после окончания работы. После выключения аккумуляторы светофильтра сохраняют накопленный заряд в течении длительного времени. С внешней стороны АСФ закрыт защитными стеклами из поликарбоната для защиты от механических повреждений. Особая конструкция крепежной рамки обеспечивает надежное крепление светофильтра и предотвращает попадание сварочных дымов в подмасочное пространство. Светофильтр: Размер светофильтра: 110х90 мм. Поле зрения: 88х34 мм. Скорость затемнения: 0,0001 сек. Скорость просветления светофильтра: 0,3-0,5 сек. Степень затемнения светофильтра: в неактивном положении: 3 DIN, в активном: 10 или 11 DIN. Питание: аккумуляторы с подзарядкой от солнечных батарей. Рабочая температура: от -5°С до &#43;55°С.";s:4:"dpic";s:28:"/upload/iblock/627/14208.jpg";s:11:"preview_pic";s:28:"/upload/iblock/2a5/14208.jpg";s:4:"bxid";s:6:"200834";s:5:"alias";s:0:"";s:7:"section";s:5:"11730";}i:155;a:14:{s:2:"id";s:4:"1683";s:3:"act";s:1:"N";s:9:"prod_type";s:0:"";s:4:"name";s:23:"Очки Палермо";s:3:"art";s:10:"Очк1147";s:6:"search";s:318:"ОЧКИ ПАЛЕРМО

ОСОБО ЛЕГКИЕ ОЧКИ ДЛЯ ЗАЩИТЫ ОТ ЛЕТЯЩИХ ЧАСТИЦ И ЯРКОГО СВЕТА. ЛИНЗА: ПОЛИКАРБОНАТ ДУЖКИ: ПОЛИАМИД МАССА: 22 Г. СПЕЦИАЛЬНЫЕ МЯГКИЕ ПОЛИМЕРНЫЕ ВСТАВКИ НА ДУЖКАХ. .";s:6:"parent";s:2:"74";s:4:"durl";s:29:"rasprodazha/siz/ochki-palermo";s:4:"dtxt";s:291:"Особо легкие очки для защиты от летящих частиц и яркого света. Линза: поликарбонат Дужки: полиамид Масса: 22 г. Специальные мягкие полимерные вставки на дужках. .";s:4:"dpic";s:28:"/upload/iblock/8fa/14203.jpg";s:11:"preview_pic";s:28:"/upload/iblock/606/14203.jpg";s:4:"bxid";s:6:"200959";s:5:"alias";s:0:"";s:7:"section";s:5:"11730";}i:156;a:14:{s:2:"id";s:4:"1684";s:3:"act";s:1:"Y";s:9:"prod_type";s:0:"";s:4:"name";s:61:"Очки Премиум непрямая вентиляция";s:3:"art";s:10:"Очк2122";s:6:"search";s:550:"ОЧКИ ПРЕМИУМ НЕПРЯМАЯ ВЕНТИЛЯЦИЯ

ШИРОКАЯ ПОЛОСА ОБТЮРАЦИИ И ШИРОКАЯ ЭЛАСТИЧНАЯ ЛЕНТА НАГОЛОВНОГО КРЕПЛЕНИЯ ОБЕСПЕЧИВАЮТ ПОВЫШЕННЫЙ КОМФОРТ ИСПОЛЬЗОВАНИЯ В ТЕЧЕНИЕ ВСЕГО РАБОЧЕГО ДНЯ. УДОБНЫЕ НАДЕЖНЫЕ ЗАКРЫТЫЕ ОЧКИ ПРЕМИУМ-КЛАССА. МАТЕРИАЛ ОПРАВЫ: ЭЛАСТИЧНЫЙ ПВХ ЛИНЗА: ПОЛИКАРБОНАТ МАССА: 106 Г. .";s:6:"parent";s:2:"74";s:4:"durl";s:54:"rasprodazha/siz/ochki-premium-nepryamaya-ventilyatsiya";s:4:"dtxt";s:485:"Широкая полоса обтюрации и широкая эластичная лента наголовного крепления обеспечивают повышенный комфорт использования в течение всего рабочего дня. Удобные надежные закрытые очки премиум-класса. Материал оправы: эластичный ПВХ Линза: поликарбонат Масса: 106 г. .";s:4:"dpic";s:28:"/upload/iblock/29e/14201.jpg";s:11:"preview_pic";s:28:"/upload/iblock/328/14201.jpg";s:4:"bxid";s:6:"200960";s:5:"alias";s:0:"";s:7:"section";s:5:"11730";}i:157;a:14:{s:2:"id";s:4:"1685";s:3:"act";s:1:"N";s:9:"prod_type";s:0:"";s:4:"name";s:44:"Очки Престиж прозрачные";s:3:"art";s:10:"Очк1121";s:6:"search";s:365:"ОЧКИ ПРЕСТИЖ ПРОЗРАЧНЫЕ

ЛЕГКИЕ УДОБНЫЕ ОЧКИ С ХОРОШЕЙ ПОСАДКОЙ. ЛИНЗА: ПОЛИКАРБОНАТ, ПРОЗРАЧНАЯ ДУЖКИ: ПОЛИАМИД МАССА: 35 Г. МЯГКАЯ ПВХ НАКЛАДКА НА ПЕРЕНОСИЦЕ, РЕГУЛИРОВКА ПО ДЛИНЕ И УГЛУ ПОСТАНОВКИ .";s:6:"parent";s:2:"74";s:4:"durl";s:42:"rasprodazha/siz/ochki-prestizh-prozrachnye";s:4:"dtxt";s:317:"Легкие удобные очки с хорошей посадкой. Линза: поликарбонат, прозрачная Дужки: полиамид Масса: 35 г. Мягкая ПВХ накладка на переносице, Регулировка по длине и углу постановки .";s:4:"dpic";s:28:"/upload/iblock/07d/14204.jpg";s:11:"preview_pic";s:28:"/upload/iblock/419/14204.jpg";s:4:"bxid";s:6:"200961";s:5:"alias";s:0:"";s:7:"section";s:5:"11730";}i:158;a:14:{s:2:"id";s:4:"1686";s:3:"act";s:1:"N";s:9:"prod_type";s:0:"";s:4:"name";s:17:"Очки Элит";s:3:"art";s:10:"Очк2115";s:6:"search";s:352:"ОЧКИ ЭЛИТ

ПОЛНАЯ ЗАЩИТА ГЛАЗ ОТ АГРЕССИВНЫХ ЖИДКОСТЕЙ. МАТЕРИАЛ ОПРАВЫ: ЭЛАСТИЧНЫЙ ПВХ МАТЕРИАЛ ЛИНЗЫ: АЦЕТАТ ПОКРЫТИЕ: ДВУХСТОРОННЕЕ АНТИЗАПОТЕВАЮЩЕЕ И ПОКРЫТИЕ ПРОТИВ ЦАРАПИН МАССА: 115 Г. .";s:6:"parent";s:2:"74";s:4:"durl";s:26:"rasprodazha/siz/ochki-elit";s:4:"dtxt";s:331:"Полная защита глаз от агрессивных жидкостей. Материал оправы: эластичный ПВХ Материал линзы: ацетат Покрытие: двухстороннее антизапотевающее и покрытие против царапин Масса: 115 г. .";s:4:"dpic";s:28:"/upload/iblock/b35/14202.jpg";s:11:"preview_pic";s:28:"/upload/iblock/639/14202.jpg";s:4:"bxid";s:6:"200962";s:5:"alias";s:0:"";s:7:"section";s:5:"11730";}i:159;a:14:{s:2:"id";s:4:"1687";s:3:"act";s:1:"N";s:9:"prod_type";s:0:"";s:4:"name";s:32:"Щиток Аллигатор-02";s:3:"art";s:10:"Щит3101";s:6:"search";s:288:"ЩИТОК АЛЛИГАТОР-02

СОВРЕМЕННЫЙ ЛЕГКИЙ ЩИТОК С НАДЕЖНЫМ И УДОБНЫМ КРЕПЛЕНИЕМ НА КАСКУ. МАТЕРИАЛ АДАПТЕРА: ПОЛИАМИД МАТЕРИАЛ ЭКРАНА: ПОЛИКАРБОНАТ МАССА: 255 Г. .";s:6:"parent";s:2:"74";s:4:"durl";s:37:"rasprodazha/siz/shchitok-alligator-02";s:4:"dtxt";s:252:"Современный легкий щиток с надежным и удобным креплением на каску. Материал адаптера: полиамид Материал экрана: поликарбонат Масса: 255 г. .";s:4:"dpic";s:28:"/upload/iblock/8ae/14205.jpg";s:11:"preview_pic";s:28:"/upload/iblock/8c3/14205.jpg";s:4:"bxid";s:6:"201834";s:5:"alias";s:0:"";s:7:"section";s:5:"11730";}i:160;a:14:{s:2:"id";s:3:"548";s:3:"act";s:1:"N";s:9:"prod_type";s:0:"";s:4:"name";s:44:"Ботинки Форвард иск. мех";s:3:"art";s:9:"Бот600";s:6:"search";s:1167:"БОТИНКИ ФОРВАРД ИСК. МЕХ

МЕТОД КРЕПЛЕНИЯ: ЛИТЬЕВОЙ МАТЕРИАЛ ПОДОШВЫ: ПУ-ПУ СВОЙСТВА: НС; НМ; З; К20 РАЗМЕРЫ: 36-47 ВЕРХ: СОЮЗКА, БЕРЦЫ, ЗАДИНКА - НАТУРАЛЬНАЯ КОЖА, ФИГУРНАЯ МЯГКАЯ ВСТАВКА И ГЛУХОЙ ПРОТИВОПЫЛЕВЫЙ КЛАПАН ИЗ ИСКУССТВЕННОЙ КОЖИ, УТЕПЛЁННЫЕ ИСКУССТВЕННЫМ МЕХОМ, ОСНОВНАЯ СТЕЛЬКА ИЗ ШТРОБЕЛЬНОГО МАТЕРИАЛА, КОМФОРТНАЯ ВКЛАДНАЯ СТЕЛЬКА ИЗ КОЖКАРТОНА ДУБЛИРОВАННОГО ИСКУССТВЕННЫМ МЕХОМ, ЖЕСТКИЙ ФОРМОВАННЫЙ ПОДНОСОК, УДОБНАЯ КОЛОДКА АНАТОМИЧЕСКОЙ ФОРМЫ. ПОДОШВА: МАСЛОБЕНЗОСТОЙКОСТЬ, КИСЛОТОСТОЙКОСТЬ, ПОВЫШЕННАЯ ИЗНОСОУСТОЙЧИВОСТЬ, ТЕМПЕРАТУРНЫЙ ДИАПАЗОН ИСПОЛЬЗОВАНИЯ -25°С +120°С, САМООЧИЩАЮЩИЙСЯ ПРОФИЛЬ ХОДОВОЙ ПОВЕРХНОСТИ.";s:6:"parent";s:2:"24";s:4:"durl";s:36:"rasprodazha/botinki-forvard-isk-mekh";s:4:"dtxt";s:1123:"Метод крепления: литьевой Материал подошвы: ПУ-ПУ Свойства: Нс; Нм; З; К20 Размеры: 36-47 Верх: союзка, берцы, задинка - натуральная кожа, фигурная мягкая вставка и глухой противопылевый клапан из искусственной кожи, утеплённые искусственным мехом, основная стелька из штробельного материала, комфортная вкладная стелька из кожкартона дублированного искусственным мехом, жесткий формованный подносок, удобная колодка анатомической формы. Подошва: маслобензостойкость, кислотостойкость, повышенная износоустойчивость, температурный диапазон использования -25°С &#43;120°С, самоочищающийся профиль ходовой поверхности.";s:4:"dpic";s:27:"/upload/iblock/4cd/4136.jpg";s:11:"preview_pic";s:27:"/upload/iblock/e6a/4136.jpg";s:4:"bxid";s:6:"200236";s:5:"alias";s:0:"";s:7:"section";s:5:"11669";}i:161;a:14:{s:2:"id";s:3:"549";s:3:"act";s:1:"N";s:9:"prod_type";s:0:"";s:4:"name";s:75:"Ботинки Форвард литьев. крепл, подошва ПУ";s:3:"art";s:9:"Бот601";s:6:"search";s:474:"БОТИНКИ ФОРВАРД ЛИТЬЕВ. КРЕПЛ, ПОДОШВА ПУ

ВЕРХ: СОЮЗКА, БЕРЦЫ, ЗАДИНКА - НАТУРАЛЬНАЯ КОЖА. ГЛУХОЙ ПРОТИВОПЫЛЬНЫЙ КЛАПАН ИЗ ИСКУССТВЕННОЙ КОЖИ. ПОЛИУРЕТАНОВАЯ ПОДОШВА ОБЛАДАЕТ МАСЛОБЕНЗОСТОЙКОСТЬЮ, КИСЛОТОЩЕЛОЧЕСТОЙКОСТЬЮ ПОВЫШЕННОЙ ИЗНОСОУСТОИЧИВОСТЬЮ. .";s:6:"parent";s:2:"24";s:4:"durl";s:51:"rasprodazha/botinki-forvard-litev-krepl-podoshva-pu";s:4:"dtxt";s:395:"Верх: союзка, берцы, задинка - натуральная кожа. Глухой противопыльный клапан из искусственной кожи. Полиуретановая подошва обладает маслобензостойкостью, кислотощелочестойкостью повышенной износоустоичивостью. .";s:4:"dpic";s:27:"/upload/iblock/112/4486.jpg";s:11:"preview_pic";s:27:"/upload/iblock/729/4486.jpg";s:4:"bxid";s:6:"200237";s:5:"alias";s:0:"";s:7:"section";s:5:"11669";}i:162;a:14:{s:2:"id";s:3:"550";s:3:"act";s:1:"N";s:9:"prod_type";s:0:"";s:4:"name";s:81:"Костюм жен. Орион зимний (к+пк) цв.василек СОП";s:3:"art";s:9:"Кос644";s:6:"search";s:415:"КОСТЮМ ЖЕН. ОРИОН ЗИМНИЙ (К+ПК) ЦВ.ВАСИЛЕК СОП

КОСТЮМ ЖЕНСКИЙ УТЕПЛЕННЫЙ ЦВЕТ: ТЕМНО-СИНИЙ С СОП ТКАНЬ ВЕРХА: СМЕСОВАЯ ПОДКЛАДКА: ТАФФЕТА, 100% ПОЛИЭСТЕР УТЕПЛИТЕЛЬ СИНТЕПОН: В КУРТКЕ - 360 ГР/М; В П/К 240 ГР/М. ЗАЩИТНЫЕ СВОЙСТВА: ВУ, ТН .";s:6:"parent";s:2:"24";s:4:"durl";s:58:"rasprodazha/kostyum-zhen-orion-zimniy-k-pk-tsv-vasilek-sop";s:4:"dtxt";s:334:"Костюм женский утепленный Цвет: темно-синий с СОП Ткань верха: Смесовая Подкладка: таффета, 100&#37; полиэстер Утеплитель синтепон: в куртке - 360 гр/м; в п/к 240 гр/м. Защитные свойства: Ву, Тн .";s:4:"dpic";s:28:"/upload/iblock/ce5/13537.jpg";s:11:"preview_pic";s:28:"/upload/iblock/bc9/13537.jpg";s:4:"bxid";s:6:"200568";s:5:"alias";s:0:"";s:7:"section";s:5:"11669";}i:163;a:14:{s:2:"id";s:3:"551";s:3:"act";s:1:"N";s:9:"prod_type";s:0:"";s:4:"name";s:62:"Куртка Соня детская цв.персиковый";s:3:"art";s:9:"Кур032";s:6:"search";s:146:"КУРТКА СОНЯ ДЕТСКАЯ ЦВ.ПЕРСИКОВЫЙ

КУРТКА ДЕТСКАЯ УТЕПЛЕННАЯ ЦВЕТ ПЕРСИКОВЫЙ .";s:6:"parent";s:2:"24";s:4:"durl";s:48:"rasprodazha/kurtka-sonya-detskaya-tsv-persikovyy";s:4:"dtxt";s:80:"Куртка детская утепленная Цвет персиковый .";s:4:"dpic";s:28:"/upload/iblock/b89/14135.jpg";s:11:"preview_pic";s:28:"/upload/iblock/19b/14135.jpg";s:4:"bxid";s:6:"200793";s:5:"alias";s:0:"";s:7:"section";s:5:"11669";}i:164;a:14:{s:2:"id";s:3:"552";s:3:"act";s:1:"N";s:9:"prod_type";s:0:"";s:4:"name";s:81:"Сабо мужские (утепленные) Тобол (без задника)";s:3:"art";s:9:"Саб506";s:6:"search";s:163:"САБО МУЖСКИЕ (УТЕПЛЕННЫЕ) ТОБОЛ (БЕЗ ЗАДНИКА)

МАТЕРИАЛ: ЭВА. СРОК ГОДНОСТИ НЕ ОГРАНИЧЕН. .";s:6:"parent";s:2:"24";s:4:"durl";s:54:"rasprodazha/sabo-muzhskie-uteplennye-tobol-bez-zadnika";s:4:"dtxt";s:78:"Материал: ЭВА. Срок годности не ограничен. .";s:4:"dpic";s:28:"/upload/iblock/90c/10297.jpg";s:11:"preview_pic";s:28:"/upload/iblock/5f3/10297.jpg";s:4:"bxid";s:6:"201333";s:5:"alias";s:0:"";s:7:"section";s:5:"11669";}i:165;a:14:{s:2:"id";s:3:"553";s:3:"act";s:1:"N";s:9:"prod_type";s:0:"";s:4:"name";s:30:"Сабо мужские ЭВА";s:3:"art";s:9:"Саб420";s:6:"search";s:1298:"САБО МУЖСКИЕ ЭВА

МАТЕРИАЛ: ЭВА. СРОК ГОДНОСТИ НЕ ОГРАНИЧЕН. ОБУВЬ ИЗ ЭВА: В 4 РАЗА ЛЕГЧЕ РЕЗИНОВЫХ АНАЛОГОВ, АБСОЛЮТНО НЕПРОМОКАЕМЫМА, ПРОЧНА (МЕТОД ИЗГОТОВЛЕНИЯ - БЕСШОВНОЕ МОНОЛИТНОЕ ЛИТЬЕ), ТЕПЛАЯ (МАТЕРИАЛ ЭВА УДЕРЖИВАЕТ КОМФОРТНУЮ ТЕМПЕРАТУРУ НОГИ ПРОДОЛЖИТЕЛЬНОЕ ВРЕМЯ), ЭЛАСТИЧНАЯ (ДАЖЕ НА МОРОЗЕ В 20 ГРАДУСОВ ОБУВЬ ИЗ ЭВА НЕ «ДУБЕЕТ»), ИЗНОСОСТОЙКАЯ И НЕСКОЛЬЗЯЩАЯ, ЯРКАЯ (ПОЛИМЕР СОХРАНЯЕТ ЦВЕТ НА ПРОТЯЖЕНИИ ВСЕГО СРОКА СЛУЖБЫ ИЗДЕЛИЯ), БЕЗОПАСНАЯ (ЭТИЛВИНИЛАЦЕТАТ -ГИПОАЛЛЕРГЕНЕН, НЕ ПОДВЕРЖЕН ВОЗДЕЙСТВИЮ ГРИБКОВ И БАКТЕРИЙ), ПОЛЕЗНАЯ ДЛЯ ЗДОРОВЬЯ (ВНУТРЕННЯЯ ПОВЕРХНОСТЬ ПОДОШВЫ АНАТОМИЧЕСКОЙ ФОРМЫ, С СУПИНАТОРОМ - ПРОФИЛАКТИКА ПЛОСКОСТОПИЯ). ЦВЕТ: ЧЕРНЫЙ РАЗМЕРЫ: 35-40. ПРОДАЖА КОРОБКАМИ ПО 25 ПАР.";s:6:"parent";s:2:"24";s:4:"durl";s:29:"rasprodazha/sabo-muzhskie-eva";s:4:"dtxt";s:1312:"Материал: ЭВА. Срок годности не ограничен. Обувь из ЭВА: в 4 раза легче резиновых аналогов, абсолютно непромокаемыма, прочна &#40;метод изготовления - бесшовное монолитное литье&#41;, теплая &#40;материал ЭВА удерживает комфортную температуру ноги продолжительное время&#41;, эластичная &#40;даже на морозе в 20 градусов обувь из ЭВА не «дубеет»&#41;, износостойкая и нескользящая, яркая &#40;полимер сохраняет цвет на протяжении всего срока службы изделия&#41;, безопасная &#40;этилвинилацетат -гипоаллергенен, не подвержен воздействию грибков и бактерий&#41;, полезная для здоровья &#40;внутренняя поверхность подошвы анатомической формы, с супинатором - профилактика плоскостопия&#41;. Цвет: черный Размеры: 35-40. Продажа коробками по 25 пар.";s:4:"dpic";s:28:"/upload/iblock/ad9/13262.jpg";s:11:"preview_pic";s:28:"/upload/iblock/1c4/13262.jpg";s:4:"bxid";s:6:"201334";s:5:"alias";s:0:"";s:7:"section";s:5:"11669";}i:166;a:14:{s:2:"id";s:3:"554";s:3:"act";s:1:"N";s:9:"prod_type";s:0:"";s:4:"name";s:27:"Сланцы женские";s:3:"art";s:9:"Слн001";s:6:"search";s:197:"СЛАНЦЫ ЖЕНСКИЕ

СЛАНЦЫ ЖЕНСКИЕ РАЗМЕРНЫЙ РЯД: ЖЕНСКИЕ: 36-37, 37-38, 38-39, 39-40, 40-41 - АССОРТИМЕНТНЫЕ КОРОБА ПО 120 ПАР .";s:6:"parent";s:2:"24";s:4:"durl";s:28:"rasprodazha/slantsy-zhenskie";s:4:"dtxt";s:166:"Сланцы женские Размерный ряд: Женские: 36-37, 37-38, 38-39, 39-40, 40-41 - ассортиментные короба по 120 пар .";s:4:"dpic";s:27:"/upload/iblock/b23/7231.jpg";s:11:"preview_pic";s:27:"/upload/iblock/178/7231.jpg";s:4:"bxid";s:6:"201463";s:5:"alias";s:0:"";s:7:"section";s:5:"11669";}i:167;a:14:{s:2:"id";s:3:"555";s:3:"act";s:1:"Y";s:9:"prod_type";s:0:"";s:4:"name";s:78:"Тапочки суконные на искусств. меху (бабуши)";s:3:"art";s:9:"Тап006";s:6:"search";s:592:"ТАПОЧКИ СУКОННЫЕ НА ИСКУССТВ. МЕХУ (БАБУШИ)

БОТИКИ ЖЕНСКИЕ С ОКАНТОВКОЙ ИЗГОТОВЛЕНЫ ИЗ СУКОННОГО ПОЛОТНА, ДУБЛИРОВАННОГО ИСКУССТВЕННЫМ МЕХОМ, И МОРОЗОСТОЙКОГО ПВХ. ПОДОШВА ПЛОСКАЯ, С МЕЛКИМ РИФЛЕНИЕМ, УСТОЙЧИВАЯ. СТЕЛЬКА ИЗ ИСКУССТВЕННОГО МЕХА, ВШИВНАЯ. МЕХОВАЯ ОПУШКА. РАЗМЕРЫ: 36 - 41. ВЫСОТА: 11 СМ. ГЛУБИНА ПРОТЕКТОРА: 2 ММ. .";s:6:"parent";s:2:"24";s:4:"durl";s:55:"rasprodazha/tapochki-sukonnye-na-iskusstv-mekhu-babushi";s:4:"dtxt";s:510:"Ботики женские с окантовкой изготовлены из суконного полотна, дублированного искусственным мехом, и морозостойкого ПВХ. Подошва плоская, с мелким рифлением, устойчивая. Стелька из искусственного меха, вшивная. Меховая опушка. Размеры: 36 - 41. Высота: 11 см. Глубина протектора: 2 мм. .";s:4:"dpic";s:27:"/upload/iblock/402/4327.jpg";s:11:"preview_pic";s:27:"/upload/iblock/2dd/4327.jpg";s:4:"bxid";s:6:"201507";s:5:"alias";s:0:"";s:7:"section";s:5:"11669";}i:168;a:14:{s:2:"id";s:3:"556";s:3:"act";s:1:"N";s:9:"prod_type";s:0:"";s:4:"name";s:78:"Тапочки суконные на искусств. меху (дедуши)";s:3:"art";s:9:"Тап004";s:6:"search";s:568:"ТАПОЧКИ СУКОННЫЕ НА ИСКУССТВ. МЕХУ (ДЕДУШИ)

БОТИКИ МУЖСКИЕ ИЗГОТОВЛЕНЫ ИЗ СУКОННОГО ПОЛОТНА, ДУБЛИРОВАННОГО ИСКУССТВЕННЫМ МЕХОМ, И МОРОЗОСТОЙКОГО ПВХ. ПОДОШВА ПЛОСКАЯ, С МЕЛКИМ РИФЛЕНИЕМ, УСТОЙЧИВАЯ. СТЕЛЬКА ИЗ ИСКУССТВЕННОГО МЕХА, ВШИВНАЯ. МЕХОВАЯ ОПУШКА. РАЗМЕРЫ: 40 - 46. ВЫСОТА: 13 СМ. ГЛУБИНА ПРОТЕКТОРА: 2 ММ. .";s:6:"parent";s:2:"24";s:4:"durl";s:55:"rasprodazha/tapochki-sukonnye-na-iskusstv-mekhu-dedushi";s:4:"dtxt";s:486:"Ботики мужские изготовлены из суконного полотна, дублированного искусственным мехом, и морозостойкого ПВХ. Подошва плоская, с мелким рифлением, устойчивая. Стелька из искусственного меха, вшивная. Меховая опушка. Размеры: 40 - 46. Высота: 13 см. Глубина протектора: 2 мм. .";s:4:"dpic";N;s:11:"preview_pic";N;s:4:"bxid";s:6:"201508";s:5:"alias";s:0:"";s:7:"section";s:5:"11669";}i:169;a:14:{s:2:"id";s:3:"557";s:3:"act";s:1:"N";s:9:"prod_type";s:0:"";s:4:"name";s:73:"Халат Экстра (№12) тк.Габардин цв.зеленый";s:3:"art";s:9:"Хал123";s:6:"search";s:677:"ХАЛАТ ЭКСТРА (№12) ТК.ГАБАРДИН ЦВ.ЗЕЛЕНЫЙ

.ХАЛАТ ЭКСТРА ПРЯМОГО СИЛУЭТА С ЗАСТЕЖКОЙ НА ТЕСЬМУ-МОЛНИЮ И ФИГУРНОЙ КОКЕТКОЙ. РУКАВА КОРОТКИЕ. ДВА НАКЛАДНЫХ КАРМАНА. ПО ВОРОТУ, КАРМАНАМ, КОКЕТКЕ, РУКАВАМ И ПОЛОЧКАМ ОТДЕЛКА КАНТОМ. ПО ЛИНИИ ТАЛИИ РЕГУЛИРУЕТСЯ ХЛЯСТИКОМ. В БОКОВЫХ ШВАХ СДЕЛАНЫ РАЗРЕЗЫ. ЦВЕТ: ЗЕЛЕНЫЙ ТКАНЬ: ГАБАРДИН (100% ПОЛИЭФИР) РАЗМЕР: УТОЧНЯЙТЕ У МЕНЕДЖЕРА .";s:6:"parent";s:2:"24";s:4:"durl";s:52:"rasprodazha/khalat-ekstra-12-tk-gabardin-tsv-zelenyy";s:4:"dtxt";s:612:".Халат Экстра Прямого силуэта с застежкой на тесьму-молнию и фигурной кокеткой. Рукава короткие. Два накладных кармана. По вороту, карманам, кокетке, рукавам и полочкам отделка кантом. По линии талии регулируется хлястиком. В боковых швах сделаны разрезы. Цвет: зеленый Ткань: Габардин &#40;100&#37; полиэфир&#41; Размер: уточняйте у менеджера .";s:4:"dpic";s:28:"/upload/iblock/040/10027.jpg";s:11:"preview_pic";s:28:"/upload/iblock/84d/10027.jpg";s:4:"bxid";s:6:"201743";s:5:"alias";s:0:"";s:7:"section";s:5:"11669";}i:170;a:14:{s:2:"id";s:3:"558";s:3:"act";s:1:"N";s:9:"prod_type";s:0:"";s:4:"name";s:78:"Костюм Охрана зимний,черный (к+пк) р.52-54/182-188";s:3:"art";s:9:"Кос711";s:6:"search";s:82:"КОСТЮМ ОХРАНА ЗИМНИЙ,ЧЕРНЫЙ (К+ПК) Р.52-54/182-188

";s:6:"parent";s:2:"24";s:4:"durl";s:63:"rasprodazha/kostyum-okhrana-zimniy-chernyy-k-pk-r-52-54-182-188";s:4:"dtxt";s:0:"";s:4:"dpic";s:27:"/upload/iblock/c5f/3261.jpg";s:11:"preview_pic";s:27:"/upload/iblock/507/3261.jpg";s:4:"bxid";s:6:"202020";s:5:"alias";s:0:"";s:7:"section";s:5:"11669";}i:171;a:14:{s:2:"id";s:3:"559";s:3:"act";s:1:"N";s:9:"prod_type";s:0:"";s:4:"name";s:54:"Костюм Комбат березка 56-58/170-176";s:3:"art";s:9:"Кос340";s:6:"search";s:58:"КОСТЮМ КОМБАТ БЕРЕЗКА 56-58/170-176

";s:6:"parent";s:2:"24";s:4:"durl";s:48:"rasprodazha/kostyum-kombat-berezka-56-58-170-176";s:4:"dtxt";s:0:"";s:4:"dpic";s:28:"/upload/iblock/310/13213.jpg";s:11:"preview_pic";s:28:"/upload/iblock/c43/13213.jpg";s:4:"bxid";s:6:"202044";s:5:"alias";s:0:"";s:7:"section";s:5:"11669";}i:172;a:14:{s:2:"id";s:3:"560";s:3:"act";s:1:"N";s:9:"prod_type";s:0:"";s:4:"name";s:53:"Плащ прорезиненный М1 60-62/182-188";s:3:"art";s:9:"Пла005";s:6:"search";s:57:"ПЛАЩ ПРОРЕЗИНЕННЫЙ М1 60-62/182-188

";s:6:"parent";s:2:"24";s:4:"durl";s:50:"rasprodazha/plashch-prorezinennyy-m1-60-62-182-188";s:4:"dtxt";s:0:"";s:4:"dpic";s:28:"/upload/iblock/e70/11200.jpg";s:11:"preview_pic";s:28:"/upload/iblock/13f/11200.jpg";s:4:"bxid";s:6:"202156";s:5:"alias";s:0:"";s:7:"section";s:5:"11669";}i:173;a:14:{s:2:"id";s:3:"561";s:3:"act";s:1:"N";s:9:"prod_type";s:0:"";s:4:"name";s:47:"Сабо мужские (нат.кожа) р.44";s:3:"art";s:9:"Саб404";s:6:"search";s:51:"САБО МУЖСКИЕ (НАТ.КОЖА) Р.44

";s:6:"parent";s:2:"24";s:4:"durl";s:40:"rasprodazha/sabo-muzhskie-nat-kozha-r-44";s:4:"dtxt";s:0:"";s:4:"dpic";s:27:"/upload/iblock/a05/4535.jpg";s:11:"preview_pic";s:27:"/upload/iblock/8cf/4535.jpg";s:4:"bxid";s:6:"202263";s:5:"alias";s:0:"";s:7:"section";s:5:"11669";}i:174;a:14:{s:2:"id";s:3:"562";s:3:"act";s:1:"N";s:9:"prod_type";s:0:"";s:4:"name";s:47:"Сабо мужские (нат.кожа) р.39";s:3:"art";s:9:"Саб404";s:6:"search";s:49:"САБО МУЖСКИЕ (НАТ.КОЖА) Р.39
";s:6:"parent";s:2:"24";s:4:"durl";s:40:"rasprodazha/sabo-muzhskie-nat-kozha-r-39";s:4:"dtxt";s:0:"";s:4:"dpic";s:28:"/upload/iblock/54b/11582.jpg";s:11:"preview_pic";s:28:"/upload/iblock/fad/11582.jpg";s:4:"bxid";s:6:"202265";s:5:"alias";s:0:"";s:7:"section";s:5:"11669";}}}}s:8:"end_time";i:1562391678;}