a:2:{s:4:"data";a:8:{s:2:"id";s:1:"7";s:5:"title";s:0:"";s:4:"prop";s:0:"";s:5:"alias";s:14:"obuv-rabochaya";s:4:"name";s:25:"обувь рабочая";s:6:"parent";s:1:"0";s:7:"parents";a:0:{}s:8:"children";a:2:{s:10:"categories";a:5:{i:0;a:6:{s:2:"id";s:1:"8";s:5:"title";s:0:"";s:4:"prop";s:0:"";s:5:"alias";s:18:"obuv-iz-pvkh-i-eva";s:4:"name";s:32:"обувь из пвх и ева";s:6:"parent";s:1:"7";}i:1;a:6:{s:2:"id";s:2:"18";s:5:"title";s:0:"";s:4:"prop";s:0:"";s:5:"alias";s:25:"obuv-zimnyaya-uteplennaya";s:4:"name";s:42:"обув зимняя утепленная";s:6:"parent";s:1:"7";}i:2;a:6:{s:2:"id";s:2:"19";s:5:"title";s:0:"";s:4:"prop";s:0:"";s:5:"alias";s:13:"obuv-letnyaya";s:4:"name";s:23:"обувь летняя";s:6:"parent";s:1:"7";}i:3;a:6:{s:2:"id";s:2:"22";s:5:"title";s:0:"";s:4:"prop";s:0:"";s:5:"alias";s:18:"obuv-povsednevnaya";s:4:"name";s:35:"обувь повседневная";s:6:"parent";s:1:"7";}i:4;a:6:{s:2:"id";s:2:"33";s:5:"title";s:0:"";s:4:"prop";s:0:"";s:5:"alias";s:14:"obuv-valyanaya";s:4:"name";s:23:"обув валяная";s:6:"parent";s:1:"7";}}s:8:"products";a:140:{i:0;a:20:{s:2:"id";s:3:"809";s:3:"act";s:1:"N";s:9:"prod_type";s:0:"";s:4:"name";s:25:"Валенки на Р/П";s:3:"art";s:9:"Вал102";s:4:"sort";s:3:"100";s:6:"search";s:985:"ВАЛЕНКИ НА Р/П
ПРОИЗВОДСТВО РОССИЯ. ВАЛЕНКИ НАТУРАЛЬНЫЕ (100 % ШЕРСТЬ) НА ОБРЕЗИНЕННОЙ, МАСЛОБЕНЗОСТОЙКОЙ ПОДОШВЕ, ПРЕДНАЗНАЧЕНЫ ДЛЯ ЭКСПЛУАТАЦИИ В УСЛОВИЯХ НИЗКИХ ТЕМПЕРАТУР. ВЫСОТА 42 СМ. ИННОВАЦИОННЫЙ ВУЛКАНИЗАЦИОННЫЙ МЕТОД КРЕПЛЕНИЯ ПОДОШВЫ ОБЕСПЕЧИВАЕТ ГАРАНТИРОВАННОЕ КАЧЕСТВО, ДОЛГОВЕЧНОСТЬ НОСКИ И СТОЙКОСТЬ К ВЛАГЕ. ПОДОШВА СТОЙКАЯ К ВОЗДЕЙСТВИЮ, МАСЛА, НЕФТЕПРОДУКТОВ. РЕЛЬЕФНЫЙ РИСУНОК ПОДОШВЫ ОБЕСПЕЧИВАЕТ НАДЕЖНОЕ СЦЕПЛЕНИЕ СО СКОЛЬЗЯЩИМИ ПОВЕРХНОСТЯМИ. УПАКОВАНЫ В ПОЛИПРОПИЛЕНОВЫЙ МЕШОК ПО: 24(37)-26(39) - 15 ПАР 27(40)-33(46) - 10 ПАР";s:6:"parent";s:2:"33";s:4:"durl";s:44:"obuv-rabochaya/obuv-valyanaya/valenki-na-r-p";s:4:"dtxt";s:1002:"Производство Россия. Валенки натуральные &#40;100 &#37; шерсть&#41; на обрезиненной, маслобензостойкой подошве, предназначены для эксплуатации в условиях низких температур. Высота 42 см. Инновационный вулканизационный метод крепления подошвы обеспечивает гарантированное качество, долговечность носки и стойкость к влаге. Подошва стойкая к воздействию, масла, нефтепродуктов. Рельефный рисунок подошвы обеспечивает надежное сцепление со скользящими поверхностями. Упакованы в полипропиленовый мешок по: 24&#40;37&#41;-26&#40;39&#41; - 15 пар 27&#40;40&#41;-33&#40;46&#41; - 10 пар";s:4:"dpic";s:13:"/230/4158.jpg";s:11:"preview_pic";s:13:"/c97/4158.jpg";s:4:"bxid";s:6:"200301";s:5:"alias";s:14:"valenki-na-r-p";s:7:"section";s:5:"11683";s:5:"title";s:0:"";s:11:"description";s:0:"";s:8:"keywords";s:0:"";s:5:"price";s:1:"0";s:9:"old-price";s:1:"0";}i:1;a:20:{s:2:"id";s:3:"810";s:3:"act";s:1:"N";s:9:"prod_type";s:0:"";s:4:"name";s:14:"Валенки";s:3:"art";s:9:"Вал101";s:4:"sort";s:3:"100";s:6:"search";s:464:"ВАЛЕНКИ
ПРОИЗВОДСТВО РОССИЯ. ВАЛЕНКИ СЕРЫЕ ИЗ 100% ГРУБОЙ ШЕРСТИ. ПРЕДНАЗНАЧЕНЫ ДЛЯ ЗАЩИТЫ ОТ ПОНИЖЕННЫХ ТЕМПЕРАТУР В ЛЮБЫХ СФЕРАХ ЖИЗНЕДЕЯТЕЛЬНОСТИ. РЕКОМЕНДОВАНО ИСПОЛЬЗОВАТЬ ДО -40С. УПАКОВАНЫ В ПОЛИПРОПИЛЕНОВЫЙ МЕШОК ПО: 24(37)-26(39) - 15 ПАР 27(40)-34(47) - 10 ПАР .";s:6:"parent";s:2:"33";s:4:"durl";s:37:"obuv-rabochaya/obuv-valyanaya/valenki";s:4:"dtxt";s:484:"Производство Россия. Валенки серые из 100&#37; грубой шерсти. Предназначены для защиты от пониженных температур в любых сферах жизнедеятельности. Рекомендовано использовать до -40С. Упакованы в полипропиленовый мешок по: 24&#40;37&#41;-26&#40;39&#41; - 15 пар 27&#40;40&#41;-34&#40;47&#41; - 10 пар .";s:4:"dpic";s:13:"/b0f/4165.jpg";s:11:"preview_pic";s:13:"/7fd/4165.jpg";s:4:"bxid";s:6:"200302";s:5:"alias";s:7:"valenki";s:7:"section";s:5:"11683";s:5:"title";s:0:"";s:11:"description";s:0:"";s:8:"keywords";s:0:"";s:5:"price";s:1:"0";s:9:"old-price";s:1:"0";}i:2;a:20:{s:2:"id";s:3:"811";s:3:"act";s:1:"N";s:9:"prod_type";s:0:"";s:4:"name";s:77:"Стельки грубошерстяные войлочные толстые";s:3:"art";s:8:"Стфт";s:4:"sort";s:3:"100";s:6:"search";s:1676:"СТЕЛЬКИ ГРУБОШЕРСТЯНЫЕ ВОЙЛОЧНЫЕ ТОЛСТЫЕ

СТЕЛЬКИ ИЗ НАТУРАЛЬНОЙ ОВЕЧЬЕЙ ШЕРСТИ ПРЕКРАСНО ПОДХОДЯТ ДЛЯ ИСПОЛЬЗОВАНИЯ ПРИ НИЗКИХ ТЕМПЕРАТУРАХ. ОЧЕНЬ ТЕПЛЫЕ И ОЧЕНЬ УДОБНЫЕ, БЛАГОДАРЯ ИМ, В ЛЮБУЮ НЕПОГОДУ И В САМЫЙ СИЛЬНЫЙ МОРОЗ ВАШИ НОГИ ВСЕГДА В ТЕПЛЕ. МЯГКИЕ СТЕЛЬКИ АМОРТИЗИРУЮТ ШАГ И СМЯГЧАЮТ НАГРУЗКУ НА СУСТАВЫ. СТЕЛЬКИ ВОЙЛОЧНЫЕ ПРАКТИЧНЫ, ДОЛГОВЕЧНЫ, УДОБНЫ, А САМОЕ ГЛАВНОЕ ТЕПЛЫ И ОЧЕНЬ ЭФФЕКТИВНЫ КАК ДЛЯ УТЕПЛЕНИЯ ОБУВИ, ТАК И ДЛЯ ОБЕСПЕЧЕНИЯ КОМФОРТНОГО И ЗДОРОВОГО СОСТОЯНИЯ СТОПЫ. БЛАГОДАРЯ НИЗКОЙ ТЕПЛОПРОВОДНОСТИ ОВЕЧЬЕЙ ШЕРСТИ, ВОЙЛОЧНЫЕ СТЕЛЬКИ НАДЁЖНО ЗАЩИЩАЮТ НОГИ ОТ ХОЛОДА ОСОБЕННО ДЛЯ ТЕХ, КТО РАБОТАЕТ НА УЛИЦЕ, ОХОТНИКОВ, РЫБАКОВ, СТРОИТЕЛЕЙ, ГЕОЛОГОВ, ШАХТЕРОВ, ВОЕННОСЛУЖАЩИХ. СТЕЛЬКИ ВОЙЛОЧНЫЕ ИМЕЮТ РЯД ПРЕИМУЩЕСТВ: - ОТЛИЧНО ПРОПУСКАЮТ ВОЗДУХ - ДЫШАТ - ИМЕЮТ УНИКАЛЬНУЮ НИЗКУЮ ТЕПЛОПРОВОДНОСТЬ - МАЛО ВЕСЯТ - ПОД МЕХАНИЧЕСКОЙ НАГРУЗКОЙ НЕ СМИНАЮТСЯ - ИЗНОСТОЙКИ И ЭКОЛОГИЧЕСКИ ЧИСТЫ.";s:6:"parent";s:2:"33";s:4:"durl";s:72:"obuv-rabochaya/obuv-valyanaya/stelki-grubosherstyanye-voylochnye-tolstye";s:4:"dtxt";s:1595:"Стельки из натуральной овечьей шерсти прекрасно подходят для использования при низких температурах. Очень теплые и очень удобные, благодаря им, в любую непогоду и в самый сильный мороз ваши ноги всегда в тепле. Мягкие стельки амортизируют шаг и смягчают нагрузку на суставы. Стельки войлочные практичны, долговечны, удобны, а самое главное теплы и очень эффективны как для утепления обуви, так и для обеспечения комфортного и здорового состояния стопы. Благодаря низкой теплопроводности овечьей шерсти, войлочные стельки надёжно защищают ноги от холода особенно для тех, кто работает на улице, охотников, рыбаков, строителей, геологов, шахтеров, военнослужащих. Стельки войлочные имеют ряд преимуществ: - отлично пропускают воздух - дышат - имеют уникальную низкую теплопроводность - мало весят - под механической нагрузкой не сминаются - изностойки и экологически чисты.";s:4:"dpic";s:13:"/998/5582.jpg";s:11:"preview_pic";s:13:"/e35/5582.jpg";s:4:"bxid";s:6:"201492";s:5:"alias";s:42:"stelki-grubosherstyanye-voylochnye-tolstye";s:7:"section";s:5:"11683";s:5:"title";s:0:"";s:11:"description";s:0:"";s:8:"keywords";s:0:"";s:5:"price";s:1:"0";s:9:"old-price";s:1:"0";}i:3;a:20:{s:2:"id";s:3:"812";s:3:"act";s:1:"N";s:9:"prod_type";s:0:"";s:4:"name";s:56:"Чулок утеплитель для сапог НТП";s:3:"art";s:9:"Чул002";s:4:"sort";s:3:"100";s:6:"search";s:512:"ЧУЛОК УТЕПЛИТЕЛЬ ДЛЯ САПОГ НТП
УТЕПЛИТЕЛЬ НТП ЭТО ТОЛСТЫЙ МНОГОСЛОЙНЫЙ УТЕПЛЯЮЩИЙ ВКЛАДЫШ, ПОЛНОСТЬЮ ИЗГОТОВЛЕННЫЙ ИЗ СИНТЕТИЧЕСКИХ МАТЕРИАЛОВ. ОН ПРЕКРАСНО ОТВОДИТ ВЛАГУ, А ЗНАЧИТ СОХРАНЯЕТ НОГИ В ТЕПЛЕ. УТЕПЛИТЕЛЬ НТП ПОДХОДИТ ДЛЯ САПОГ И И ОБУВИ ИЗ ЭВЫ, РЕЗИНЫ, ПОЛИУРЕТАНА. .";s:6:"parent";s:2:"33";s:4:"durl";s:61:"obuv-rabochaya/obuv-valyanaya/chulok-uteplitel-dlya-sapog-ntp";s:4:"dtxt";s:454:"Утеплитель НТП это толстый многослойный утепляющий вкладыш, полностью изготовленный из синтетических материалов. Он прекрасно отводит влагу, а значит сохраняет ноги в тепле. Утеплитель НТП подходит для сапог и и обуви из ЭВЫ, резины, полиуретана. .";s:4:"dpic";s:13:"/6fe/4063.jpg";s:11:"preview_pic";s:13:"/987/4063.jpg";s:4:"bxid";s:6:"201799";s:5:"alias";s:31:"chulok-uteplitel-dlya-sapog-ntp";s:7:"section";s:5:"11683";s:5:"title";s:0:"";s:11:"description";s:0:"";s:8:"keywords";s:0:"";s:5:"price";s:1:"0";s:9:"old-price";s:1:"0";}i:4;a:20:{s:2:"id";s:3:"503";s:3:"act";s:1:"Y";s:9:"prod_type";s:0:"";s:4:"name";s:61:"Ботильоны ЭВА утеплённые женские";s:3:"art";s:9:"Бот020";s:4:"sort";s:3:"100";s:6:"search";s:300:"БОТИЛЬОНЫ ЭВА УТЕПЛЁННЫЕ ЖЕНСКИЕ

УДОБНЫЕ БОТЫ НА ЛИПУЧКЕ НА ВРЕМЯ МЕЖСЕЗОНА С МЕХОВЫМ ВЕРХОМ МАТЕРИАЛЫ: ЭВА ВЫСОТА 15СМ РАЗМЕРНЫЙ РЯД: 36, 37, 38, 39, 40 41 - 16 ПАР В КОРОБЕ .";s:6:"parent";s:2:"22";s:4:"durl";s:67:"obuv-rabochaya/obuv-povsednevnaya/botilony-eva-uteplyennye-zhenskie";s:4:"dtxt";s:235:"Удобные боты на липучке на время межсезона с меховым верхом Материалы: ЭВА Высота 15см Размерный ряд: 36, 37, 38, 39, 40 41 - 16 пар в коробе .";s:4:"dpic";s:14:"/d43/11069.jpg";s:11:"preview_pic";s:14:"/267/11069.jpg";s:4:"bxid";s:6:"200220";s:5:"alias";s:33:"botilony-eva-uteplyennye-zhenskie";s:7:"section";s:5:"11667";s:5:"title";s:0:"";s:11:"description";s:0:"";s:8:"keywords";s:0:"";s:5:"price";s:1:"0";s:9:"old-price";s:1:"0";}i:5;a:20:{s:2:"id";s:3:"504";s:3:"act";s:1:"N";s:9:"prod_type";s:0:"";s:4:"name";s:61:"Ботильоны ЭВА утеплённые мужские";s:3:"art";s:9:"Бот021";s:4:"sort";s:3:"100";s:6:"search";s:302:"БОТИЛЬОНЫ ЭВА УТЕПЛЁННЫЕ МУЖСКИЕ

УДОБНЫЕ БОТЫ НА ЛИПУЧКЕ НА ВРЕМЯ МЕЖСЕЗОНА С МЕХОВЫМ ВЕРХОМ МАТЕРИАЛЫ: ЭВА ВЫСОТА 15СМ РАЗМЕРНЫЙ РЯД: 41, 42, 43, 44, 45 - ПО 16 ПАР В КОРОБЕ .";s:6:"parent";s:2:"22";s:4:"durl";s:67:"obuv-rabochaya/obuv-povsednevnaya/botilony-eva-uteplyennye-muzhskie";s:4:"dtxt";s:237:"Удобные боты на липучке на время межсезона с меховым верхом Материалы: ЭВА Высота 15см Размерный ряд: 41, 42, 43, 44, 45 - по 16 пар в коробе .";s:4:"dpic";s:14:"/4ec/11074.jpg";s:11:"preview_pic";s:14:"/aee/11074.jpg";s:4:"bxid";s:6:"200221";s:5:"alias";s:33:"botilony-eva-uteplyennye-muzhskie";s:7:"section";s:5:"11667";s:5:"title";s:0:"";s:11:"description";s:0:"";s:8:"keywords";s:0:"";s:5:"price";s:1:"0";s:9:"old-price";s:1:"0";}i:6;a:20:{s:2:"id";s:3:"505";s:3:"act";s:1:"N";s:9:"prod_type";s:0:"";s:4:"name";s:60:"Сабо женские ЭВА р.38 (без задника)";s:3:"art";s:9:"Саб419";s:4:"sort";s:3:"100";s:6:"search";s:173:"САБО ЖЕНСКИЕ ЭВА Р.38 (БЕЗ ЗАДНИКА)

МАТЕРИАЛ: ЭВА РАЗМЕРНЫЙ РЯД: 36, 37, 38, 39, 40, 41 - ПО 25 ПАР В КОРОБЕ .";s:6:"parent";s:2:"22";s:4:"durl";s:68:"obuv-rabochaya/obuv-povsednevnaya/sabo-zhenskie-eva-r-38-bez-zadnika";s:4:"dtxt";s:109:"Материал: ЭВА Размерный ряд: 36, 37, 38, 39, 40, 41 - по 25 пар в коробе .";s:4:"dpic";s:13:"/54f/4530.jpg";s:11:"preview_pic";s:13:"/369/4530.jpg";s:4:"bxid";s:6:"201327";s:5:"alias";s:34:"sabo-zhenskie-eva-r-38-bez-zadnika";s:7:"section";s:5:"11667";s:5:"title";s:0:"";s:11:"description";s:0:"";s:8:"keywords";s:0:"";s:5:"price";s:1:"0";s:9:"old-price";s:1:"0";}i:7;a:20:{s:2:"id";s:3:"506";s:3:"act";s:1:"Y";s:9:"prod_type";s:0:"";s:4:"name";s:59:"Сабо женское Лена нат кожа белые";s:3:"art";s:11:"Саб50-01";s:4:"sort";s:3:"100";s:6:"search";s:241:"САБО ЖЕНСКОЕ ЛЕНА НАТ КОЖА БЕЛЫЕ

РАЗМЕР: 36-41 МАТЕРИАЛ: ВЕРХ - НАТУРАЛЬНАЯ КОЖА; ПОДОШВА - ПВХ; ЦВЕТ - БЕЛЫЙ КОЛИЧЕСТВО В КОРОБЕ: 18 ПАР .";s:6:"parent";s:2:"22";s:4:"durl";s:68:"obuv-rabochaya/obuv-povsednevnaya/sabo-zhenskoe-lena-nat-kozha-belye";s:4:"dtxt";s:178:"Размер: 36-41 Материал: Верх - Натуральная кожа; Подошва - ПВХ; Цвет - белый Количество в коробе: 18 пар .";s:4:"dpic";s:14:"/fc6/12776.jpg";s:11:"preview_pic";s:14:"/5f4/12776.jpg";s:4:"bxid";s:6:"201328";s:5:"alias";s:34:"sabo-zhenskoe-lena-nat-kozha-belye";s:7:"section";s:5:"11667";s:5:"title";s:0:"";s:11:"description";s:0:"";s:8:"keywords";s:0:"";s:5:"price";s:1:"0";s:9:"old-price";s:1:"0";}i:8;a:20:{s:2:"id";s:3:"507";s:3:"act";s:1:"N";s:9:"prod_type";s:0:"";s:4:"name";s:57:"Сабо женское Яна нат кожа белые";s:3:"art";s:11:"Саб51-01";s:4:"sort";s:3:"100";s:6:"search";s:255:"САБО ЖЕНСКОЕ ЯНА НАТ КОЖА БЕЛЫЕ

РАЗМЕР: 36-41 МАТЕРИАЛ: ВЕРХ - НАТУРАЛЬНАЯ КОЖА; ПОДОШВА - ПВХ; ЦВЕТ - БЕЛЫЙ, ЧЕРНЫЙ КОЛИЧЕСТВО В КОРОБЕ: 18 ПАР . .";s:6:"parent";s:2:"22";s:4:"durl";s:68:"obuv-rabochaya/obuv-povsednevnaya/sabo-zhenskoe-yana-nat-kozha-belye";s:4:"dtxt";s:194:"Размер: 36-41 Материал: Верх - Натуральная кожа; Подошва - ПВХ; Цвет - белый, черный Количество в коробе: 18 пар . .";s:4:"dpic";s:13:"/3dc/9588.jpg";s:11:"preview_pic";s:13:"/021/9588.jpg";s:4:"bxid";s:6:"201329";s:5:"alias";s:34:"sabo-zhenskoe-yana-nat-kozha-belye";s:7:"section";s:5:"11667";s:5:"title";s:0:"";s:11:"description";s:0:"";s:8:"keywords";s:0:"";s:5:"price";s:1:"0";s:9:"old-price";s:1:"0";}i:9;a:20:{s:2:"id";s:3:"508";s:3:"act";s:1:"N";s:9:"prod_type";s:0:"";s:4:"name";s:79:"Сабо женское  (утеп)Ока  (без задника) (к16пар)";s:3:"art";s:9:"Саб505";s:4:"sort";s:3:"100";s:6:"search";s:200:"САБО ЖЕНСКОЕ  (УТЕП)ОКА  (БЕЗ ЗАДНИКА) (К16ПАР)

ПРЕДНАЗНАЧЕНЫ ДЛЯ ЗАЩИТЫ НОГ ОТ ВОДЫ И ЗАГРЯЗНЕНИЙ. РАЗМЕР: 36-41. .";s:6:"parent";s:2:"22";s:4:"durl";s:75:"obuv-rabochaya/obuv-povsednevnaya/sabo-zhenskoe-utep-oka-bez-zadnika-k16par";s:4:"dtxt";s:117:"Предназначены для защиты ног от воды и загрязнений. Размер: 36-41. .";s:4:"dpic";s:14:"/aef/10292.jpg";s:11:"preview_pic";s:14:"/413/10292.jpg";s:4:"bxid";s:6:"201330";s:5:"alias";s:41:"sabo-zhenskoe-utep-oka-bez-zadnika-k16par";s:7:"section";s:5:"11667";s:5:"title";s:0:"";s:11:"description";s:0:"";s:8:"keywords";s:0:"";s:5:"price";s:1:"0";s:9:"old-price";s:1:"0";}i:10;a:20:{s:2:"id";s:3:"509";s:3:"act";s:1:"N";s:9:"prod_type";s:0:"";s:4:"name";s:62:"Сабо мужские  Ионел нат кожа белые";s:3:"art";s:9:"Саб503";s:4:"sort";s:3:"100";s:6:"search";s:826:"САБО МУЖСКИЕ  ИОНЕЛ НАТ КОЖА БЕЛЫЕ

ТУФЛИ САБО ЯВЛЯЮТСЯ УДОБНОЙ МУЖСКОЙ ОБУВЬЮ И ИСПОЛЬЗУЮТСЯ В МЕДИЦИНСКИХ УЧРЕЖДЕНИЯХ, В ЛЕГКОЙ ПРОМЫШЛЕННОСТИ И КАК ПОВСЕДНЕВНАЯ ОБУВЬ. ИЗГОТАВЛИВАЮТСЯ ИЗ НАТУРАЛЬНОГО СПИЛКА (КОЖА) ТОЛЩИНОЙ 1,8. ПОВОРОТНЫЙ РЕГУЛИРУЕМЫЙ РЕМЕШОК МОЖЕТ РАСПОЛАГАТЬСЯ ВПЕРЕДИ, ДЛЯ ДЕКОРАЦИИ, И СЗАДИ, ДЛЯ ФИКСАЦИИ ПЯТКИ. ПОДОШВА: НА ТАНКЕТКЕ ЛИТЬЕВОГО МЕТОДА КРЕПЛЕНИЯ С ЧЕТКИМ НЕСКОЛЬЗЯЩИМ ПРОТЕКТОРОМ НА ОБЛЕГЧЕННОМ ПВХ ЦВЕТ: БЕЛЫЙ .";s:6:"parent";s:2:"22";s:4:"durl";s:69:"obuv-rabochaya/obuv-povsednevnaya/sabo-muzhskie-ionel-nat-kozha-belye";s:4:"dtxt";s:768:"Туфли сабо являются удобной мужской обувью и используются в медицинских учреждениях, в легкой промышленности и как повседневная обувь. Изготавливаются из натурального спилка &#40;кожа&#41; толщиной 1,8. Поворотный регулируемый ремешок может располагаться впереди, для декорации, и сзади, для фиксации пятки. Подошва: на танкетке литьевого метода крепления с четким нескользящим протектором на облегченном ПВХ Цвет: белый .";s:4:"dpic";s:13:"/5a0/9594.jpg";s:11:"preview_pic";s:13:"/836/9594.jpg";s:4:"bxid";s:6:"201331";s:5:"alias";s:35:"sabo-muzhskie-ionel-nat-kozha-belye";s:7:"section";s:5:"11667";s:5:"title";s:0:"";s:11:"description";s:0:"";s:8:"keywords";s:0:"";s:5:"price";s:1:"0";s:9:"old-price";s:1:"0";}i:11;a:20:{s:2:"id";s:3:"510";s:3:"act";s:1:"N";s:9:"prod_type";s:0:"";s:4:"name";s:58:"Сабо утепленное ЭВА (с задником)";s:3:"art";s:9:"Саб200";s:4:"sort";s:3:"100";s:6:"search";s:1058:"САБО УТЕПЛЕННОЕ ЭВА (С ЗАДНИКОМ)

ГАЛОШИ УТЕПЛЕННЫЕ ИЗ ЭКОЛОГИЧЕСКИ ЧИСТОГО ПОЛИМЕРНОГО КОМПОЗИЦИОННОГО МАТЕРИАЛА ОБЛАДАЕТ СЛЕДУЮЩИМИ ХАРАКТЕРИСТИКАМИ: ЧРЕЗВЫЧАЙНАЯ ЛЕГКОСТЬ ИЗДЕЛИЙ. В 4 РАЗА ЛЕГЧЕ АНАЛОГОВ ИЗ ПВХ. ГИГИЕНИЧНОСТЬ МАТЕРИАЛА. ОТСУТВТВИЕ ЗАПАХА. НЕ ВЫЗЫВАЕТ АЛЛЕРГИЮ. МАТЕРИАЛ НЕ ПОДВЕРЖЕН НАКАПЛИВАНИЮ ГРИБКОВ И БАКТЕРИЙ (АНТИГРИБКОВЫЙ ЭФФЕКТ). МОРОЗОУСТОЙЧИВОСТЬ МАТЕРИАЛА. ИЗДЕЛИЯ ОБЛАДАЮТ ВЫСОКОЙ ЭЛАСТИЧНОСТЬЮ И ГИБКОСТЬЮ ПРИ ТЕМПЕРАТУРЕ ОТ -30 С ДО +15С, ИМЕЮТ НИЗКИЙ КОЭФФИЦИЕНТ ТЕПЛООТДАЧИ (ЭФФЕКТ ТЕРМОСА). ИЗДЕЛИЯ НЕ ПРОПУСКАЮТ ВЛАГУ. РАЗМЕРНЫЙ РЯД: 40-45";s:6:"parent";s:2:"22";s:4:"durl";s:64:"obuv-rabochaya/obuv-povsednevnaya/sabo-uteplennoe-eva-s-zadnikom";s:4:"dtxt";s:1016:"Галоши утепленные из экологически чистого полимерного композиционного материала обладает следующими характеристиками: Чрезвычайная легкость изделий. В 4 раза легче аналогов из ПВХ. Гигиеничность материала. Отсутвтвие запаха. Не вызывает аллергию. материал не подвержен накапливанию грибков и бактерий &#40;антигрибковый эффект&#41;. Морозоустойчивость материала. Изделия обладают высокой эластичностью и гибкостью при температуре от -30 С до &#43;15С, имеют низкий коэффициент теплоотдачи &#40;эффект термоса&#41;. Изделия не пропускают влагу. Размерный ряд: 40-45";s:4:"dpic";s:14:"/c9f/13608.jpg";s:11:"preview_pic";s:14:"/d45/13608.jpg";s:4:"bxid";s:6:"201335";s:5:"alias";s:30:"sabo-uteplennoe-eva-s-zadnikom";s:7:"section";s:5:"11667";s:5:"title";s:0:"";s:11:"description";s:0:"";s:8:"keywords";s:0:"";s:5:"price";s:1:"0";s:9:"old-price";s:1:"0";}i:12;a:20:{s:2:"id";s:3:"511";s:3:"act";s:1:"N";s:9:"prod_type";s:0:"";s:4:"name";s:43:"Тапки женские ЭВА Отель";s:3:"art";s:9:"Тап009";s:4:"sort";s:3:"100";s:6:"search";s:185:"ТАПКИ ЖЕНСКИЕ ЭВА ОТЕЛЬ

РАЗМЕРНЫЙ РЯД: ЖЕНСКИЕ: 36-37, 37-38, 38-39, 39-40, 40-41 - АССОРТИМЕНТНЫЕ КОРОБА ПО 120 ПАР .";s:6:"parent";s:2:"22";s:4:"durl";s:57:"obuv-rabochaya/obuv-povsednevnaya/tapki-zhenskie-eva-otel";s:4:"dtxt";s:138:"Размерный ряд: Женские: 36-37, 37-38, 38-39, 39-40, 40-41 - ассортиментные короба по 120 пар .";s:4:"dpic";s:14:"/cfe/12801.jpg";s:11:"preview_pic";s:14:"/1ba/12801.jpg";s:4:"bxid";s:6:"201500";s:5:"alias";s:23:"tapki-zhenskie-eva-otel";s:7:"section";s:5:"11667";s:5:"title";s:0:"";s:11:"description";s:0:"";s:8:"keywords";s:0:"";s:5:"price";s:1:"0";s:9:"old-price";s:1:"0";}i:13;a:20:{s:2:"id";s:3:"512";s:3:"act";s:1:"N";s:9:"prod_type";s:0:"";s:4:"name";s:79:"Тапки закрытые черные (нат. кожа, микропора)";s:3:"art";s:9:"Тап002";s:4:"sort";s:3:"100";s:6:"search";s:261:"ТАПКИ ЗАКРЫТЫЕ ЧЕРНЫЕ (НАТ. КОЖА, МИКРОПОРА)

ТАПОЧКИ ИЗГОТОВЛЕНЫ ИЗ НАТУРАЛЬНОЙ КОЖИ. РЕКОМЕНДУЕТСЯ ИСПОЛЬЗОВАТЬ В ОТАПЛИВАЕМЫХ ПОМЕЩЕНИЯХ .";s:6:"parent";s:2:"22";s:4:"durl";s:76:"obuv-rabochaya/obuv-povsednevnaya/tapki-zakrytye-chernye-nat-kozha-mikropora";s:4:"dtxt";s:178:"Тапочки изготовлены из натуральной кожи. Рекомендуется использовать в отапливаемых помещениях .";s:4:"dpic";s:13:"/e60/4575.jpg";s:11:"preview_pic";s:13:"/906/4575.jpg";s:4:"bxid";s:6:"201502";s:5:"alias";s:42:"tapki-zakrytye-chernye-nat-kozha-mikropora";s:7:"section";s:5:"11667";s:5:"title";s:0:"";s:11:"description";s:0:"";s:8:"keywords";s:0:"";s:5:"price";s:1:"0";s:9:"old-price";s:1:"0";}i:14;a:20:{s:2:"id";s:3:"513";s:3:"act";s:1:"N";s:9:"prod_type";s:0:"";s:4:"name";s:43:"Тапки мужские ЭВА Отель";s:3:"art";s:9:"Тап010";s:4:"sort";s:3:"100";s:6:"search";s:201:"ТАПКИ МУЖСКИЕ ЭВА ОТЕЛЬ

МАТЕРИАЛ: ЭВА РАЗМЕРНЫЙ РЯД: 40-41, 41-42, 42-43, 43-44, 44-45, 45-46 - АССОРТИМЕНТНЫЕ КОРОБА ПО 100 ПАР .";s:6:"parent";s:2:"22";s:4:"durl";s:57:"obuv-rabochaya/obuv-povsednevnaya/tapki-muzhskie-eva-otel";s:4:"dtxt";s:154:"Материал: ЭВА Размерный ряд: 40-41, 41-42, 42-43, 43-44, 44-45, 45-46 - ассортиментные короба по 100 пар .";s:4:"dpic";s:14:"/151/12806.jpg";s:11:"preview_pic";s:14:"/4bb/12806.jpg";s:4:"bxid";s:6:"201503";s:5:"alias";s:23:"tapki-muzhskie-eva-otel";s:7:"section";s:5:"11667";s:5:"title";s:0:"";s:11:"description";s:0:"";s:8:"keywords";s:0:"";s:5:"price";s:1:"0";s:9:"old-price";s:1:"0";}i:15;a:20:{s:2:"id";s:3:"514";s:3:"act";s:1:"N";s:9:"prod_type";s:0:"";s:4:"name";s:73:"Тапочки бабуши на искусств. мех. вышивка";s:3:"art";s:9:"Тап005";s:4:"sort";s:3:"100";s:6:"search";s:573:"ТАПОЧКИ БАБУШИ НА ИСКУССТВ. МЕХ. ВЫШИВКА

БОТИНКИ ЖЕНСКИЕ ИЗГОТОВЛЕНЫ ИЗ СУКОННОГО ПОЛОТНА, ДУБЛИРОВАННОГО ИСКУССТВЕННЫМ МЕХОМ, И МОРОЗОСТОЙКОГО ПВХ. ПОДОШВА ПЛОСКАЯ, РИФЛЕНАЯ, НЕСКОЛЬЗЯЩАЯ. СТЕЛЬКА ИЗ ИСКУССТВЕННОГО МЕХА, ВШИВНАЯ. МЕХОВАЯ ОПУШКА. ВЫШИВКА. РАЗМЕРЫ: 23,0 - 26,5. ВЫСОТА: 16,0 СМ. ГЛУБИНА ПРОТЕКТОРА: 4 ММ. .";s:6:"parent";s:2:"22";s:4:"durl";s:76:"obuv-rabochaya/obuv-povsednevnaya/tapochki-babushi-na-iskusstv-mekh-vyshivka";s:4:"dtxt";s:496:"Ботинки женские изготовлены из суконного полотна, дублированного искусственным мехом, и морозостойкого ПВХ. Подошва плоская, рифленая, нескользящая. Стелька из искусственного меха, вшивная. Меховая опушка. Вышивка. Размеры: 23,0 - 26,5. Высота: 16,0 см. Глубина протектора: 4 мм. .";s:4:"dpic";s:14:"/168/11880.jpg";s:11:"preview_pic";s:14:"/f02/11880.jpg";s:4:"bxid";s:6:"201504";s:5:"alias";s:42:"tapochki-babushi-na-iskusstv-mekh-vyshivka";s:7:"section";s:5:"11667";s:5:"title";s:0:"";s:11:"description";s:0:"";s:8:"keywords";s:0:"";s:5:"price";s:1:"0";s:9:"old-price";s:1:"0";}i:16;a:20:{s:2:"id";s:3:"515";s:3:"act";s:1:"Y";s:9:"prod_type";s:0:"";s:4:"name";s:72:"Тапочки женские вельветовые с задником";s:3:"art";s:9:"Тап007";s:4:"sort";s:3:"100";s:6:"search";s:314:"ТАПОЧКИ ЖЕНСКИЕ ВЕЛЬВЕТОВЫЕ С ЗАДНИКОМ

ПРЕДНАЗНАЧЕНЫ ДЛЯ ИСПОЛЬЗОВАНИЯ В ЗАКРЫТЫХ ОТАПЛИВАЕМЫХ ПОМЕЩЕНИЯХ. ТЕКСТИЛЬНЫЙ ВЕРХ-ВЕЛЬВЕТ, ЛИТАЯ ПОДОШВА ИЗ ПВХ. РАЗМЕРЫ: 35-41 .";s:6:"parent";s:2:"22";s:4:"durl";s:73:"obuv-rabochaya/obuv-povsednevnaya/tapochki-zhenskie-velvetovye-s-zadnikom";s:4:"dtxt";s:238:"Предназначены для использования в закрытых отапливаемых помещениях. Текстильный верх-вельвет, литая подошва из ПВХ. Размеры: 35-41 .";s:4:"dpic";s:13:"/8fa/3157.jpg";s:11:"preview_pic";s:13:"/d0e/3157.jpg";s:4:"bxid";s:6:"201505";s:5:"alias";s:39:"tapochki-zhenskie-velvetovye-s-zadnikom";s:7:"section";s:5:"11667";s:5:"title";s:0:"";s:11:"description";s:0:"";s:8:"keywords";s:0:"";s:5:"price";s:1:"0";s:9:"old-price";s:1:"0";}i:17;a:20:{s:2:"id";s:3:"516";s:3:"act";s:1:"Y";s:9:"prod_type";s:0:"";s:4:"name";s:72:"Тапочки мужские вельветовые с задником";s:3:"art";s:9:"Тап015";s:4:"sort";s:3:"100";s:6:"search";s:314:"ТАПОЧКИ МУЖСКИЕ ВЕЛЬВЕТОВЫЕ С ЗАДНИКОМ

ПРЕДНАЗНАЧЕНЫ ДЛЯ ИСПОЛЬЗОВАНИЯ В ЗАКРЫТЫХ ОТАПЛИВАЕМЫХ ПОМЕЩЕНИЯХ. ТЕКСТИЛЬНЫЙ ВЕРХ-ВЕЛЬВЕТ, ЛИТАЯ ПОДОШВА ИЗ ПВХ. РАЗМЕРЫ: 35-46 .";s:6:"parent";s:2:"22";s:4:"durl";s:73:"obuv-rabochaya/obuv-povsednevnaya/tapochki-muzhskie-velvetovye-s-zadnikom";s:4:"dtxt";s:238:"Предназначены для использования в закрытых отапливаемых помещениях. Текстильный верх-вельвет, литая подошва из ПВХ. Размеры: 35-46 .";s:4:"dpic";s:13:"/2d4/3167.jpg";s:11:"preview_pic";s:13:"/657/3167.jpg";s:4:"bxid";s:6:"201506";s:5:"alias";s:39:"tapochki-muzhskie-velvetovye-s-zadnikom";s:7:"section";s:5:"11667";s:5:"title";s:0:"";s:11:"description";s:0:"";s:8:"keywords";s:0:"";s:5:"price";s:1:"0";s:9:"old-price";s:1:"0";}i:18;a:20:{s:2:"id";s:3:"517";s:3:"act";s:1:"Y";s:9:"prod_type";s:0:"";s:4:"name";s:42:"Туфли Медистеп женские";s:3:"art";s:11:"Бот53002";s:4:"sort";s:3:"100";s:6:"search";s:205:"ТУФЛИ МЕДИСТЕП ЖЕНСКИЕ
МАТЕРИАЛ: ВЕРХ - НАТУРАЛЬНАЯ КОЖА; ПОДОШВА - ПВХ; РАЗМЕР: 36-41 КОЛ-ВО В КОРОБЕ: 18 ЦВЕТ: БЕЛЫЙ .";s:6:"parent";s:2:"22";s:4:"durl";s:57:"obuv-rabochaya/obuv-povsednevnaya/tufli-medistep-zhenskie";s:4:"dtxt";s:161:"Материал: Верх - натуральная кожа; Подошва - ПВХ; Размер: 36-41 Кол-во в коробе: 18 Цвет: белый .";s:4:"dpic";s:14:"/a9c/10355.jpg";s:11:"preview_pic";s:14:"/dd4/10355.jpg";s:4:"bxid";s:6:"202262";s:5:"alias";s:23:"tufli-medistep-zhenskie";s:7:"section";s:5:"11667";s:5:"title";s:0:"";s:11:"description";s:0:"";s:8:"keywords";s:0:"";s:5:"price";s:1:"0";s:9:"old-price";s:1:"0";}i:19;a:20:{s:2:"id";s:3:"518";s:3:"act";s:1:"N";s:9:"prod_type";s:0:"";s:4:"name";s:64:"Сабо мужские  Ионел нат кожа черный";s:3:"art";s:11:"Саб52-01";s:4:"sort";s:3:"100";s:6:"search";s:258:"САБО МУЖСКИЕ  ИОНЕЛ НАТ КОЖА ЧЕРНЫЙ
РАЗМЕР: 41-46 МАТЕРИАЛ: ВЕРХ - НАТУРАЛЬНАЯ КОЖА; ПОДОШВА - ПВХ; ЦВЕТ - БЕЛЫЙ, ЧЕРНЫЙ КОЛИЧЕСТВО В КОРОБЕ: 18 ПАР .";s:6:"parent";s:2:"22";s:4:"durl";s:71:"obuv-rabochaya/obuv-povsednevnaya/sabo-muzhskie-ionel-nat-kozha-chernyy";s:4:"dtxt";s:192:"Размер: 41-46 Материал: Верх - Натуральная кожа; Подошва - ПВХ; Цвет - белый, черный Количество в коробе: 18 пар .";s:4:"dpic";s:14:"/9df/12749.jpg";s:11:"preview_pic";s:14:"/4ac/12749.jpg";s:4:"bxid";s:6:"202264";s:5:"alias";s:37:"sabo-muzhskie-ionel-nat-kozha-chernyy";s:7:"section";s:5:"11667";s:5:"title";s:0:"";s:11:"description";s:0:"";s:8:"keywords";s:0:"";s:5:"price";s:1:"0";s:9:"old-price";s:1:"0";}i:20;a:20:{s:2:"id";s:3:"480";s:3:"act";s:1:"N";s:9:"prod_type";s:0:"";s:4:"name";s:19:"Берцы лето";s:3:"art";s:9:"Бер042";s:4:"sort";s:3:"100";s:6:"search";s:196:"БЕРЦЫ ЛЕТО

БОТИНКИ С ВЫСОКИМ БЕРЦЕМ ИЗГОТОВЛЕНЫ ИЗ ЮФТИ КРС, ПОДОШВА ПОЛИУРЕТАНОВАЯ, МАСЛОБЕНЗОСТОЙКИЕ, .";s:6:"parent";s:2:"19";s:4:"durl";s:40:"obuv-rabochaya/obuv-letnyaya/bertsy-leto";s:4:"dtxt";s:173:"Ботинки с высоким берцем изготовлены из юфти КРС, подошва полиуретановая, маслобензостойкие, .";s:4:"dpic";s:13:"/14a/4380.jpg";s:11:"preview_pic";s:13:"/ad0/4380.jpg";s:4:"bxid";s:6:"200213";s:5:"alias";s:11:"bertsy-leto";s:7:"section";s:5:"11664";s:5:"title";s:0:"";s:11:"description";s:0:"";s:8:"keywords";s:0:"";s:5:"price";s:1:"0";s:9:"old-price";s:1:"0";}i:21;a:20:{s:2:"id";s:3:"481";s:3:"act";s:1:"Y";s:9:"prod_type";s:0:"";s:4:"name";s:55:"Ботинки ЗЕНИТ литьев, укр.подн";s:3:"art";s:9:"Бот602";s:4:"sort";s:3:"100";s:6:"search";s:650:"БОТИНКИ ЗЕНИТ ЛИТЬЕВ, УКР.ПОДН

БОТИНКИ КОЖАНЫЕ НА ШНУРКАХ, С МЯГКОЙ ВСТАВКОЙ ИЗ НАТУРАЛЬНОЙ КОЖИ, БЕРЦЫ И КЛАПАН ИЗ КИРЗЫ, С ЖЕСТКИМ ПОДНОСКОМ, ОСНОВНОЙ СТЕЛЬКОЙ ИЗ НЕТКАНОГО СТЕЛЕЧНОГО МАТЕРИАЛА, ЛИТЬЕВОГО МЕТОДА КРЕПЛЕНИЯ, ПОЛИУРЕТАНОВАЯ ПОДОШВА: МАСЛОБЕНЗОСТОЙКАЯ, ИЗНОСОУСТОЙЧИВАЯ, КИСЛОТОЩЕЛОЧЕСТОЙКАЯ СВОЙСТВА: МИ; НС; НМ; З РАЗМЕРЫ 36-38 ПОД ЗАКАЗ. .";s:6:"parent";s:2:"19";s:4:"durl";s:57:"obuv-rabochaya/obuv-letnyaya/botinki-zenit-litev-ukr-podn";s:4:"dtxt";s:591:"Ботинки кожаные на шнурках, с мягкой вставкой из натуральной кожи, берцы и клапан из кирзы, с жестким подноском, основной стелькой из нетканого стелечного материала, литьевого метода крепления, полиуретановая подошва: маслобензостойкая, износоустойчивая, кислотощелочестойкая Свойства: Ми; Нс; Нм; З Размеры 36-38 под заказ. .";s:4:"dpic";s:13:"/288/4390.jpg";s:11:"preview_pic";s:13:"/1e1/4390.jpg";s:4:"bxid";s:6:"200223";s:5:"alias";s:28:"botinki-zenit-litev-ukr-podn";s:7:"section";s:5:"11664";s:5:"title";s:0:"";s:11:"description";s:0:"";s:8:"keywords";s:0:"";s:5:"price";s:1:"0";s:9:"old-price";s:1:"0";}i:22;a:20:{s:2:"id";s:3:"482";s:3:"act";s:1:"N";s:9:"prod_type";s:0:"";s:4:"name";s:67:"Ботинки Комфорт (юфть, ПУ/ПУ, МБС, КЩС)";s:3:"art";s:10:"Бот4208";s:4:"sort";s:3:"100";s:6:"search";s:1025:"БОТИНКИ КОМФОРТ (ЮФТЬ, ПУ/ПУ, МБС, КЩС)

ВЕРХ - НАТУРАЛЬНАЯ КОЖА ТОЛЩИНОЙ 1, 6-1, 8 ММ С ТИСНЕНИЕМ; ПОДОШВА ДВУХСЛОЙНАЯ ПОЛИУРЕТАНОВАЯ, ЛИТЬЕВОЙ МЕТОД КРЕПЛЕНИЯ, МАСЛО-БЕНЗО-КИСЛОТНО-ЩЕЛОЧЕСТОЙКАЯ; УСТОЙЧИВАЯ К ВОЗДЕЙСТВИЮ АГРЕССИВНОЙ СРЕДЫ И НЕФТЕПРОДУКТОВ; ТЕМПЕРАТУРНЫЙ ДИАПАЗОН ОТ -35С ДО +85С; АМОРТИЗАТОР В ПЯТОЧНОЙ ЧАСТИ; ГЛУХОЙ КЛАПАН ПРЕПЯТСТВУЮЩИЙ ПРОНИКНОВЕНИЮ ГРЯЗИ, ВЛАГИ И ПЫЛИ; МЯГКИЙ КАНТ ДЛЯ ДОПОЛНИТЕЛЬНОЙ ПОДДЕРЖКИ И ЗАЩИТЫ НОГ; ВОЗМОЖНА КОМПЛЕКТАЦИЯ МЕТАЛЛИЧЕСКИМ ПОДНОСКАМ, МЕТАЛЛ И ЧЕСКОИ СТЕЛЬКОИ, ИСКУССТВЕННЫМ МЕХОМ; РАЗМЕРНЫЙ РЯД: С 36 ПО 47; .";s:6:"parent";s:2:"19";s:4:"durl";s:66:"obuv-rabochaya/obuv-letnyaya/botinki-komfort-yuft-pu-pu-mbs-kshchs";s:4:"dtxt";s:958:"Верх - натуральная кожа толщиной 1, 6-1, 8 мм с тиснением; Подошва двухслойная полиуретановая, литьевой метод крепления, масло-бензо-кислотно-щелочестойкая; Устойчивая к воздействию агрессивной среды и нефтепродуктов; Температурный диапазон от -35С до &#43;85С; Амортизатор в пяточной части; Глухой клапан препятствующий проникновению грязи, влаги и пыли; Мягкий кант для дополнительной поддержки и защиты ног; Возможна комплектация металлическим подноскам, металл и ческои стелькои, искусственным мехом; Размерный ряд: с 36 по 47; .";s:4:"dpic";s:14:"/06d/11311.jpg";s:11:"preview_pic";s:14:"/e38/11311.jpg";s:4:"bxid";s:6:"200225";s:5:"alias";s:37:"botinki-komfort-yuft-pu-pu-mbs-kshchs";s:7:"section";s:5:"11664";s:5:"title";s:0:"";s:11:"description";s:0:"";s:8:"keywords";s:0:"";s:5:"price";s:1:"0";s:9:"old-price";s:1:"0";}i:23;a:20:{s:2:"id";s:3:"483";s:3:"act";s:1:"N";s:9:"prod_type";s:0:"";s:4:"name";s:59:"Ботинки Мастер МБС, мет.подносок";s:3:"art";s:9:"Бот052";s:4:"sort";s:3:"100";s:6:"search";s:727:"БОТИНКИ МАСТЕР МБС, МЕТ.ПОДНОСОК

БОТИНКИ МАСТЕР. СОЮЗКА И БЕРЦЫ ИЗГОТОВЛЕНЫ ИЗ ВОДОСТОЙКОЙ КОЖИ (ЮФТИ) С ТИСНЕНИЕМ. ОДНОСЛОЙНАЯ ПОЛИУРЕТАНОВАЯ ПОДОШВА ЛИТЬЕВОГО МЕТОДА КРЕПЛЕНИЯ. ПРОТИВОПЫЛЕВОЙ ЯЗЫЧОК. ПОДОШВА МБС, ИЗНОСОУСТОЙЧИВАЯ, ИМЕЕТ САМООЧИЩАЮЩИЙСЯ ПРОФИЛЬ. АМОРТИЗАЦИОННЫЙ СТАБИЛИЗАТОР В ПЯТОЧНОЙ ЧАСТИ. МЯГКИЙ И УДОБНЫЙ КАНТ НА ЛОДЫЖКЕ ДЛЯ КОМФОРТА НОГИ. МЕТАЛЛИЧЕСКИЙ ПОДНОСОК 200 ДЖ. .";s:6:"parent";s:2:"19";s:4:"durl";s:60:"obuv-rabochaya/obuv-letnyaya/botinki-master-mbs-met-podnosok";s:4:"dtxt";s:672:"Ботинки Мастер. Союзка и берцы изготовлены из водостойкой кожи &#40;юфти&#41; с тиснением. Однослойная полиуретановая подошва литьевого метода крепления. Противопылевой язычок. Подошва МБС, износоустойчивая, имеет самоочищающийся профиль. Амортизационный стабилизатор в пяточной части. Мягкий и удобный кант на лодыжке для комфорта ноги. Металлический подносок 200 Дж. .";s:4:"dpic";s:13:"/9a9/4425.jpg";s:11:"preview_pic";s:13:"/09d/4425.jpg";s:4:"bxid";s:6:"200230";s:5:"alias";s:31:"botinki-master-mbs-met-podnosok";s:7:"section";s:5:"11664";s:5:"title";s:0:"";s:11:"description";s:0:"";s:8:"keywords";s:0:"";s:5:"price";s:1:"0";s:9:"old-price";s:1:"0";}i:24;a:20:{s:2:"id";s:3:"484";s:3:"act";s:1:"N";s:9:"prod_type";s:0:"";s:4:"name";s:36:"Ботинки Стандарт ПУ";s:3:"art";s:10:"Бот3208";s:4:"sort";s:3:"100";s:6:"search";s:991:"БОТИНКИ СТАНДАРТ ПУ

ВЕРХ- НАТУРАЛЬНАЯ КОЖА ТОЛЩИНОЙ 1, 6-1, 8 ММ С ТИСНЕНИЕМ; ПОДОШВА ОДНОСЛОЙНАЯ ПОЛИУРЕТАНОВАЯ, ЛИТЬЕВОЙ МЕТОД КРЕПЛЕНИЯ, МАСЛО-БЕНЗО-КИСЛОТНО-ЩЕЛОЧЕСТОЙКАЯ; УСТОЙЧИВАЯ К ВОЗДЕЙСТВИЮ АГРЕССИВНОЙ СРЕДЫ И НЕФТЕПРОДУКТОВ; ТЕМПЕРАТУРНЫЙ ДИАПАЗОН ОТ -35С ДО +85С; АМОРТИЗАТОР В ПЯТОЧНОЙ ЧАСТИ; ГЛУХОЙ КЛАПАН ПРЕПЯТСТВУЮЩИЙ ПРОНИКНОВЕНИЮ ГРЯЗИ, ВЛАГИ И ПЫЛИ; O МЯГКИЙ КАНТ ДЛЯ ДОПОЛНИТЕЛЬНОЙ ПОДДЕРЖКИ И ЗАЩИТЫ НОГ; ВОЗМОЖНА КОМПЛЕКТАЦИЯ МЕТАЛЛИЧЕСКИМ ПОДНОСКАМ, МЕТАЛЛИЧЕСКОЙ СТЕЛЬКОЙ, ИСКУССТВЕННЫМ МЕХОМ; РАЗМЕРНЫЙ РЯД: С 36 ПО 47;";s:6:"parent";s:2:"19";s:4:"durl";s:48:"obuv-rabochaya/obuv-letnyaya/botinki-standart-pu";s:4:"dtxt";s:955:"Верх- натуральная кожа толщиной 1, 6-1, 8 мм с тиснением; Подошва однослойная полиуретановая, литьевой метод крепления, масло-бензо-кислотно-щелочестойкая; Устойчивая к воздействию агрессивной среды и нефтепродуктов; Температурный диапазон от -35С до &#43;85С; Амортизатор в пяточной части; Глухой клапан препятствующий проникновению грязи, влаги и пыли; o Мягкий кант для дополнительной поддержки и защиты ног; Возможна комплектация металлическим подноскам, металлической стелькой, искусственным мехом; Размерный ряд: с 36 по 47;";s:4:"dpic";s:14:"/22c/15204.jpg";s:11:"preview_pic";s:14:"/8dd/15204.jpg";s:4:"bxid";s:6:"200231";s:5:"alias";s:19:"botinki-standart-pu";s:7:"section";s:5:"11664";s:5:"title";s:0:"";s:11:"description";s:0:"";s:8:"keywords";s:0:"";s:5:"price";s:1:"0";s:9:"old-price";s:1:"0";}i:25;a:20:{s:2:"id";s:3:"485";s:3:"act";s:1:"N";s:9:"prod_type";s:0:"";s:4:"name";s:37:"Полуботинки Форвард";s:3:"art";s:9:"Пол008";s:4:"sort";s:3:"100";s:6:"search";s:1131:"ПОЛУБОТИНКИ ФОРВАРД

ВЕРХ: СОЮЗКА, БЕРЦЫ, ЗАДИНКА - НАТУРАЛЬНАЯ КОЖА, ГЛУХОЙ ПРОТИВОПЫЛЕВЫЙ КЛАПАН ИЗ ИСКУССТВЕННОЙ КОЖИ, ОСНОВНАЯ СТЕЛЬКА ИЗ ШТРОБЕЛЬНОГО МАТЕРИАЛА, КОМФОРТНАЯ ВКЛАДНАЯ СТЕЛЬКА ИЗ КОЖКАРТОНА ДУБЛИРОВАННОГО ВОЛОКНИНОЙ, ПОДКЛАДКА ИЗ НЕТКАНОГО МАТЕРИАЛА КИНГ, ЖЕСТКИЙ ФОРМОВАННЫЙ ПОДНОСОК, УДОБНАЯ КОЛОДКА АНАТОМИЧЕСКОЙ ФОРМЫ. ПОДОШВА: МАСЛОБЕНЗОСТОЙКОСТЬ, КИСЛОТОЩЕЛОЧЕСТОЙКОСТЬ, ПОВЫШЕННАЯ ИЗНОСОУСТОЙЧИВОСТЬ, ТЕМПЕРАТУРНЫЙ ДИАПАЗОН ИСПОЛЬЗОВАНИЯ -30°С +100°С, САМООЧИЩАЮЩИЙСЯ ПРОФИЛЬ ХОДОВОЙ ПОВЕРХНОСТИ. МЕТОД КРЕПЛЕНИЯ: ЛИТЬЕВОЙ МАТЕРИАЛ ПОДОШВЫ: ПУ-ПУ СВОЙСТВА: МИ; НС; НМ; З; К20; Щ20 РАЗМЕРЫ: 36-46";s:6:"parent";s:2:"19";s:4:"durl";s:48:"obuv-rabochaya/obuv-letnyaya/polubotinki-forvard";s:4:"dtxt";s:1094:"Верх: союзка, берцы, задинка - натуральная кожа, глухой противопылевый клапан из искусственной кожи, основная стелька из штробельного материала, комфортная вкладная стелька из кожкартона дублированного волокниной, подкладка из нетканого материала Кинг, жесткий формованный подносок, удобная колодка анатомической формы. Подошва: маслобензостойкость, кислотощелочестойкость, повышенная износоустойчивость, температурный диапазон использования -30°С &#43;100°С, самоочищающийся профиль ходовой поверхности. Метод крепления: литьевой Материал подошвы: ПУ-ПУ Свойства: Ми; Нс; Нм; З; К20; Щ20 Размеры: 36-46";s:4:"dpic";s:13:"/dee/7941.jpg";s:11:"preview_pic";s:13:"/b14/7941.jpg";s:4:"bxid";s:6:"201177";s:5:"alias";s:19:"polubotinki-forvard";s:7:"section";s:5:"11664";s:5:"title";s:0:"";s:11:"description";s:0:"";s:8:"keywords";s:0:"";s:5:"price";s:1:"0";s:9:"old-price";s:1:"0";}i:26;a:20:{s:2:"id";s:3:"486";s:3:"act";s:1:"N";s:9:"prod_type";s:0:"";s:4:"name";s:52:"Сандалии Стандарт кожа ПУ+МП";s:3:"art";s:12:"Сан3220Т";s:4:"sort";s:3:"100";s:6:"search";s:793:"САНДАЛИИ СТАНДАРТ КОЖА ПУ+МП

ВЕРХ- НАТУРАЛЬНАЯ КОЖА ТОЛЩИНОЙ 1, 6-1, 8 ММ С ТИСНЕНИЕМ; ПОДОШВА ОДНОСЛОЙНАЯ ПОЛИУРЕТАНОВАЯ, ЛИТЬЕВОЙ МЕТОД КРЕПЛЕНИЯ, МАСЛО-БЕНЗО-КИСЛОТНО-ЩЕЛОЧЕСТОЙКАЯ; УСТОЙЧИВАЯ К ВОЗДЕЙСТВИЮ АГРЕССИВНОЙ СРЕДЫ И НЕФТЕПРОДУКТОВ; ТЕМПЕРАТУРНЫЙ ДИАПАЗОН ОТ -35С ДО +85С; АМОРТИЗАТОР В ПЯТОЧНОЙ ЧАСТИ; МЯГКИЙ КАНТ ДЛЯ ДОПОЛНИТЕЛЬНОЙ ПОДДЕРЖКИ И ЗАЩИТЫ НОГ; КОМПЛЕКТАЦИЯ С МЕТАЛЛИЧЕСКИМ ПОДНОСКОМ; РАЗМЕРНЫЙ РЯД: С 36 ПО 47; . .";s:6:"parent";s:2:"19";s:4:"durl";s:58:"obuv-rabochaya/obuv-letnyaya/sandalii-standart-kozha-pu-mp";s:4:"dtxt";s:741:"Верх- натуральная кожа толщиной 1, 6-1, 8 мм с тиснением; Подошва однослойная полиуретановая, литьевой метод крепления, масло-бензо-кислотно-щелочестойкая; Устойчивая к воздействию агрессивной среды и нефтепродуктов; Температурный диапазон от -35С до &#43;85С; Амортизатор в пяточной части; Мягкий кант для дополнительной поддержки и защиты ног; Комплектация с металлическим подноском; Размерный ряд: с 36 по 47; . .";s:4:"dpic";s:14:"/5f6/10721.jpg";s:11:"preview_pic";s:14:"/5fd/10721.jpg";s:4:"bxid";s:6:"201344";s:5:"alias";s:29:"sandalii-standart-kozha-pu-mp";s:7:"section";s:5:"11664";s:5:"title";s:0:"";s:11:"description";s:0:"";s:8:"keywords";s:0:"";s:5:"price";s:1:"0";s:9:"old-price";s:1:"0";}i:27;a:20:{s:2:"id";s:3:"487";s:3:"act";s:1:"Y";s:9:"prod_type";s:0:"";s:4:"name";s:62:"Сапоги ВЕКТОР литьев., укрепл.подн";s:3:"art";s:9:"Сап603";s:4:"sort";s:3:"100";s:6:"search";s:674:"САПОГИ ВЕКТОР ЛИТЬЕВ., УКРЕПЛ.ПОДН

САПОГИ КОЖАНЫЕ, С УКОРОЧЕННЫМИ РЕГУЛИРУЕМЫМИ ПО ШИРИНЕ КИРЗОВЫМИ ГОЛЕНИЩАМИ, НА ПРЯЖКАХ, С ПОДНАРЯДОМ, ЖЕСТКИМ ПОДНОСКОМ, ОСНОВНОЙ СТЕЛЬКОЙ ИЗ НЕТКАНОГО СТЕЛЕЧНОГО МАТЕРИАЛА, ЛИТЬЕВОГО МЕТОДА КРЕПЛЕНИЯ, ПОЛИУРЕТАНОВАЯ ПОДОШВА: МАСЛОБЕНЗОСТОЙКАЯ, ИЗНОСОУСТОЙЧИВАЯ, КИСЛОТОЩЕЛОЧЕСТОЙКАЯ. ВЫСОТА 25 СМ. СВОЙСТВА: МИ; НС; НМ; З; К20; Щ20 . .";s:6:"parent";s:2:"19";s:4:"durl";s:60:"obuv-rabochaya/obuv-letnyaya/sapogi-vektor-litev-ukrepl-podn";s:4:"dtxt";s:608:"Сапоги кожаные, с укороченными регулируемыми по ширине кирзовыми голенищами, на пряжках, с поднарядом, жестким подноском, основной стелькой из нетканого стелечного материала, литьевого метода крепления, полиуретановая подошва: маслобензостойкая, износоустойчивая, кислотощелочестойкая. высота 25 см. Свойства: Ми; Нс; Нм; З; К20; Щ20 . .";s:4:"dpic";s:13:"/bd7/4540.jpg";s:11:"preview_pic";s:13:"/980/4540.jpg";s:4:"bxid";s:6:"201345";s:5:"alias";s:31:"sapogi-vektor-litev-ukrepl-podn";s:7:"section";s:5:"11664";s:5:"title";s:0:"";s:11:"description";s:0:"";s:8:"keywords";s:0:"";s:5:"price";s:1:"0";s:9:"old-price";s:1:"0";}i:28;a:20:{s:2:"id";s:3:"488";s:3:"act";s:1:"N";s:9:"prod_type";s:0:"";s:4:"name";s:34:"Сапоги Стандарт МП";s:3:"art";s:12:"Сап3218Т";s:4:"sort";s:3:"100";s:6:"search";s:750:"САПОГИ СТАНДАРТ МП

ВЕРХ- НАТУРАЛЬНАЯ КОЖА ТОЛЩИНОЙ 1, 6-1, 8 ММ С ТИСНЕНИЕМ; ПОДОШВА ОДНОСЛОЙНАЯ ПОЛИУРЕТАНОВАЯ, ЛИТЬЕВОЙ МЕТОД КРЕПЛЕНИЯ, МАСЛО-БЕНЗО-КИСЛОТНО-ЩЕЛОЧЕСТОЙКАЯ; УСТОЙЧИВАЯ К ВОЗДЕЙСТВИЮ АГРЕССИВНОЙ СРЕДЫ И НЕФТЕПРОДУКТОВ; ТЕМПЕРАТУРНЫЙ ДИАПАЗОН ОТ -35С ДО +85С; АМОРТИЗАТОР В ПЯТОЧНОЙ ЧАСТИ; РЕГУЛИРУЕМОЕ ГОЛЕНИЩЕ; ВЫСОТА САПОГА - 30 СМ; КОМПЛЕКТАЦИЯ С МЕТАЛЛИЧЕСКИМ ПОДНОСКОМ; РАЗМЕРНЫЙ РЯД: С 39 ПО 47;";s:6:"parent";s:2:"19";s:4:"durl";s:47:"obuv-rabochaya/obuv-letnyaya/sapogi-standart-mp";s:4:"dtxt";s:716:"Верх- натуральная кожа толщиной 1, 6-1, 8 мм с тиснением; Подошва однослойная полиуретановая, литьевой метод крепления, масло-бензо-кислотно-щелочестойкая; Устойчивая к воздействию агрессивной среды и нефтепродуктов; Температурный диапазон от -35С до &#43;85С; Амортизатор в пяточной части; Регулируемое голенище; Высота сапога - 30 см; Комплектация с металлическим подноском; Размерный ряд: с 39 по 47;";s:4:"dpic";s:14:"/145/14121.jpg";s:11:"preview_pic";s:14:"/fae/14121.jpg";s:4:"bxid";s:6:"201350";s:5:"alias";s:18:"sapogi-standart-mp";s:7:"section";s:5:"11664";s:5:"title";s:0:"";s:11:"description";s:0:"";s:8:"keywords";s:0:"";s:5:"price";s:1:"0";s:9:"old-price";s:1:"0";}i:29;a:20:{s:2:"id";s:3:"489";s:3:"act";s:1:"N";s:9:"prod_type";s:0:"";s:4:"name";s:34:"Сапоги Стандарт ПУ";s:3:"art";s:10:"Сап3218";s:4:"sort";s:3:"100";s:6:"search";s:848:"САПОГИ СТАНДАРТ ПУ

ВЕРХ- НАТУРАЛЬНАЯ КОЖА ТОЛЩИНОЙ 1, 6-1, 8 ММ С ТИСНЕНИЕМ; ПОДОШВА ОДНОСЛОЙНАЯ ПОЛИУРЕТАНОВАЯ, ЛИТЬЕВОЙ МЕТОД КРЕПЛЕНИЯ, МАСЛО-БЕНЗО-КИСЛОТНО-ЩЕЛОЧЕСТОЙКАЯ; УСТОЙЧИВАЯ К ВОЗДЕЙСТВИЮ АГРЕССИВНОЙ СРЕДЫ И НЕФТЕПРОДУКТОВ; ТЕМПЕРАТУРНЫЙ ДИАПАЗОН ОТ -35С ДО +85С; АМОРТИЗАТОР В ПЯТОЧНОЙ ЧАСТИ; РЕГУЛИРУЕМОЕ ГОЛЕНИЩЕ; ВЫСОТА САПОГА - 30 СМ; ВОЗМОЖНА КОМПЛЕКТАЦИЯ МЕТАЛЛИЧЕСКИМ ПОДНОСКОМ, МЕТАЛЛИЧЕСКОЙ СТЕЛЬКОЙ, ИСКУССТВЕННЫМ МЕХОМ; РАЗМЕРНЫЙ РЯД: С 39 ПО 47;";s:6:"parent";s:2:"19";s:4:"durl";s:47:"obuv-rabochaya/obuv-letnyaya/sapogi-standart-pu";s:4:"dtxt";s:814:"Верх- натуральная кожа толщиной 1, 6-1, 8 мм с тиснением; Подошва однослойная полиуретановая, литьевой метод крепления, масло-бензо-кислотно-щелочестойкая; Устойчивая к воздействию агрессивной среды и нефтепродуктов; Температурный диапазон от -35С до &#43;85С; Амортизатор в пяточной части; Регулируемое голенище; Высота сапога - 30 см; Возможна комплектация металлическим подноском, металлической стелькой, искусственным мехом; Размерный ряд: с 39 по 47;";s:4:"dpic";s:13:"/e22/5791.jpg";s:11:"preview_pic";s:13:"/9b1/5791.jpg";s:4:"bxid";s:6:"201351";s:5:"alias";s:18:"sapogi-standart-pu";s:7:"section";s:5:"11664";s:5:"title";s:0:"";s:11:"description";s:0:"";s:8:"keywords";s:0:"";s:5:"price";s:1:"0";s:9:"old-price";s:1:"0";}i:30;a:20:{s:2:"id";s:3:"490";s:3:"act";s:1:"N";s:9:"prod_type";s:0:"";s:4:"name";s:65:"Сапоги гвоздевые п/у подошва МБС ю/к";s:3:"art";s:9:"Сап921";s:4:"sort";s:3:"100";s:6:"search";s:677:"САПОГИ ГВОЗДЕВЫЕ П/У ПОДОШВА МБС Ю/К

РЕКОМЕНДУЕТСЯ ДЛЯ РАБОТЫ НА ОТКРЫТОМ ВОЗДУХЕ, И В ПРОИЗВОДСТВЕННЫХ ПОМЕЩЕНИЯХ, ДЛЯ ЗАЩИТЫ НОГ ОТ МЕХАНИЧЕСКИХ ВОЗДЕЙСТВИЙ, ОБЩЕПРОИЗВОДСТВЕННЫХ ЗАГРЯЗНЕНИЙ. ПОДОШВА - СТОЙКАЯ К ВОЗДЕЙСТВИЮ МАСЕЛ, НЕФТЕПРОДУКТОВ; А НАЛИЧИЕ ЛАТУННОГО ГВОЗДЯ - ПРЕПЯТСТВУЕТ ВЫСЕКАНИЮ ИСКРЫ. ЖЕСТКИЙ ПОДНОСОК, ЗАЩИЩАЕТ ПАЛЬЦЫ НОГ ОТ ТРАВМ. РАЗМЕРЫ: 39-46";s:6:"parent";s:2:"19";s:4:"durl";s:67:"obuv-rabochaya/obuv-letnyaya/sapogi-gvozdevye-p-u-podoshva-mbs-yu-k";s:4:"dtxt";s:608:"Рекомендуется для работы на открытом воздухе, и в производственных помещениях, для защиты ног от механических воздействий, общепроизводственных загрязнений. Подошва - стойкая к воздействию масел, нефтепродуктов; а наличие латунного гвоздя - препятствует высеканию искры. Жесткий подносок, защищает пальцы ног от травм. Размеры: 39-46";s:4:"dpic";s:13:"/c67/4560.jpg";s:11:"preview_pic";s:13:"/aa5/4560.jpg";s:4:"bxid";s:6:"201356";s:5:"alias";s:38:"sapogi-gvozdevye-p-u-podoshva-mbs-yu-k";s:7:"section";s:5:"11664";s:5:"title";s:0:"";s:11:"description";s:0:"";s:8:"keywords";s:0:"";s:5:"price";s:1:"0";s:9:"old-price";s:1:"0";}i:31;a:20:{s:2:"id";s:3:"491";s:3:"act";s:1:"N";s:9:"prod_type";s:0:"";s:4:"name";s:44:"Шнурки тип 127 110см черные";s:3:"art";s:9:"Шнр003";s:4:"sort";s:3:"100";s:6:"search";s:48:"ШНУРКИ ТИП 127 110СМ ЧЕРНЫЕ

";s:6:"parent";s:2:"19";s:4:"durl";s:58:"obuv-rabochaya/obuv-letnyaya/shnurki-tip-127-110sm-chernye";s:4:"dtxt";s:0:"";s:4:"dpic";s:14:"/ffe/12587.jpg";s:11:"preview_pic";s:14:"/d4c/12587.jpg";s:4:"bxid";s:6:"201816";s:5:"alias";s:29:"shnurki-tip-127-110sm-chernye";s:7:"section";s:5:"11664";s:5:"title";s:0:"";s:11:"description";s:0:"";s:8:"keywords";s:0:"";s:5:"price";s:1:"0";s:9:"old-price";s:1:"0";}i:32;a:20:{s:2:"id";s:3:"492";s:3:"act";s:1:"N";s:9:"prod_type";s:0:"";s:4:"name";s:44:"Шнурки тип 127 150см черные";s:3:"art";s:9:"Шнр005";s:4:"sort";s:3:"100";s:6:"search";s:48:"ШНУРКИ ТИП 127 150СМ ЧЕРНЫЕ

";s:6:"parent";s:2:"19";s:4:"durl";s:58:"obuv-rabochaya/obuv-letnyaya/shnurki-tip-127-150sm-chernye";s:4:"dtxt";s:0:"";s:4:"dpic";s:13:"/93f/4088.jpg";s:11:"preview_pic";s:13:"/292/4088.jpg";s:4:"bxid";s:6:"201817";s:5:"alias";s:29:"shnurki-tip-127-150sm-chernye";s:7:"section";s:5:"11664";s:5:"title";s:0:"";s:11:"description";s:0:"";s:8:"keywords";s:0:"";s:5:"price";s:1:"0";s:9:"old-price";s:1:"0";}i:33;a:20:{s:2:"id";s:3:"493";s:3:"act";s:1:"N";s:9:"prod_type";s:0:"";s:4:"name";s:43:"Шнурки тип 127 70см черные";s:3:"art";s:9:"Шнр001";s:4:"sort";s:3:"100";s:6:"search";s:92:"ШНУРКИ ТИП 127 70СМ ЧЕРНЫЕ

ШНУРКИ ТИП 127 70СМ ЧЕРНЫЕ .";s:6:"parent";s:2:"19";s:4:"durl";s:57:"obuv-rabochaya/obuv-letnyaya/shnurki-tip-127-70sm-chernye";s:4:"dtxt";s:45:"Шнурки тип 127 70см черные .";s:4:"dpic";s:14:"/939/12585.jpg";s:11:"preview_pic";s:14:"/ac6/12585.jpg";s:4:"bxid";s:6:"201818";s:5:"alias";s:28:"shnurki-tip-127-70sm-chernye";s:7:"section";s:5:"11664";s:5:"title";s:0:"";s:11:"description";s:0:"";s:8:"keywords";s:0:"";s:5:"price";s:1:"0";s:9:"old-price";s:1:"0";}i:34;a:20:{s:2:"id";s:3:"494";s:3:"act";s:1:"N";s:9:"prod_type";s:0:"";s:4:"name";s:43:"Шнурки тип 127 90см черные";s:3:"art";s:9:"Шнр002";s:4:"sort";s:3:"100";s:6:"search";s:92:"ШНУРКИ ТИП 127 90СМ ЧЕРНЫЕ

ШНУРКИ ТИП 127 90СМ ЧЕРНЫЕ .";s:6:"parent";s:2:"19";s:4:"durl";s:57:"obuv-rabochaya/obuv-letnyaya/shnurki-tip-127-90sm-chernye";s:4:"dtxt";s:45:"Шнурки тип 127 90см черные .";s:4:"dpic";s:14:"/5fc/12586.jpg";s:11:"preview_pic";s:14:"/595/12586.jpg";s:4:"bxid";s:6:"201819";s:5:"alias";s:28:"shnurki-tip-127-90sm-chernye";s:7:"section";s:5:"11664";s:5:"title";s:0:"";s:11:"description";s:0:"";s:8:"keywords";s:0:"";s:5:"price";s:1:"0";s:9:"old-price";s:1:"0";}i:35;a:20:{s:2:"id";s:3:"495";s:3:"act";s:1:"N";s:9:"prod_type";s:0:"";s:4:"name";s:44:"Шнурки тип 165 110см черные";s:3:"art";s:9:"Шнр008";s:4:"sort";s:3:"100";s:6:"search";s:94:"ШНУРКИ ТИП 165 110СМ ЧЕРНЫЕ

ШНУРКИ ТИП 165 110СМ ЧЕРНЫЕ .";s:6:"parent";s:2:"19";s:4:"durl";s:58:"obuv-rabochaya/obuv-letnyaya/shnurki-tip-165-110sm-chernye";s:4:"dtxt";s:46:"Шнурки тип 165 110см черные .";s:4:"dpic";s:14:"/964/12590.jpg";s:11:"preview_pic";s:14:"/ac8/12590.jpg";s:4:"bxid";s:6:"201820";s:5:"alias";s:29:"shnurki-tip-165-110sm-chernye";s:7:"section";s:5:"11664";s:5:"title";s:0:"";s:11:"description";s:0:"";s:8:"keywords";s:0:"";s:5:"price";s:1:"0";s:9:"old-price";s:1:"0";}i:36;a:20:{s:2:"id";s:3:"496";s:3:"act";s:1:"N";s:9:"prod_type";s:0:"";s:4:"name";s:44:"Шнурки тип 165 120см черные";s:3:"art";s:9:"Шнр009";s:4:"sort";s:3:"100";s:6:"search";s:48:"ШНУРКИ ТИП 165 120СМ ЧЕРНЫЕ

";s:6:"parent";s:2:"19";s:4:"durl";s:58:"obuv-rabochaya/obuv-letnyaya/shnurki-tip-165-120sm-chernye";s:4:"dtxt";s:0:"";s:4:"dpic";s:14:"/c7a/12591.jpg";s:11:"preview_pic";s:14:"/8b8/12591.jpg";s:4:"bxid";s:6:"201821";s:5:"alias";s:29:"shnurki-tip-165-120sm-chernye";s:7:"section";s:5:"11664";s:5:"title";s:0:"";s:11:"description";s:0:"";s:8:"keywords";s:0:"";s:5:"price";s:1:"0";s:9:"old-price";s:1:"0";}i:37;a:20:{s:2:"id";s:3:"497";s:3:"act";s:1:"N";s:9:"prod_type";s:0:"";s:4:"name";s:43:"Шнурки тип 165 70см черные";s:3:"art";s:9:"Шнр006";s:4:"sort";s:3:"100";s:6:"search";s:92:"ШНУРКИ ТИП 165 70СМ ЧЕРНЫЕ

ШНУРКИ ТИП 165 70СМ ЧЕРНЫЕ .";s:6:"parent";s:2:"19";s:4:"durl";s:57:"obuv-rabochaya/obuv-letnyaya/shnurki-tip-165-70sm-chernye";s:4:"dtxt";s:45:"Шнурки тип 165 70см черные .";s:4:"dpic";s:14:"/45f/12588.jpg";s:11:"preview_pic";s:14:"/c5e/12588.jpg";s:4:"bxid";s:6:"201822";s:5:"alias";s:28:"shnurki-tip-165-70sm-chernye";s:7:"section";s:5:"11664";s:5:"title";s:0:"";s:11:"description";s:0:"";s:8:"keywords";s:0:"";s:5:"price";s:1:"0";s:9:"old-price";s:1:"0";}i:38;a:20:{s:2:"id";s:3:"498";s:3:"act";s:1:"N";s:9:"prod_type";s:0:"";s:4:"name";s:43:"Шнурки тип 165 90см черные";s:3:"art";s:9:"Шнр007";s:4:"sort";s:3:"100";s:6:"search";s:92:"ШНУРКИ ТИП 165 90СМ ЧЕРНЫЕ

ШНУРКИ ТИП 165 90СМ ЧЕРНЫЕ .";s:6:"parent";s:2:"19";s:4:"durl";s:57:"obuv-rabochaya/obuv-letnyaya/shnurki-tip-165-90sm-chernye";s:4:"dtxt";s:45:"Шнурки тип 165 90см черные .";s:4:"dpic";s:14:"/029/12589.jpg";s:11:"preview_pic";s:14:"/703/12589.jpg";s:4:"bxid";s:6:"201823";s:5:"alias";s:28:"shnurki-tip-165-90sm-chernye";s:7:"section";s:5:"11664";s:5:"title";s:0:"";s:11:"description";s:0:"";s:8:"keywords";s:0:"";s:5:"price";s:1:"0";s:9:"old-price";s:1:"0";}i:39;a:20:{s:2:"id";s:3:"499";s:3:"act";s:1:"N";s:9:"prod_type";s:0:"";s:4:"name";s:81:"Ботинки Форвард литьев. крепл, подошва ПУ р.41";s:3:"art";s:9:"Бот601";s:4:"sort";s:3:"100";s:6:"search";s:85:"БОТИНКИ ФОРВАРД ЛИТЬЕВ. КРЕПЛ, ПОДОШВА ПУ Р.41

";s:6:"parent";s:2:"19";s:4:"durl";s:73:"obuv-rabochaya/obuv-letnyaya/botinki-forvard-litev-krepl-podoshva-pu-r-41";s:4:"dtxt";s:0:"";s:4:"dpic";s:13:"/758/4484.jpg";s:11:"preview_pic";s:13:"/0e4/4484.jpg";s:4:"bxid";s:6:"202031";s:5:"alias";s:44:"botinki-forvard-litev-krepl-podoshva-pu-r-41";s:7:"section";s:5:"11664";s:5:"title";s:0:"";s:11:"description";s:0:"";s:8:"keywords";s:0:"";s:5:"price";s:1:"0";s:9:"old-price";s:1:"0";}i:40;a:20:{s:2:"id";s:3:"500";s:3:"act";s:1:"N";s:9:"prod_type";s:0:"";s:4:"name";s:75:"Ботинки Комфорт с МП (юфть, ПУ/ПУ, МБС, КЩС)";s:3:"art";s:12:"Бот4208Т";s:4:"sort";s:3:"100";s:6:"search";s:931:"БОТИНКИ КОМФОРТ С МП (ЮФТЬ, ПУ/ПУ, МБС, КЩС)

ВЕРХ - НАТУРАЛЬНАЯ КОЖА ТОЛЩИНОЙ 1, 6-1, 8 ММ С ТИСНЕНИЕМ; ПОДОШВА ДВУХСЛОЙНАЯ ПОЛИУРЕТАНОВАЯ, ЛИТЬЕВОЙ МЕТОД КРЕПЛЕНИЯ, МАСЛО-БЕНЗО-КИСЛОТНО-ЩЕЛОЧЕСТОЙКАЯ; УСТОЙЧИВАЯ К ВОЗДЕЙСТВИЮ АГРЕССИВНОЙ СРЕДЫ И НЕФТЕПРОДУКТОВ; ТЕМПЕРАТУРНЫЙ ДИАПАЗОН ОТ -35С ДО +85С; АМОРТИЗАТОР В ПЯТОЧНОЙ ЧАСТИ; ГЛУХОЙ КЛАПАН ПРЕПЯТСТВУЮЩИЙ ПРОНИКНОВЕНИЮ ГРЯЗИ, ВЛАГИ И ПЫЛИ; МЯГКИЙ КАНТ ДЛЯ ДОПОЛНИТЕЛЬНОЙ ПОДДЕРЖКИ И ЗАЩИТЫ НОГ; КОМПЛЕКТАЦИЯ С МЕТАЛЛИЧЕСКИМ ПОДНОСКАМ; РАЗМЕРНЫЙ РЯД: С 36 ПО 47;";s:6:"parent";s:2:"19";s:4:"durl";s:71:"obuv-rabochaya/obuv-letnyaya/botinki-komfort-s-mp-yuft-pu-pu-mbs-kshchs";s:4:"dtxt";s:856:"Верх - натуральная кожа толщиной 1, 6-1, 8 мм с тиснением; Подошва двухслойная полиуретановая, литьевой метод крепления, масло-бензо-кислотно-щелочестойкая; Устойчивая к воздействию агрессивной среды и нефтепродуктов; Температурный диапазон от -35С до &#43;85С; Амортизатор в пяточной части; Глухой клапан препятствующий проникновению грязи, влаги и пыли; Мягкий кант для дополнительной поддержки и защиты ног; Комплектация с металлическим подноскам; Размерный ряд: с 36 по 47;";s:4:"dpic";s:14:"/9e4/11318.jpg";s:11:"preview_pic";s:14:"/1d1/11318.jpg";s:4:"bxid";s:6:"202227";s:5:"alias";s:42:"botinki-komfort-s-mp-yuft-pu-pu-mbs-kshchs";s:7:"section";s:5:"11664";s:5:"title";s:0:"";s:11:"description";s:0:"";s:8:"keywords";s:0:"";s:5:"price";s:1:"0";s:9:"old-price";s:1:"0";}i:41;a:20:{s:2:"id";s:3:"453";s:3:"act";s:1:"N";s:9:"prod_type";s:0:"";s:4:"name";s:42:"Берцы искуственный мех";s:3:"art";s:9:"Бер607";s:4:"sort";s:3:"100";s:6:"search";s:1078:"БЕРЦЫ ИСКУСТВЕННЫЙ МЕХ

БОТИНКИ ЮФТЕВЫЕ (БЕРЦЫ) ЧЕРНОГО ЦВЕТА С ИСКУССТВЕННЫМ МЕХОМ ЯВЛЯЮТСЯ ЗИМНЕЙ ПОЛЕВОЙ ФОРМЕННОЙ ОБУВЬЮ ВОЕННОСЛУЖАЩИХ ВООРУЖЕННЫХ СИЛ РФ И ДРУГИХ ВОИНСКИХ ФОРМИРОВАНИЙ, СОТРУДНИКОВ ПРАВООХРАНИТЕЛЬНЫХ ОРГАНОВ. ВЫСОКИЕ БЕРЦЫ БОТИНОК, ЗАЩИЩАЮЩИЕ БЕРЦОВУЮ КОСТЬ, ОСНАЩЕНЫ ОТВЕРСТИЯМИ ДЛЯ ШНУРОВКИ, ОБЕСПЕЧИВАЮЩЕЙ ИХ НАДЕЖНУЮ ФИКСАЦИЮ. БОТИНКИ УТЕПЛЕНЫ ИСКУССТВЕННЫМ МЕХОМ ДЛЯ КОМФОРТНОГО ИСПОЛЬЗОВАНИЯ В ХОЛОДНОЕ ВРЕМЯ ГОДА. СОЕДИНЕНИЕ ЧАСТЕЙ БОТИНОК ОБЕСПЕЧИВАЕТСЯ НАДЕЖНОЙ ПРОШИВКОЙ. ПОДОШВА БОТИНОК ИЗГОТОВЛЕНА ИЗ ТОЛСТОЙ РЕЗИНЫ С ПРОТИВОСКОЛЬЗЯЩИМ РАНТОМ.";s:6:"parent";s:2:"18";s:4:"durl";s:65:"obuv-rabochaya/obuv-zimnyaya-uteplennaya/bertsy-iskustvennyy-mekh";s:4:"dtxt";s:1040:"Ботинки юфтевые &#40;Берцы&#41; черного цвета с искусственным мехом являются зимней полевой форменной обувью военнослужащих Вооруженных сил РФ и других воинских формирований, сотрудников правоохранительных органов. Высокие берцы ботинок, защищающие берцовую кость, оснащены отверстиями для шнуровки, обеспечивающей их надежную фиксацию. Ботинки утеплены искусственным мехом для комфортного использования в холодное время года. Соединение частей ботинок обеспечивается надежной прошивкой. Подошва ботинок изготовлена из толстой резины с противоскользящим рантом.";s:4:"dpic";s:13:"/93a/4103.jpg";s:11:"preview_pic";s:13:"/b17/4103.jpg";s:4:"bxid";s:6:"200212";s:5:"alias";s:24:"bertsy-iskustvennyy-mekh";s:7:"section";s:5:"11663";s:5:"title";s:0:"";s:11:"description";s:0:"";s:8:"keywords";s:0:"";s:5:"price";s:1:"0";s:9:"old-price";s:1:"0";}i:42;a:20:{s:2:"id";s:3:"454";s:3:"act";s:1:"N";s:9:"prod_type";s:0:"";s:4:"name";s:40:"Берцы натуральный мех";s:3:"art";s:9:"Бер315";s:4:"sort";s:3:"100";s:6:"search";s:314:"БЕРЦЫ НАТУРАЛЬНЫЙ МЕХ

БОТИНКИ ВЫСОКИЕ, УТЕПЛИТЕЛЬ - НАТУРАЛЬНЫЙ ОВЕЧИЙ МЕХ. МАТЕРИАЛ ВЕРХА - ЮФТЬ КРС ТКАНЬ КОЖА ЦВЕТ ЧЕРНЫЙ УТЕПЛИТЕЛЬ НАТУРАЛЬНЫЙ ОВЕЧИЙ МЕХ РАЗМЕР 41-46 .";s:6:"parent";s:2:"18";s:4:"durl";s:63:"obuv-rabochaya/obuv-zimnyaya-uteplennaya/bertsy-naturalnyy-mekh";s:4:"dtxt";s:270:"Ботинки высокие, утеплитель - натуральный овечий мех. материал верха - юфть КРС Ткань кожа Цвет черный Утеплитель натуральный овечий мех Размер 41-46 .";s:4:"dpic";s:13:"/308/4110.jpg";s:11:"preview_pic";s:13:"/18b/4110.jpg";s:4:"bxid";s:6:"200214";s:5:"alias";s:22:"bertsy-naturalnyy-mekh";s:7:"section";s:5:"11663";s:5:"title";s:0:"";s:11:"description";s:0:"";s:8:"keywords";s:0:"";s:5:"price";s:1:"0";s:9:"old-price";s:1:"0";}i:43;a:20:{s:2:"id";s:3:"455";s:3:"act";s:1:"Y";s:9:"prod_type";s:0:"";s:4:"name";s:39:"Ботинки ЗЕНИТ иск.мех";s:3:"art";s:9:"Бот603";s:4:"sort";s:3:"100";s:6:"search";s:1115:"БОТИНКИ ЗЕНИТ ИСК.МЕХ

МЕТОД КРЕПЛЕНИЯ: ЛИТЬЕВОЙ МАТЕРИАЛ ПОДОШВЫ: ПУ СВОЙСТВА: НС; НМ; З; К20 РАЗМЕРЫ: 36-47 ВЕРХ: СОЮЗКА, БЕРЦЫ, ЗАДИНКА - НАТУРАЛЬНАЯ КОЖА, ФИГУРНАЯ МЯГКАЯ ВСТАВКА И ГЛУХОЙ ПРОТИВОПЫЛЕВЫЙ КЛАПАН ИЗ ИСКУССТВЕННОЙ КОЖИ, ОСНОВНАЯ СТЕЛЬКА ИЗ ШТРОБЕЛЬНОГО МАТЕРИАЛА, КОМФОРТНАЯ ВКЛАДНАЯ СТЕЛЬКА ИЗ КОЖКАРТОНА ДУБЛИРОВАННОГО ВОЛОКНИНОЙ, ИСКУССТВЕННЫЙ МЕХ, ЖЕСТКИЙ ФОРМОВАННЫЙ ПОДНОСОК, УДОБНАЯ КОЛОДКА АНАТОМИЧЕСКОЙ ФОРМЫ. ПОДОШВА: МАСЛОБЕНЗОСТОЙКОСТЬ, КИСЛОТОСТОЙКОСТЬ, ПОВЫШЕННАЯ ИЗНОСОУСТОЙЧИВОСТЬ, ТЕМПЕРАТУРНЫЙ ДИАПАЗОН ИСПОЛЬЗОВАНИЯ -20°С +110°С, САМООЧИЩАЮЩИЙСЯ ПРОФИЛЬ ХОДОВОЙ ПОВЕРХНОСТИ.";s:6:"parent";s:2:"18";s:4:"durl";s:63:"obuv-rabochaya/obuv-zimnyaya-uteplennaya/botinki-zenit-isk-mekh";s:4:"dtxt";s:1076:"Метод крепления: литьевой Материал подошвы: ПУ Свойства: Нс; Нм; З; К20 Размеры: 36-47 Верх: союзка, берцы, задинка - натуральная кожа, фигурная мягкая вставка и глухой противопылевый клапан из искусственной кожи, основная стелька из штробельного материала, комфортная вкладная стелька из кожкартона дублированного волокниной, искусственный мех, жесткий формованный подносок, удобная колодка анатомической формы. Подошва: маслобензостойкость, кислотостойкость, повышенная износоустойчивость, температурный диапазон использования -20°С &#43;110°С, самоочищающийся профиль ходовой поверхности.";s:4:"dpic";s:13:"/691/4118.jpg";s:11:"preview_pic";s:13:"/aeb/4118.jpg";s:4:"bxid";s:6:"200222";s:5:"alias";s:22:"botinki-zenit-isk-mekh";s:7:"section";s:5:"11663";s:5:"title";s:0:"";s:11:"description";s:0:"";s:8:"keywords";s:0:"";s:5:"price";s:1:"0";s:9:"old-price";s:1:"0";}i:44;a:20:{s:2:"id";s:3:"456";s:3:"act";s:1:"N";s:9:"prod_type";s:0:"";s:4:"name";s:84:"Ботинки Комфорт утепленные с МП (юфть, иск.мех)";s:3:"art";s:14:"Бот4208МТ";s:4:"sort";s:3:"100";s:6:"search";s:981:"БОТИНКИ КОМФОРТ УТЕПЛЕННЫЕ С МП (ЮФТЬ, ИСК.МЕХ)

ВЕРХ - НАТУРАЛЬНАЯ КОЖА ТОЛЩИНОЙ 1, 6-1, 8 ММ С ТИСНЕНИЕМ; ПОДОШВА ДВУХСЛОЙНАЯ ПОЛИУРЕТАНОВАЯ, ЛИТЬЕВОЙ МЕТОД КРЕПЛЕНИЯ, МАСЛО-БЕНЗО-КИСЛОТНО-ЩЕЛОЧЕСТОЙКАЯ; УСТОЙЧИВАЯ К ВОЗДЕЙСТВИЮ АГРЕССИВНОЙ СРЕДЫ И НЕФТЕПРОДУКТОВ; ТЕМПЕРАТУРНЫЙ ДИАПАЗОН ОТ -35С ДО +85С; АМОРТИЗАТОР В ПЯТОЧНОЙ ЧАСТИ; ГЛУХОЙ КЛАПАН ПРЕПЯТСТВУЮЩИЙ ПРОНИКНОВЕНИЮ ГРЯЗИ, ВЛАГИ И ПЫЛИ; МЯГКИЙ КАНТ ДЛЯ ДОПОЛНИТЕЛЬНОЙ ПОДДЕРЖКИ И ЗАЩИТЫ НОГ; КОМПЛЕКТАЦИЯ С МЕТАЛЛИЧЕСКИМ ПОДНОСКАМ И ИСКУССТВЕННЫМ МЕХОМ; РАЗМЕРНЫЙ РЯД: С 36 ПО 47;";s:6:"parent";s:2:"18";s:4:"durl";s:86:"obuv-rabochaya/obuv-zimnyaya-uteplennaya/botinki-komfort-uteplennye-s-mp-yuft-isk-mekh";s:4:"dtxt";s:897:"Верх - натуральная кожа толщиной 1, 6-1, 8 мм с тиснением; Подошва двухслойная полиуретановая, литьевой метод крепления, масло-бензо-кислотно-щелочестойкая; Устойчивая к воздействию агрессивной среды и нефтепродуктов; Температурный диапазон от -35С до &#43;85С; Амортизатор в пяточной части; Глухой клапан препятствующий проникновению грязи, влаги и пыли; Мягкий кант для дополнительной поддержки и защиты ног; Комплектация с металлическим подноскам и искусственным мехом; Размерный ряд: с 36 по 47;";s:4:"dpic";s:14:"/471/15216.jpg";s:11:"preview_pic";s:14:"/8f0/15216.jpg";s:4:"bxid";s:6:"200227";s:5:"alias";s:45:"botinki-komfort-uteplennye-s-mp-yuft-isk-mekh";s:7:"section";s:5:"11663";s:5:"title";s:0:"";s:11:"description";s:0:"";s:8:"keywords";s:0:"";s:5:"price";s:1:"0";s:9:"old-price";s:1:"0";}i:45;a:20:{s:2:"id";s:3:"457";s:3:"act";s:1:"N";s:9:"prod_type";s:0:"";s:4:"name";s:76:"Ботинки Комфорт утепленные (юфть, иск.мех)";s:3:"art";s:12:"Бот4208М";s:4:"sort";s:3:"100";s:6:"search";s:924:"БОТИНКИ КОМФОРТ УТЕПЛЕННЫЕ (ЮФТЬ, ИСК.МЕХ)

ВЕРХ - НАТУРАЛЬНАЯ КОЖА ТОЛЩИНОЙ 1, 6-1, 8 ММ С ТИСНЕНИЕМ; ПОДОШВА ДВУХСЛОЙНАЯ ПОЛИУРЕТАНОВАЯ, ЛИТЬЕВОЙ МЕТОД КРЕПЛЕНИЯ, МАСЛО-БЕНЗО-КИСЛОТНО-ЩЕЛОЧЕСТОЙКАЯ; УСТОЙЧИВАЯ К ВОЗДЕЙСТВИЮ АГРЕССИВНОЙ СРЕДЫ И НЕФТЕПРОДУКТОВ; ТЕМПЕРАТУРНЫЙ ДИАПАЗОН ОТ -35С ДО +85С; АМОРТИЗАТОР В ПЯТОЧНОЙ ЧАСТИ; ГЛУХОЙ КЛАПАН ПРЕПЯТСТВУЮЩИЙ ПРОНИКНОВЕНИЮ ГРЯЗИ, ВЛАГИ И ПЫЛИ; МЯГКИЙ КАНТ ДЛЯ ДОПОЛНИТЕЛЬНОЙ ПОДДЕРЖКИ И ЗАЩИТЫ НОГ; КОМПЛЕКТАЦИЯ С ИСКУССТВЕННЫМ МЕХОМ; РАЗМЕРНЫЙ РЯД: С 36 ПО 47;";s:6:"parent";s:2:"18";s:4:"durl";s:81:"obuv-rabochaya/obuv-zimnyaya-uteplennaya/botinki-komfort-uteplennye-yuft-isk-mekh";s:4:"dtxt";s:848:"Верх - натуральная кожа толщиной 1, 6-1, 8 мм с тиснением; Подошва двухслойная полиуретановая, литьевой метод крепления, масло-бензо-кислотно-щелочестойкая; Устойчивая к воздействию агрессивной среды и нефтепродуктов; Температурный диапазон от -35С до &#43;85С; Амортизатор в пяточной части; Глухой клапан препятствующий проникновению грязи, влаги и пыли; Мягкий кант для дополнительной поддержки и защиты ног; Комплектация с искусственным мехом; Размерный ряд: с 36 по 47;";s:4:"dpic";s:14:"/bf8/11305.jpg";s:11:"preview_pic";s:14:"/12c/11305.jpg";s:4:"bxid";s:6:"200228";s:5:"alias";s:40:"botinki-komfort-uteplennye-yuft-isk-mekh";s:7:"section";s:5:"11663";s:5:"title";s:0:"";s:11:"description";s:0:"";s:8:"keywords";s:0:"";s:5:"price";s:1:"0";s:9:"old-price";s:1:"0";}i:46;a:20:{s:2:"id";s:3:"458";s:3:"act";s:1:"N";s:9:"prod_type";s:0:"";s:4:"name";s:86:"Ботинки Стандарт утепленные с МП (юфть, иск.мех)";s:3:"art";s:14:"Бот3208МТ";s:4:"sort";s:3:"100";s:6:"search";s:984:"БОТИНКИ СТАНДАРТ УТЕПЛЕННЫЕ С МП (ЮФТЬ, ИСК.МЕХ)

ВЕРХ- НАТУРАЛЬНАЯ КОЖА ТОЛЩИНОЙ 1, 6-1, 8 ММ С ТИСНЕНИЕМ; ПОДОШВА ОДНОСЛОЙНАЯ ПОЛИУРЕТАНОВАЯ, ЛИТЬЕВОЙ МЕТОД КРЕПЛЕНИЯ, МАСЛО-БЕНЗО-КИСЛОТНО-ЩЕЛОЧЕСТОЙКАЯ; УСТОЙЧИВАЯ К ВОЗДЕЙСТВИЮ АГРЕССИВНОЙ СРЕДЫ И НЕФТЕПРОДУКТОВ; ТЕМПЕРАТУРНЫЙ ДИАПАЗОН ОТ -35С ДО +85С; АМОРТИЗАТОР В ПЯТОЧНОЙ ЧАСТИ; ГЛУХОЙ КЛАПАН ПРЕПЯТСТВУЮЩИЙ ПРОНИКНОВЕНИЮ ГРЯЗИ, ВЛАГИ И ПЫЛИ; O МЯГКИЙ КАНТ ДЛЯ ДОПОЛНИТЕЛЬНОЙ ПОДДЕРЖКИ И ЗАЩИТЫ НОГ; КОМПЛЕКТАЦИЯ С МЕТАЛЛИЧЕСКИМ ПОДНОСКАМ И ИСКУССТВЕННЫМ МЕХОМ; РАЗМЕРНЫЙ РЯД: С 36 ПО 47;";s:6:"parent";s:2:"18";s:4:"durl";s:87:"obuv-rabochaya/obuv-zimnyaya-uteplennaya/botinki-standart-uteplennye-s-mp-yuft-isk-mekh";s:4:"dtxt";s:898:"Верх- натуральная кожа толщиной 1, 6-1, 8 мм с тиснением; Подошва однослойная полиуретановая, литьевой метод крепления, масло-бензо-кислотно-щелочестойкая; Устойчивая к воздействию агрессивной среды и нефтепродуктов; Температурный диапазон от -35С до &#43;85С; Амортизатор в пяточной части; Глухой клапан препятствующий проникновению грязи, влаги и пыли; o Мягкий кант для дополнительной поддержки и защиты ног; Комплектация с металлическим подноскам и искусственным мехом; Размерный ряд: с 36 по 47;";s:4:"dpic";s:14:"/def/11181.jpg";s:11:"preview_pic";s:14:"/9e6/11181.jpg";s:4:"bxid";s:6:"200232";s:5:"alias";s:46:"botinki-standart-uteplennye-s-mp-yuft-isk-mekh";s:7:"section";s:5:"11663";s:5:"title";s:0:"";s:11:"description";s:0:"";s:8:"keywords";s:0:"";s:5:"price";s:1:"0";s:9:"old-price";s:1:"0";}i:47;a:20:{s:2:"id";s:3:"459";s:3:"act";s:1:"N";s:9:"prod_type";s:0:"";s:4:"name";s:78:"Ботинки Стандарт утепленные (юфть, иск.мех)";s:3:"art";s:12:"Бот3208М";s:4:"sort";s:3:"100";s:6:"search";s:927:"БОТИНКИ СТАНДАРТ УТЕПЛЕННЫЕ (ЮФТЬ, ИСК.МЕХ)

ВЕРХ- НАТУРАЛЬНАЯ КОЖА ТОЛЩИНОЙ 1, 6-1, 8 ММ С ТИСНЕНИЕМ; ПОДОШВА ОДНОСЛОЙНАЯ ПОЛИУРЕТАНОВАЯ, ЛИТЬЕВОЙ МЕТОД КРЕПЛЕНИЯ, МАСЛО-БЕНЗО-КИСЛОТНО-ЩЕЛОЧЕСТОЙКАЯ; УСТОЙЧИВАЯ К ВОЗДЕЙСТВИЮ АГРЕССИВНОЙ СРЕДЫ И НЕФТЕПРОДУКТОВ; ТЕМПЕРАТУРНЫЙ ДИАПАЗОН ОТ -35С ДО +85С; АМОРТИЗАТОР В ПЯТОЧНОЙ ЧАСТИ; ГЛУХОЙ КЛАПАН ПРЕПЯТСТВУЮЩИЙ ПРОНИКНОВЕНИЮ ГРЯЗИ, ВЛАГИ И ПЫЛИ; O МЯГКИЙ КАНТ ДЛЯ ДОПОЛНИТЕЛЬНОЙ ПОДДЕРЖКИ И ЗАЩИТЫ НОГ; КОМПЛЕКТАЦИЯ С ИСКУССТВЕННЫМ МЕХОМ; РАЗМЕРНЫЙ РЯД: С 36 ПО 47;";s:6:"parent";s:2:"18";s:4:"durl";s:82:"obuv-rabochaya/obuv-zimnyaya-uteplennaya/botinki-standart-uteplennye-yuft-isk-mekh";s:4:"dtxt";s:849:"Верх- натуральная кожа толщиной 1, 6-1, 8 мм с тиснением; Подошва однослойная полиуретановая, литьевой метод крепления, масло-бензо-кислотно-щелочестойкая; Устойчивая к воздействию агрессивной среды и нефтепродуктов; Температурный диапазон от -35С до &#43;85С; Амортизатор в пяточной части; Глухой клапан препятствующий проникновению грязи, влаги и пыли; o Мягкий кант для дополнительной поддержки и защиты ног; Комплектация с искусственным мехом; Размерный ряд: с 36 по 47;";s:4:"dpic";s:14:"/a81/11303.jpg";s:11:"preview_pic";s:14:"/b64/11303.jpg";s:4:"bxid";s:6:"200233";s:5:"alias";s:41:"botinki-standart-uteplennye-yuft-isk-mekh";s:7:"section";s:5:"11663";s:5:"title";s:0:"";s:11:"description";s:0:"";s:8:"keywords";s:0:"";s:5:"price";s:1:"0";s:9:"old-price";s:1:"0";}i:48;a:20:{s:2:"id";s:3:"460";s:3:"act";s:1:"N";s:9:"prod_type";s:0:"";s:4:"name";s:81:"Насадки на обувь против скольжения Ледоходы";s:3:"art";s:9:"Нас001";s:4:"sort";s:3:"100";s:6:"search";s:1155:"НАСАДКИ НА ОБУВЬ ПРОТИВ СКОЛЬЖЕНИЯ ЛЕДОХОДЫ

ЛЕДОХОДЫ ДЛЯ ОБУВИ (АНТИГОЛОЛЕДЫ) УНИВЕРСАЛЬНЫЕ ИЗГОТОВЛЕНЫ В ВИДЕ СЪЁМНЫХ ПОДОШВ ИЗ ВЫСОКОКАЧЕСТВЕННОЙ ЭЛАСТИЧНОЙ РЕЗИНЫ, НА НИЖНЕЙ ПОВЕРХНОСТИ КОТОРОЙ ВЫСТУПАЮТ НЕБОЛЬШИЕ СТАЛЬНЫЕ ШИПЫ 6 ШТУК (12 ШТУК В ПАРЕ). ШИПЫ СДЕЛАНЫ ИЗ ЗАКАЛЁННОЙ НЕРЖАВЕЮЩЕЙ СТАЛИ, НАДЁЖНО ЗАКРЕПЛЕНЫ ПО ПРИНЦИПУ ЗАКЛЁПКИ, ПОЭТОМУ НЕ ВЫПАДАЮТ И НЕ СТАЧИВАЮТСЯ ПРИ ХОДЬБЕ. ЛЕДОХОДЫ ЛЕГКО И ПРОСТО ОДЕВАЮТСЯ НА ЛЮБУЮ ОБУВЬ (МАЛЕНЬКАЯ ПЕТЛЯ НА НОСОК, БОЛЬШАЯ НА ПЯТКУ ) ПРОЧНО ДЕРЖАТСЯ НА НОГЕ И ПОЗВОЛЯЮТ ЧУВСТВОВАТЬ СЕБЯ УВЕРЕННО ПРИ ХОДЬБЕ В САМЫЙ СИЛЬНЫЙ ГОЛОЛЁД И ВЕТЕР. ДОПОЛНИТЕЛЬНЫЙ ПРОТЕКТОР НА ПОДОШВЕ.";s:6:"parent";s:2:"18";s:4:"durl";s:85:"obuv-rabochaya/obuv-zimnyaya-uteplennaya/nasadki-na-obuv-protiv-skolzheniya-ledokhody";s:4:"dtxt";s:1094:"Ледоходы для обуви &#40;антигололеды&#41; универсальные изготовлены в виде съёмных подошв из высококачественной эластичной резины, на нижней поверхности которой выступают небольшие стальные шипы 6 штук &#40;12 штук в паре&#41;. Шипы сделаны из закалённой нержавеющей стали, надёжно закреплены по принципу заклёпки, поэтому не выпадают и не стачиваются при ходьбе. Ледоходы легко и просто одеваются на любую обувь &#40;маленькая петля на носок, большая на пятку &#41; прочно держатся на ноге и позволяют чувствовать себя уверенно при ходьбе в самый сильный гололёд и ветер. Дополнительный протектор на подошве.";s:4:"dpic";s:14:"/0e5/16154.jpg";s:11:"preview_pic";s:14:"/d3a/16154.jpg";s:4:"bxid";s:6:"200929";s:5:"alias";s:44:"nasadki-na-obuv-protiv-skolzheniya-ledokhody";s:7:"section";s:5:"11663";s:5:"title";s:0:"";s:11:"description";s:0:"";s:8:"keywords";s:0:"";s:5:"price";s:1:"0";s:9:"old-price";s:1:"0";}i:49;a:20:{s:2:"id";s:3:"461";s:3:"act";s:1:"N";s:9:"prod_type";s:0:"";s:4:"name";s:74:"Сапоги Вектор утепл иск.мех мет подносок";s:3:"art";s:9:"Сап601";s:4:"sort";s:3:"100";s:6:"search";s:1193:"САПОГИ ВЕКТОР УТЕПЛ ИСК.МЕХ МЕТ ПОДНОСОК

МЕТОД КРЕПЛЕНИЯ: ЛИТЬЕВОЙ МАТЕРИАЛ ПОДОШВЫ: ПУ СВОЙСТВА: НС; НМ; З; К20; МУН200 РАЗМЕРЫ: 36-47 ВЕРХ: СОЮЗКА, ЗАДИНКА, ГОЛЕНИЩЕ - НАТУРАЛЬНАЯ КОЖА, КЛАПАН - ИСКУССТВЕННАЯ КОЖА, ГОЛЕНИЩЕ РЕГУЛИРУЕТСЯ ПРЯЖКОЙ, ВЫСОТА 240 ММ, ОСНОВНАЯ СТЕЛЬКА ИЗ ШТРОБЕЛЬНОГО МАТЕРИАЛА, КОМФОРТНАЯ ВКЛАДНАЯ СТЕЛЬКА ИЗ КОЖКАРТОНА ДУБЛИРОВАННОГО ВОЛОКНИНОЙ, ИСКУССТВЕННЫЙ МЕХ, ВНУТРЕННИЙ МЕТАЛЛИЧЕСКИЙ ПОДНОСОК ДО 200 ДЖ, УДОБНАЯ КОЛОДКА АНАТОМИЧЕСКОЙ ФОРМЫ. ПОДОШВА: МАСЛОБЕНЗОСТОЙКОСТЬ, КИСЛОТОСТОЙКОСТЬ, ПОВЫШЕННОЕ СОПРОТИВЛЕНИЕ К СКОЛЬЖЕНИЮ, ТЕМПЕРАТУРНЫЙ ДИАПАЗОН ИСПОЛЬЗОВАНИЯ -20°С +110°С, САМООЧИЩАЮЩИЙСЯ ПРОФИЛЬ ХОДОВОЙ ПОВЕРХНОСТИ.";s:6:"parent";s:2:"18";s:4:"durl";s:82:"obuv-rabochaya/obuv-zimnyaya-uteplennaya/sapogi-vektor-utepl-isk-mekh-met-podnosok";s:4:"dtxt";s:1119:"Метод крепления: литьевой Материал подошвы: ПУ Свойства: Нс; Нм; З; К20; Мун200 Размеры: 36-47 Верх: союзка, задинка, голенище - натуральная кожа, клапан - искусственная кожа, голенище регулируется пряжкой, высота 240 мм, основная стелька из штробельного материала, комфортная вкладная стелька из кожкартона дублированного волокниной, искусственный мех, внутренний металлический подносок до 200 Дж, удобная колодка анатомической формы. Подошва: маслобензостойкость, кислотостойкость, повышенное сопротивление к скольжению, температурный диапазон использования -20°С &#43;110°С, самоочищающийся профиль ходовой поверхности.";s:4:"dpic";s:13:"/5db/8746.jpg";s:11:"preview_pic";s:13:"/509/8746.jpg";s:4:"bxid";s:6:"201346";s:5:"alias";s:41:"sapogi-vektor-utepl-isk-mekh-met-podnosok";s:7:"section";s:5:"11663";s:5:"title";s:0:"";s:11:"description";s:0:"";s:8:"keywords";s:0:"";s:5:"price";s:1:"0";s:9:"old-price";s:1:"0";}i:50;a:20:{s:2:"id";s:3:"462";s:3:"act";s:1:"Y";s:9:"prod_type";s:0:"";s:4:"name";s:50:"Сапоги Вектор утепл иск.мех";s:3:"art";s:9:"Сап602";s:4:"sort";s:3:"100";s:6:"search";s:1101:"САПОГИ ВЕКТОР УТЕПЛ ИСК.МЕХ

МЕТОД КРЕПЛЕНИЯ: ЛИТЬЕВОЙ МАТЕРИАЛ ПОДОШВЫ: ПУ СВОЙСТВА: НС; НМ; З; К20 РАЗМЕРЫ: 36-47 ВЕРХ: ОЮЗКА, ЗАДИНКА, ГОЛЕНИЩЕ - НАТУРАЛЬНАЯ КОЖА, КЛАПАН - ИСКУССТВЕННАЯ КОЖА, ГОЛЕНИЩЕ РЕГУЛИРУЕТСЯ ПРЯЖКОЙ, ВЫСОТА 240 ММ, УТЕПЛЁННЫЕ ИСКУССТВЕННЫМ МЕХОМ, ОСНОВНАЯ СТЕЛЬКА ИЗ ШТРОБЕЛЬНОГО МАТЕРИАЛА, КОМФОРТНАЯ ВКЛАДНАЯ СТЕЛЬКА ИЗ КОЖКАРТОНА ДУБЛИРОВАННОГО ИСКУССТВЕННЫМ МЕХОМ, ЖЕСТКИЙ ФОРМОВАННЫЙ ПОДНОСОК, УДОБНАЯ КОЛОДКА АНАТОМИЧЕСКОЙ ФОРМЫ. ПОДОШВА: МАСЛОБЕНЗОСТОЙКОСТЬ, КИСЛОТОСТОЙКОСТЬ, ТЕМПЕРАТУРНЫЙ ДИАПАЗОН ИСПОЛЬЗОВАНИЯ -20°С +110°С, САМООЧИЩАЮЩИЙСЯ ПРОФИЛЬ ХОДОВОЙ ПОВЕРХНОСТИ.";s:6:"parent";s:2:"18";s:4:"durl";s:69:"obuv-rabochaya/obuv-zimnyaya-uteplennaya/sapogi-vektor-utepl-isk-mekh";s:4:"dtxt";s:1051:"Метод крепления: литьевой Материал подошвы: ПУ Свойства: Нс; Нм; З; К20 Размеры: 36-47 Верх: оюзка, задинка, голенище - натуральная кожа, клапан - искусственная кожа, голенище регулируется пряжкой, высота 240 мм, утеплённые искусственным мехом, основная стелька из штробельного материала, комфортная вкладная стелька из кожкартона дублированного искусственным мехом, жесткий формованный подносок, удобная колодка анатомической формы. Подошва: маслобензостойкость, кислотостойкость, температурный диапазон использования -20°С &#43;110°С, самоочищающийся профиль ходовой поверхности.";s:4:"dpic";s:13:"/fd5/4214.jpg";s:11:"preview_pic";s:13:"/4b6/4214.jpg";s:4:"bxid";s:6:"201347";s:5:"alias";s:28:"sapogi-vektor-utepl-isk-mekh";s:7:"section";s:5:"11663";s:5:"title";s:0:"";s:11:"description";s:0:"";s:8:"keywords";s:0:"";s:5:"price";s:1:"0";s:9:"old-price";s:1:"0";}i:51;a:20:{s:2:"id";s:3:"463";s:3:"act";s:1:"N";s:9:"prod_type";s:0:"";s:4:"name";s:85:"Сапоги Комфорт утепленные (юфть/кирза, иск.мех)";s:3:"art";s:12:"Сап4218М";s:4:"sort";s:3:"100";s:6:"search";s:793:"САПОГИ КОМФОРТ УТЕПЛЕННЫЕ (ЮФТЬ/КИРЗА, ИСК.МЕХ)

ВЕРХ- НАТУРАЛЬНАЯ КОЖА ТОЛЩИНОЙ 1, 6-1, 8 ММ С ТИСНЕНИЕМ; ПОДОШВА ДВУХСЛОЙНАЯ ПОЛИУРЕТАНОВАЯ, ЛИТЬЕВОЙ МЕТОД КРЕПЛЕНИЯ, МАСЛО-БЕНЗО-КИСЛОТНО-ЩЕЛОЧЕСТОЙКАЯ; УСТОЙЧИВАЯ К ВОЗДЕЙСТВИЮ АГРЕССИВНОЙ СРЕДЫ И НЕФТЕПРОДУКТОВ; ТЕМПЕРАТУРНЫЙ ДИАПАЗОН ОТ -35С ДО +85С; АМОРТИЗАТОР В ПЯТОЧНОЙ ЧАСТИ; РЕГУЛИРУЕМОЕ ГОЛЕНИЩЕ; ВЫСОТА САПОГА - 30 СМ; КОМПЛЕКТАЦИЯ С ИСКУССТВЕННЫМ МЕХОМ; РАЗМЕРНЫЙ РЯД: С 39 ПО 47;";s:6:"parent";s:2:"18";s:4:"durl";s:86:"obuv-rabochaya/obuv-zimnyaya-uteplennaya/sapogi-komfort-uteplennye-yuft-kirza-isk-mekh";s:4:"dtxt";s:708:"Верх- натуральная кожа толщиной 1, 6-1, 8 мм с тиснением; Подошва двухслойная полиуретановая, литьевой метод крепления, масло-бензо-кислотно-щелочестойкая; Устойчивая к воздействию агрессивной среды и нефтепродуктов; Температурный диапазон от -35С до &#43;85С; Амортизатор в пяточной части; Регулируемое голенище; Высота сапога - 30 см; Комплектация с искусственным мехом; Размерный ряд: с 39 по 47;";s:4:"dpic";s:14:"/b56/11325.jpg";s:11:"preview_pic";s:14:"/c5d/11325.jpg";s:4:"bxid";s:6:"201348";s:5:"alias";s:45:"sapogi-komfort-uteplennye-yuft-kirza-isk-mekh";s:7:"section";s:5:"11663";s:5:"title";s:0:"";s:11:"description";s:0:"";s:8:"keywords";s:0:"";s:5:"price";s:1:"0";s:9:"old-price";s:1:"0";}i:52;a:20:{s:2:"id";s:3:"464";s:3:"act";s:1:"N";s:9:"prod_type";s:0:"";s:4:"name";s:95:"Сапоги Стандарт утепленные с МП (юфть/кирза, иск.мех)";s:3:"art";s:14:"Сап3218МТ";s:4:"sort";s:3:"100";s:6:"search";s:852:"САПОГИ СТАНДАРТ УТЕПЛЕННЫЕ С МП (ЮФТЬ/КИРЗА, ИСК.МЕХ)

ВЕРХ- НАТУРАЛЬНАЯ КОЖА ТОЛЩИНОЙ 1, 6-1, 8 ММ С ТИСНЕНИЕМ; ПОДОШВА ОДНОСЛОЙНАЯ ПОЛИУРЕТАНОВАЯ, ЛИТЬЕВОЙ МЕТОД КРЕПЛЕНИЯ, МАСЛО-БЕНЗО-КИСЛОТНО-ЩЕЛОЧЕСТОЙКАЯ; УСТОЙЧИВАЯ К ВОЗДЕЙСТВИЮ АГРЕССИВНОЙ СРЕДЫ И НЕФТЕПРОДУКТОВ; ТЕМПЕРАТУРНЫЙ ДИАПАЗОН ОТ -35С ДО +85С; АМОРТИЗАТОР В ПЯТОЧНОЙ ЧАСТИ; РЕГУЛИРУЕМОЕ ГОЛЕНИЩЕ; ВЫСОТА САПОГА - 30 СМ; КОМПЛЕКТАЦИЯ С МЕТАЛЛИЧЕСКИМ ПОДНОСКОМ И ИСКУССТВЕННЫМ МЕХОМ; РАЗМЕРНЫЙ РЯД: С 39 ПО 47;";s:6:"parent";s:2:"18";s:4:"durl";s:92:"obuv-rabochaya/obuv-zimnyaya-uteplennaya/sapogi-standart-uteplennye-s-mp-yuft-kirza-isk-mekh";s:4:"dtxt";s:757:"Верх- натуральная кожа толщиной 1, 6-1, 8 мм с тиснением; Подошва однослойная полиуретановая, литьевой метод крепления, масло-бензо-кислотно-щелочестойкая; Устойчивая к воздействию агрессивной среды и нефтепродуктов; Температурный диапазон от -35С до &#43;85С; Амортизатор в пяточной части; Регулируемое голенище; Высота сапога - 30 см; Комплектация с металлическим подноском и искусственным мехом; Размерный ряд: с 39 по 47;";s:4:"dpic";s:14:"/0f7/11180.jpg";s:11:"preview_pic";s:14:"/ea2/11180.jpg";s:4:"bxid";s:6:"201352";s:5:"alias";s:51:"sapogi-standart-uteplennye-s-mp-yuft-kirza-isk-mekh";s:7:"section";s:5:"11663";s:5:"title";s:0:"";s:11:"description";s:0:"";s:8:"keywords";s:0:"";s:5:"price";s:1:"0";s:9:"old-price";s:1:"0";}i:53;a:20:{s:2:"id";s:3:"465";s:3:"act";s:1:"N";s:9:"prod_type";s:0:"";s:4:"name";s:60:"Сапоги суконные детские цв.бордо";s:3:"art";s:9:"Сап045";s:4:"sort";s:3:"100";s:6:"search";s:1245:"САПОГИ СУКОННЫЕ ДЕТСКИЕ ЦВ.БОРДО

САПОГИ СУКОННЫЕ ВЫПОЛНЕНЫ ИЗ НАТУРАЛЬНОГО СУКНА, СДУБЛИРОВАННОГО С МЕХОМ ИЗ ШЕРСТИ ИЛИ ИСКУССТВЕННЫМ МЕХОМ. ПРЕВОСХОДНУЮ ТЕПЛОИЗОЛЯЦИЮ САПОГУ ПРИДАЕТ ПЛОТНЫЙ ДЛИННОВОРСОВЫЙ МЕХ. НЕСЛОЖНЫЙ КРОЙ ГОЛЕНИЩА ИДЕАЛЬНО ПОДОБРАН К ФОРМЕ НОГИ, КРЕПИТСЯ НА МОЛНИИ И НЕ ТОЛЬКО ОБЕСПЕЧИВАЕТ ЗАЩИТУ ОТ ХОЛОДА, НО И ПРЕДОХРАНЯЕТ ОТ НЕУДОБСТВ ПРИ АКТИВНОМ, ПРОДОЛЖИТЕЛЬНОМ ДВИЖЕНИИ. ПОДОШВА КРЕПИТСЯ К СУКОННОМУ САПОГУ С ПОМОЩЬЮ ЛИТЬЯ. СЫРЬЕМ ДЛЯ ПОДОШВЫ СЛУЖИТ МОРОЗОСТОЙКИЙ ВСПЕНЕННЫЙ ПВХ, В КОТОРОМ ОБРАЗУЮТСЯ ВОЗДУШНЫЕ МИКРОСФЕРЫ, ПРЕДОТВРАЩАЮЩИЕ ПРОНИКНОВЕНИЕ ХОЛОДА С ПОДОШВЫ, СОХРАНЯЯ ТЕМ САМЫМ ТЕРМОСТАБИЛЬНОСТЬ ВНУТРИ САПОГА ПРИ МОРОЗАХ ДО -30°С.";s:6:"parent";s:2:"18";s:4:"durl";s:74:"obuv-rabochaya/obuv-zimnyaya-uteplennaya/sapogi-sukonnye-detskie-tsv-bordo";s:4:"dtxt";s:1181:"Сапоги суконные выполнены из натурального сукна, сдублированного с мехом из шерсти или искусственным мехом. Превосходную теплоизоляцию сапогу придает плотный длинноворсовый мех. Несложный крой голенища идеально подобран к форме ноги, крепится на молнии и не только обеспечивает защиту от холода, но и предохраняет от неудобств при активном, продолжительном движении. Подошва крепится к суконному сапогу с помощью литья. Сырьем для подошвы служит морозостойкий вспененный ПВХ, в котором образуются воздушные микросферы, предотвращающие проникновение холода с подошвы, сохраняя тем самым термостабильность внутри сапога при морозах до -30°С.";s:4:"dpic";s:14:"/f7c/15704.jpg";s:11:"preview_pic";s:14:"/6c6/15704.jpg";s:4:"bxid";s:6:"201413";s:5:"alias";s:33:"sapogi-sukonnye-detskie-tsv-bordo";s:7:"section";s:5:"11663";s:5:"title";s:0:"";s:11:"description";s:0:"";s:8:"keywords";s:0:"";s:5:"price";s:1:"0";s:9:"old-price";s:1:"0";}i:54;a:20:{s:2:"id";s:3:"466";s:3:"act";s:1:"N";s:9:"prod_type";s:0:"";s:4:"name";s:75:"Сапоги суконные детские цв.голубой р.33(210)";s:3:"art";s:9:"Сап047";s:4:"sort";s:3:"100";s:6:"search";s:1262:"САПОГИ СУКОННЫЕ ДЕТСКИЕ ЦВ.ГОЛУБОЙ Р.33(210)

САПОГИ СУКОННЫЕ ВЫПОЛНЕНЫ ИЗ НАТУРАЛЬНОГО СУКНА, СДУБЛИРОВАННОГО С МЕХОМ ИЗ ШЕРСТИ ИЛИ ИСКУССТВЕННЫМ МЕХОМ. ПРЕВОСХОДНУЮ ТЕПЛОИЗОЛЯЦИЮ САПОГУ ПРИДАЕТ ПЛОТНЫЙ ДЛИННОВОРСОВЫЙ МЕХ. НЕСЛОЖНЫЙ КРОЙ ГОЛЕНИЩА ИДЕАЛЬНО ПОДОБРАН К ФОРМЕ НОГИ, КРЕПИТСЯ НА МОЛНИИ И НЕ ТОЛЬКО ОБЕСПЕЧИВАЕТ ЗАЩИТУ ОТ ХОЛОДА, НО И ПРЕДОХРАНЯЕТ ОТ НЕУДОБСТВ ПРИ АКТИВНОМ, ПРОДОЛЖИТЕЛЬНОМ ДВИЖЕНИИ. ПОДОШВА КРЕПИТСЯ К СУКОННОМУ САПОГУ С ПОМОЩЬЮ ЛИТЬЯ. СЫРЬЕМ ДЛЯ ПОДОШВЫ СЛУЖИТ МОРОЗОСТОЙКИЙ ВСПЕНЕННЫЙ ПВХ, В КОТОРОМ ОБРАЗУЮТСЯ ВОЗДУШНЫЕ МИКРОСФЕРЫ, ПРЕДОТВРАЩАЮЩИЕ ПРОНИКНОВЕНИЕ ХОЛОДА С ПОДОШВЫ, СОХРАНЯЯ ТЕМ САМЫМ ТЕРМОСТАБИЛЬНОСТЬ ВНУТРИ САПОГА ПРИ МОРОЗАХ ДО -30°С. .";s:6:"parent";s:2:"18";s:4:"durl";s:85:"obuv-rabochaya/obuv-zimnyaya-uteplennaya/sapogi-sukonnye-detskie-tsv-goluboy-r-33-210";s:4:"dtxt";s:1183:"Сапоги суконные выполнены из натурального сукна, сдублированного с мехом из шерсти или искусственным мехом. Превосходную теплоизоляцию сапогу придает плотный длинноворсовый мех. Несложный крой голенища идеально подобран к форме ноги, крепится на молнии и не только обеспечивает защиту от холода, но и предохраняет от неудобств при активном, продолжительном движении. Подошва крепится к суконному сапогу с помощью литья. Сырьем для подошвы служит морозостойкий вспененный ПВХ, в котором образуются воздушные микросферы, предотвращающие проникновение холода с подошвы, сохраняя тем самым термостабильность внутри сапога при морозах до -30°С. .";s:4:"dpic";s:14:"/ddb/15706.jpg";s:11:"preview_pic";s:14:"/f68/15706.jpg";s:4:"bxid";s:6:"201414";s:5:"alias";s:44:"sapogi-sukonnye-detskie-tsv-goluboy-r-33-210";s:7:"section";s:5:"11663";s:5:"title";s:0:"";s:11:"description";s:0:"";s:8:"keywords";s:0:"";s:5:"price";s:1:"0";s:9:"old-price";s:1:"0";}i:55;a:20:{s:2:"id";s:3:"467";s:3:"act";s:1:"N";s:9:"prod_type";s:0:"";s:4:"name";s:64:"Сапоги суконные детские цв.зеленый";s:3:"art";s:9:"Сап046";s:4:"sort";s:3:"100";s:6:"search";s:1249:"САПОГИ СУКОННЫЕ ДЕТСКИЕ ЦВ.ЗЕЛЕНЫЙ

САПОГИ СУКОННЫЕ ВЫПОЛНЕНЫ ИЗ НАТУРАЛЬНОГО СУКНА, СДУБЛИРОВАННОГО С МЕХОМ ИЗ ШЕРСТИ ИЛИ ИСКУССТВЕННЫМ МЕХОМ. ПРЕВОСХОДНУЮ ТЕПЛОИЗОЛЯЦИЮ САПОГУ ПРИДАЕТ ПЛОТНЫЙ ДЛИННОВОРСОВЫЙ МЕХ. НЕСЛОЖНЫЙ КРОЙ ГОЛЕНИЩА ИДЕАЛЬНО ПОДОБРАН К ФОРМЕ НОГИ, КРЕПИТСЯ НА МОЛНИИ И НЕ ТОЛЬКО ОБЕСПЕЧИВАЕТ ЗАЩИТУ ОТ ХОЛОДА, НО И ПРЕДОХРАНЯЕТ ОТ НЕУДОБСТВ ПРИ АКТИВНОМ, ПРОДОЛЖИТЕЛЬНОМ ДВИЖЕНИИ. ПОДОШВА КРЕПИТСЯ К СУКОННОМУ САПОГУ С ПОМОЩЬЮ ЛИТЬЯ. СЫРЬЕМ ДЛЯ ПОДОШВЫ СЛУЖИТ МОРОЗОСТОЙКИЙ ВСПЕНЕННЫЙ ПВХ, В КОТОРОМ ОБРАЗУЮТСЯ ВОЗДУШНЫЕ МИКРОСФЕРЫ, ПРЕДОТВРАЩАЮЩИЕ ПРОНИКНОВЕНИЕ ХОЛОДА С ПОДОШВЫ, СОХРАНЯЯ ТЕМ САМЫМ ТЕРМОСТАБИЛЬНОСТЬ ВНУТРИ САПОГА ПРИ МОРОЗАХ ДО -30°С.";s:6:"parent";s:2:"18";s:4:"durl";s:76:"obuv-rabochaya/obuv-zimnyaya-uteplennaya/sapogi-sukonnye-detskie-tsv-zelenyy";s:4:"dtxt";s:1181:"Сапоги суконные выполнены из натурального сукна, сдублированного с мехом из шерсти или искусственным мехом. Превосходную теплоизоляцию сапогу придает плотный длинноворсовый мех. Несложный крой голенища идеально подобран к форме ноги, крепится на молнии и не только обеспечивает защиту от холода, но и предохраняет от неудобств при активном, продолжительном движении. Подошва крепится к суконному сапогу с помощью литья. Сырьем для подошвы служит морозостойкий вспененный ПВХ, в котором образуются воздушные микросферы, предотвращающие проникновение холода с подошвы, сохраняя тем самым термостабильность внутри сапога при морозах до -30°С.";s:4:"dpic";s:14:"/dfa/15705.jpg";s:11:"preview_pic";s:14:"/2c2/15705.jpg";s:4:"bxid";s:6:"201415";s:5:"alias";s:35:"sapogi-sukonnye-detskie-tsv-zelenyy";s:7:"section";s:5:"11663";s:5:"title";s:0:"";s:11:"description";s:0:"";s:8:"keywords";s:0:"";s:5:"price";s:1:"0";s:9:"old-price";s:1:"0";}i:56;a:20:{s:2:"id";s:3:"468";s:3:"act";s:1:"Y";s:9:"prod_type";s:0:"";s:4:"name";s:69:"Сапоги суконные женские г. Кисловодск";s:3:"art";s:9:"Сап003";s:4:"sort";s:3:"100";s:6:"search";s:1291:"САПОГИ СУКОННЫЕ ЖЕНСКИЕ Г. КИСЛОВОДСК

САПОГИ СУКОННЫЕ ВЫПОЛНЕНЫ ИЗ НАТУРАЛЬНОГО СУКНА, СДУБЛИРОВАННОГО С МЕХОМ ИЗ ШЕРСТИ ИЛИ ИСКУССТВЕННЫМ МЕХОМ. ПРЕВОСХОДНУЮ ТЕПЛОИЗОЛЯЦИЮ САПОГУ ПРИДАЕТ ПЛОТНЫЙ ДЛИННОВОРСОВЫЙ МЕХ. НЕСЛОЖНЫЙ КРОЙ ГОЛЕНИЩА ИДЕАЛЬНО ПОДОБРАН К ФОРМЕ НОГИ, КРЕПИТСЯ НА МОЛНИИ И НЕ ТОЛЬКО ОБЕСПЕЧИВАЕТ ЗАЩИТУ ОТ ХОЛОДА, НО И ПРЕДОХРАНЯЕТ ОТ НЕУДОБСТВ ПРИ АКТИВНОМ, ПРОДОЛЖИТЕЛЬНОМ ДВИЖЕНИИ. ПОДОШВА КРЕПИТСЯ К СУКОННОМУ САПОГУ С ПОМОЩЬЮ ЛИТЬЯ. СЫРЬЕМ ДЛЯ ПОДОШВЫ СЛУЖИТ МОРОЗОСТОЙКИЙ ВСПЕНЕННЫЙ ПВХ, В КОТОРОМ ОБРАЗУЮТСЯ ВОЗДУШНЫЕ МИКРОСФЕРЫ, ПРЕДОТВРАЩАЮЩИЕ ПРОНИКНОВЕНИЕ ХОЛОДА С ПОДОШВЫ, СОХРАНЯЯ ТЕМ САМЫМ ТЕРМОСТАБИЛЬНОСТЬ ВНУТРИ САПОГА ПРИ МОРОЗАХ ДО -30°С. РАЗМЕРЫ ЖЕНСКИЕ: 36-42";s:6:"parent";s:2:"18";s:4:"durl";s:78:"obuv-rabochaya/obuv-zimnyaya-uteplennaya/sapogi-sukonnye-zhenskie-g-kislovodsk";s:4:"dtxt";s:1218:"Сапоги суконные выполнены из натурального сукна, сдублированного с мехом из шерсти или искусственным мехом. Превосходную теплоизоляцию сапогу придает плотный длинноворсовый мех. Несложный крой голенища идеально подобран к форме ноги, крепится на молнии и не только обеспечивает защиту от холода, но и предохраняет от неудобств при активном, продолжительном движении. Подошва крепится к суконному сапогу с помощью литья. Сырьем для подошвы служит морозостойкий вспененный ПВХ, в котором образуются воздушные микросферы, предотвращающие проникновение холода с подошвы, сохраняя тем самым термостабильность внутри сапога при морозах до -30°С. Размеры женские: 36-42";s:4:"dpic";s:13:"/e4d/4263.jpg";s:11:"preview_pic";s:13:"/862/4263.jpg";s:4:"bxid";s:6:"201416";s:5:"alias";s:37:"sapogi-sukonnye-zhenskie-g-kislovodsk";s:7:"section";s:5:"11663";s:5:"title";s:0:"";s:11:"description";s:0:"";s:8:"keywords";s:0:"";s:5:"price";s:1:"0";s:9:"old-price";s:1:"0";}i:57;a:20:{s:2:"id";s:3:"469";s:3:"act";s:1:"Y";s:9:"prod_type";s:0:"";s:4:"name";s:69:"Сапоги суконные мужские г. Кисловодск";s:3:"art";s:9:"Сап004";s:4:"sort";s:3:"100";s:6:"search";s:1290:"САПОГИ СУКОННЫЕ МУЖСКИЕ Г. КИСЛОВОДСК

САПОГИ СУКОННЫЕ ВЫПОЛНЕНЫ ИЗ НАТУРАЛЬНОГО СУКНА, СДУБЛИРОВАННОГО С МЕХОМ ИЗ ШЕРСТИ ИЛИ ИСКУССТВЕННЫМ МЕХОМ. ПРЕВОСХОДНУЮ ТЕПЛОИЗОЛЯЦИЮ САПОГУ ПРИДАЕТ ПЛОТНЫЙ ДЛИННОВОРСОВЫЙ МЕХ. НЕСЛОЖНЫЙ КРОЙ ГОЛЕНИЩА ИДЕАЛЬНО ПОДОБРАН К ФОРМЕ НОГИ, КРЕПИТСЯ НА МОЛНИИ И НЕ ТОЛЬКО ОБЕСПЕЧИВАЕТ ЗАЩИТУ ОТ ХОЛОДА, НО И ПРЕДОХРАНЯЕТ ОТ НЕУДОБСТВ ПРИ АКТИВНОМ, ПРОДОЛЖИТЕЛЬНОМ ДВИЖЕНИИ. ПОДОШВА КРЕПИТСЯ К СУКОННОМУ САПОГУ С ПОМОЩЬЮ ЛИТЬЯ. СЫРЬЕМ ДЛЯ ПОДОШВЫ СЛУЖИТ МОРОЗОСТОЙКИЙ ВСПЕНЕННЫЙ ПВХ, В КОТОРОМ ОБРАЗУЮТСЯ ВОЗДУШНЫЕ МИКРОСФЕРЫ, ПРЕДОТВРАЩАЮЩИЕ ПРОНИКНОВЕНИЕ ХОЛОДА С ПОДОШВЫ, СОХРАНЯЯ ТЕМ САМЫМ ТЕРМОСТАБИЛЬНОСТЬ ВНУТРИ САПОГА ПРИ МОРОЗАХ ДО -30°С. РАЗМЕРЫ МУЖСКИЕ 39-46";s:6:"parent";s:2:"18";s:4:"durl";s:78:"obuv-rabochaya/obuv-zimnyaya-uteplennaya/sapogi-sukonnye-muzhskie-g-kislovodsk";s:4:"dtxt";s:1217:"Сапоги суконные выполнены из натурального сукна, сдублированного с мехом из шерсти или искусственным мехом. Превосходную теплоизоляцию сапогу придает плотный длинноворсовый мех. Несложный крой голенища идеально подобран к форме ноги, крепится на молнии и не только обеспечивает защиту от холода, но и предохраняет от неудобств при активном, продолжительном движении. Подошва крепится к суконному сапогу с помощью литья. Сырьем для подошвы служит морозостойкий вспененный ПВХ, в котором образуются воздушные микросферы, предотвращающие проникновение холода с подошвы, сохраняя тем самым термостабильность внутри сапога при морозах до -30°С. Размеры мужские 39-46";s:4:"dpic";s:13:"/fb8/4276.jpg";s:11:"preview_pic";s:13:"/153/4276.jpg";s:4:"bxid";s:6:"201417";s:5:"alias";s:37:"sapogi-sukonnye-muzhskie-g-kislovodsk";s:7:"section";s:5:"11663";s:5:"title";s:0:"";s:11:"description";s:0:"";s:8:"keywords";s:0:"";s:5:"price";s:1:"0";s:9:"old-price";s:1:"0";}i:58;a:20:{s:2:"id";s:3:"470";s:3:"act";s:1:"Y";s:9:"prod_type";s:0:"";s:4:"name";s:46:"Сапоги утепленные Лесник";s:3:"art";s:9:"Сап011";s:4:"sort";s:3:"100";s:6:"search";s:676:"САПОГИ УТЕПЛЕННЫЕ ЛЕСНИК

САПОГИ ЛЕСНИК ПРЕДНАЗНАЧЕНЫ ДЛЯ ЗАЩИТЫ ОТ МОРОЗА И ВЛАГИ В ЗИМНЕЕ ВРЕМЯ. МЕТОД КРЕПЛЕНИЯ ПОДОШВЫ ДОПЕЛЬНЫЙ ОСОБЫЕ ОТЛИЧИЯ МОДЕЛИ: ТОЛЩИНА ВОЙЛОКА ВЕРХА ОБУВИ 10 ММ.. ТОЛЩИНА ПОДОШВЫ МИКРОПОРА 8 ММ ВОЙЛОК 10 ММ, ТЕМПЕРАТУРНЫЙ РЕЖИМ ДО - 40 ГР. РАЗМЕРНЫЙ РЯД 39-46 ВЕРХ ОБУВИ - ВОЙЛОК ПОДОШВА - МИКРОПОРА + ВОЙЛОК ПОДНОСОК - ТЕРМОПЛАСТ ПОДКЛАДКА - ВОЙЛОК .";s:6:"parent";s:2:"18";s:4:"durl";s:65:"obuv-rabochaya/obuv-zimnyaya-uteplennaya/sapogi-uteplennye-lesnik";s:4:"dtxt";s:630:"Сапоги Лесник предназначены для защиты от мороза и влаги в зимнее время. Метод крепления подошвы допельный Особые отличия модели: толщина войлока верха обуви 10 мм.. толщина подошвы микропора 8 мм войлок 10 мм, температурный режим до - 40 гр. Размерный ряд 39-46 Верх обуви - Войлок Подошва - Микропора &#43; войлок Подносок - Термопласт Подкладка - Войлок .";s:4:"dpic";s:13:"/60f/8733.jpg";s:11:"preview_pic";s:13:"/38c/8733.jpg";s:4:"bxid";s:6:"201418";s:5:"alias";s:24:"sapogi-uteplennye-lesnik";s:7:"section";s:5:"11663";s:5:"title";s:0:"";s:11:"description";s:0:"";s:8:"keywords";s:0:"";s:5:"price";s:1:"0";s:9:"old-price";s:1:"0";}i:59;a:20:{s:2:"id";s:3:"471";s:3:"act";s:1:"Y";s:9:"prod_type";s:0:"";s:4:"name";s:79:"Унты женские войл.подошва замша коричневые";s:3:"art";s:11:"Унты008";s:4:"sort";s:3:"100";s:6:"search";s:433:"УНТЫ ЖЕНСКИЕ ВОЙЛ.ПОДОШВА ЗАМША КОРИЧНЕВЫЕ

СОЮЗКА И ЗАДНИК СОСТОЯТ: СНАРУЖИ НАТУРАЛЬНАЯ ЗАМША, ВНУТРИ НАТУРАЛЬНЫЙ ОВЕЧИЙ МЕХ, МЕЖДУ НИМИ НИТРОИСКОЖА. СТОПА СОСТОИТ ИЗ СТЕЛЬКИ, ПОД КОТОРОЙ НАХОДИТСЯ ОБУВНОЙ КАРТОН. ПОДОШВА ИЗ ВОЙЛОКА. .";s:6:"parent";s:2:"18";s:4:"durl";s:87:"obuv-rabochaya/obuv-zimnyaya-uteplennaya/unty-zhenskie-voyl-podoshva-zamsha-korichnevye";s:4:"dtxt";s:350:"Союзка и задник состоят: снаружи натуральная замша, внутри натуральный овечий мех, между ними нитроискожа. Стопа состоит из стельки, под которой находится обувной картон. Подошва из войлока. .";s:4:"dpic";s:13:"/32a/9265.jpg";s:11:"preview_pic";s:13:"/68c/9265.jpg";s:4:"bxid";s:6:"201614";s:5:"alias";s:46:"unty-zhenskie-voyl-podoshva-zamsha-korichnevye";s:7:"section";s:5:"11663";s:5:"title";s:0:"";s:11:"description";s:0:"";s:8:"keywords";s:0:"";s:5:"price";s:1:"0";s:9:"old-price";s:1:"0";}i:60;a:20:{s:2:"id";s:3:"472";s:3:"act";s:1:"Y";s:9:"prod_type";s:0:"";s:4:"name";s:71:"Унты женские войл.подошва замша черные";s:3:"art";s:11:"Унты007";s:4:"sort";s:3:"100";s:6:"search";s:455:"УНТЫ ЖЕНСКИЕ ВОЙЛ.ПОДОШВА ЗАМША ЧЕРНЫЕ

СОЮЗКА И ЗАДНИК СОСТОЯТ: СНАРУЖИ НАТУРАЛЬНАЯ ЗАМША, ВНУТРИ НАТУРАЛЬНЫЙ ОВЕЧИЙ МЕХ, МЕЖДУ НИМИ НИТРОИСКОЖА. СТОПА СОСТОИТ ИЗ СТЕЛЬКИ, ПОД КОТОРОЙ НАХОДИТСЯ ОБУВНОЙ КАРТОН. ПОДОШВА ИЗ ВОЙЛОКА. РАЗМЕРЫ С 36 ПО 41. .";s:6:"parent";s:2:"18";s:4:"durl";s:83:"obuv-rabochaya/obuv-zimnyaya-uteplennaya/unty-zhenskie-voyl-podoshva-zamsha-chernye";s:4:"dtxt";s:380:"Союзка и задник состоят: снаружи натуральная замша, внутри натуральный овечий мех, между ними нитроискожа. Стопа состоит из стельки, под которой находится обувной картон. Подошва из войлока. Размеры с 36 по 41. .";s:4:"dpic";s:13:"/865/4348.jpg";s:11:"preview_pic";s:13:"/714/4348.jpg";s:4:"bxid";s:6:"201615";s:5:"alias";s:42:"unty-zhenskie-voyl-podoshva-zamsha-chernye";s:7:"section";s:5:"11663";s:5:"title";s:0:"";s:11:"description";s:0:"";s:8:"keywords";s:0:"";s:5:"price";s:1:"0";s:9:"old-price";s:1:"0";}i:61;a:20:{s:2:"id";s:3:"473";s:3:"act";s:1:"N";s:9:"prod_type";s:0:"";s:4:"name";s:71:"Унты женские войл.подошва кожа бежевые";s:3:"art";s:11:"Унты005";s:4:"sort";s:3:"100";s:6:"search";s:580:"УНТЫ ЖЕНСКИЕ ВОЙЛ.ПОДОШВА КОЖА БЕЖЕВЫЕ

СОЮЗКА И ЗАДНИК СОСТОЯТ: СНАРУЖИ НАТУРАЛЬНАЯ КОЖА, ВНУТРИ НАТУРАЛЬНЫЙ ОВЕЧИЙ МЕХ, МЕЖДУ НИМИ НИТРОИСКОЖА. СТОПА СОСТОИТ ИЗ СТЕЛЬКИ, ПОД КОТОРОЙ НАХОДИТСЯ ОБУВНОЙ КАРТОН. ПОДОШВА ИЗ ВОЙЛОКА. ТКАНЬ КОЖА ЦВЕТ БЕЖЕВЫЙ УТЕПЛИТЕЛЬ ОВЕЧИЙ МЕХ РАЗМЕР 36-41 МАТЕРИАЛ ПОДОШВЫ ВОЙЛОК, ПВХ .";s:6:"parent";s:2:"18";s:4:"durl";s:83:"obuv-rabochaya/obuv-zimnyaya-uteplennaya/unty-zhenskie-voyl-podoshva-kozha-bezhevye";s:4:"dtxt";s:505:"Союзка и задник состоят: снаружи натуральная кожа, внутри натуральный овечий мех, между ними нитроискожа. Стопа состоит из стельки, под которой находится обувной картон. Подошва из войлока. Ткань кожа Цвет бежевый Утеплитель овечий мех Размер 36-41 Материал подошвы войлок, ПВХ .";s:4:"dpic";s:13:"/276/9271.jpg";s:11:"preview_pic";s:13:"/354/9271.jpg";s:4:"bxid";s:6:"201616";s:5:"alias";s:42:"unty-zhenskie-voyl-podoshva-kozha-bezhevye";s:7:"section";s:5:"11663";s:5:"title";s:0:"";s:11:"description";s:0:"";s:8:"keywords";s:0:"";s:5:"price";s:1:"0";s:9:"old-price";s:1:"0";}i:62;a:20:{s:2:"id";s:3:"474";s:3:"act";s:1:"Y";s:9:"prod_type";s:0:"";s:4:"name";s:67:"Унты женские войл.подошва кожа белые";s:3:"art";s:11:"Унты014";s:4:"sort";s:3:"100";s:6:"search";s:571:"УНТЫ ЖЕНСКИЕ ВОЙЛ.ПОДОШВА КОЖА БЕЛЫЕ

ТКАНЬ КОЖА ЦВЕТ БЕЛЫЙ УТЕПЛИТЕЛЬ ОВЕЧИЙ МЕХ РАЗМЕР 36-41 МАТЕРИАЛ ПОДОШВЫ ВОЙЛОК, ПВХ СОЮЗКА И ЗАДНИК СОСТОЯТ: СНАРУЖИ НАТУРАЛЬНАЯ КОЖА, ВНУТРИ НАТУРАЛЬНЫЙ ОВЕЧИЙ МЕХ, МЕЖДУ НИМИ НИТРОИСКОЖА. СТОПА СОСТОИТ ИЗ СТЕЛЬКИ, ПОД КОТОРОЙ НАХОДИТСЯ ОБУВНОЙ КАРТОН. ПОДОШВА ИЗ ВОЙЛОКА..";s:6:"parent";s:2:"18";s:4:"durl";s:80:"obuv-rabochaya/obuv-zimnyaya-uteplennaya/unty-zhenskie-voyl-podoshva-kozha-belye";s:4:"dtxt";s:500:"Ткань кожа Цвет белый Утеплитель овечий мех Размер 36-41 Материал подошвы войлок, ПВХ Союзка и задник состоят: снаружи натуральная кожа, внутри натуральный овечий мех, между ними нитроискожа. Стопа состоит из стельки, под которой находится обувной картон. Подошва из войлока..";s:4:"dpic";s:13:"/ef8/6882.jpg";s:11:"preview_pic";s:13:"/944/6882.jpg";s:4:"bxid";s:6:"201617";s:5:"alias";s:39:"unty-zhenskie-voyl-podoshva-kozha-belye";s:7:"section";s:5:"11663";s:5:"title";s:0:"";s:11:"description";s:0:"";s:8:"keywords";s:0:"";s:5:"price";s:1:"0";s:9:"old-price";s:1:"0";}i:63;a:20:{s:2:"id";s:3:"475";s:3:"act";s:1:"N";s:9:"prod_type";s:0:"";s:4:"name";s:69:"Унты женские войл.подошва кожа черные";s:3:"art";s:11:"Унты006";s:4:"sort";s:3:"100";s:6:"search";s:385:"УНТЫ ЖЕНСКИЕ ВОЙЛ.ПОДОШВА КОЖА ЧЕРНЫЕ

СОЮЗКА И ЗАДНИК СОСТОЯТ: СНАРУЖИ НАТУРАЛЬНАЯ КОЖА, ВНУТРИ НАТУРАЛЬНЫЙ ОВЕЧИЙ МЕХ, МЕЖДУ НИМИ НИТРОИСКОЖА. СТОПА СОСТОИТ ИЗ СТЕЛЬКИ, ПОД КОТОРОЙ НАХОДИТСЯ ОБУВНОЙ КАРТОН. .";s:6:"parent";s:2:"18";s:4:"durl";s:82:"obuv-rabochaya/obuv-zimnyaya-uteplennaya/unty-zhenskie-voyl-podoshva-kozha-chernye";s:4:"dtxt";s:312:"Союзка и задник состоят: снаружи натуральная кожа, внутри натуральный овечий мех, между ними нитроискожа. Стопа состоит из стельки, под которой находится обувной картон. .";s:4:"dpic";s:13:"/346/4335.jpg";s:11:"preview_pic";s:13:"/9f9/4335.jpg";s:4:"bxid";s:6:"201618";s:5:"alias";s:41:"unty-zhenskie-voyl-podoshva-kozha-chernye";s:7:"section";s:5:"11663";s:5:"title";s:0:"";s:11:"description";s:0:"";s:8:"keywords";s:0:"";s:5:"price";s:1:"0";s:9:"old-price";s:1:"0";}i:64;a:20:{s:2:"id";s:3:"476";s:3:"act";s:1:"Y";s:9:"prod_type";s:0:"";s:4:"name";s:77:"Унты женские рез.подошва замша коричневые";s:3:"art";s:11:"Унты004";s:4:"sort";s:3:"100";s:6:"search";s:561:"УНТЫ ЖЕНСКИЕ РЕЗ.ПОДОШВА ЗАМША КОРИЧНЕВЫЕ

ТКАНЬ ЗАМША ЦВЕТ ЧЕРНЫЙ УТЕПЛИТЕЛЬ ОВЕЧИЙ МЕХ РАЗМЕР 36-41 МАТЕРИАЛ ПОДОШВЫ ПВХ СОЮЗКА И ЗАДНИК СОСТОЯТ: СНАРУЖИ НАТУРАЛЬНАЯ ЗАМША, ВНУТРИ НАТУРАЛЬНЫЙ ОВЕЧИЙ МЕХ, МЕЖДУ НИМИ НИТРОИСКОЖА. СТОПА СОСТОИТ ИЗ СТЕЛЬКИ, ПОД КОТОРОЙ НАХОДИТСЯ ОБУВНОЙ КАРТОН. ПОДОШВА ПВХ. .";s:6:"parent";s:2:"18";s:4:"durl";s:86:"obuv-rabochaya/obuv-zimnyaya-uteplennaya/unty-zhenskie-rez-podoshva-zamsha-korichnevye";s:4:"dtxt";s:480:"Ткань замша Цвет черный Утеплитель овечий мех Размер 36-41 Материал подошвы ПВХ Союзка и задник состоят: снаружи натуральная замша, внутри натуральный овечий мех, между ними нитроискожа. Стопа состоит из стельки, под которой находится обувной картон. Подошва ПВХ. .";s:4:"dpic";s:13:"/731/4362.jpg";s:11:"preview_pic";s:13:"/8f4/4362.jpg";s:4:"bxid";s:6:"201619";s:5:"alias";s:45:"unty-zhenskie-rez-podoshva-zamsha-korichnevye";s:7:"section";s:5:"11663";s:5:"title";s:0:"";s:11:"description";s:0:"";s:8:"keywords";s:0:"";s:5:"price";s:1:"0";s:9:"old-price";s:1:"0";}i:65;a:20:{s:2:"id";s:3:"477";s:3:"act";s:1:"Y";s:9:"prod_type";s:0:"";s:4:"name";s:69:"Унты мужские войл.подошва кожа черные";s:3:"art";s:11:"Унты002";s:4:"sort";s:3:"100";s:6:"search";s:1284:"УНТЫ МУЖСКИЕ ВОЙЛ.ПОДОШВА КОЖА ЧЕРНЫЕ

ВНЕШНЯЯ ОПУШКА УНТОВ ИЗГОТАВЛИВАЕТСЯ ИЗ ИСКУССТВЕННОГО ШУБНОГО МУТОНА. ПОДКЛАДКА ИЗ НАТУРАЛЬНОЙ ОВЧИНЫ НА ДАЕТ НОГЕ ЗАМЕРЗНУТЬ. ЦВЕТ МОЖЕТ БЫТЬ КАК СВЕТЛЫЙ, ТАК И ТЕМНЫЙ. ПОДОШВА ПРИШИВАЕТСЯ ЧЕРЕЗ РАНТ, ЧТО ПРИДАЕТ ОБУВИ ДОПОЛНИТЕЛЬНУЮ ПРОЧНОСТЬ. НАТУРАЛЬНЫЙ ВОЙЛОК, ИЗ КОТОРОГО ИЗГОТАВЛИВАЮТСЯ СТЕЛЬКИ, ОТЛИЧНО ЗАЩИЩАЕТ НОГИ ОТ ХОЛОДА. ПОМИМО ЗАЩИТЫ ОТ ХОЛОДА ВОЙЛОЧНЫЕ СТЕЛЬКИ ОКАЗЫВАЮТ И ОПРЕДЕЛЕННОЕ МАССАЖНОЕ ВОЗДЕЙСТВИЕ НА СТОПУ ЧЕЛОВЕКА. ЦВЕТ: ЧЁРНЫЙ МАТЕРИАЛ ПОДОШВЫ: ВОЙЛОК + МИКРОПОРИСТАЯ РЕЗИНА МЕТОД КРЕПЛЕНИЯ ПОДОШВЫ: РАНТОВО-ПРОШИВНОЙ МАТЕРИАЛ ПОДКЛАДКИ: НАТУРАЛЬНЫЙ МЕХ (ОВЧИНА) МАТЕРИАЛ ОПУШКИ: ИСКУССТВЕННЫЙ МЕХ (МУТОН) MАТЕРИАЛ СОЮЗКИ: КОЖА";s:6:"parent";s:2:"18";s:4:"durl";s:82:"obuv-rabochaya/obuv-zimnyaya-uteplennaya/unty-muzhskie-voyl-podoshva-kozha-chernye";s:4:"dtxt";s:1231:"Внешняя опушка унтов изготавливается из искусственного шубного мутона. Подкладка из натуральной овчины на дает ноге замерзнуть. Цвет может быть как светлый, так и темный. Подошва пришивается через рант, что придает обуви дополнительную прочность. Натуральный войлок, из которого изготавливаются стельки, отлично защищает ноги от холода. Помимо защиты от холода войлочные стельки оказывают и определенное массажное воздействие на стопу человека. Цвет: чёрный Материал подошвы: войлок &#43; микропористая резина Метод крепления подошвы: рантово-прошивной Материал подкладки: натуральный мех &#40;овчина&#41; Материал опушки: искусственный мех &#40;мутон&#41; Mатериал союзки: кожа";s:4:"dpic";s:13:"/9a2/4356.jpg";s:11:"preview_pic";s:13:"/015/4356.jpg";s:4:"bxid";s:6:"201620";s:5:"alias";s:41:"unty-muzhskie-voyl-podoshva-kozha-chernye";s:7:"section";s:5:"11663";s:5:"title";s:0:"";s:11:"description";s:0:"";s:8:"keywords";s:0:"";s:5:"price";s:1:"0";s:9:"old-price";s:1:"0";}i:66;a:20:{s:2:"id";s:3:"478";s:3:"act";s:1:"N";s:9:"prod_type";s:0:"";s:4:"name";s:67:"Унты мужские рез.подошва кожа черные";s:3:"art";s:11:"Унты012";s:4:"sort";s:3:"100";s:6:"search";s:215:"УНТЫ МУЖСКИЕ РЕЗ.ПОДОШВА КОЖА ЧЕРНЫЕ

НАТУРАЛЬНЫЙ МЕХ, КОЖАННЫЕ, ПОДОШВА НА ВОЙЛОЧНОЙ ОСНОВЕ С РЕЗИНОВЫМ ПОКРЫТИЕМ. .";s:6:"parent";s:2:"18";s:4:"durl";s:81:"obuv-rabochaya/obuv-zimnyaya-uteplennaya/unty-muzhskie-rez-podoshva-kozha-chernye";s:4:"dtxt";s:144:"Натуральный мех, кожанные, подошва на войлочной основе с резиновым покрытием. .";s:4:"dpic";s:14:"/092/15700.jpg";s:11:"preview_pic";s:14:"/845/15700.jpg";s:4:"bxid";s:6:"201621";s:5:"alias";s:40:"unty-muzhskie-rez-podoshva-kozha-chernye";s:7:"section";s:5:"11663";s:5:"title";s:0:"";s:11:"description";s:0:"";s:8:"keywords";s:0:"";s:5:"price";s:1:"0";s:9:"old-price";s:1:"0";}i:67;a:20:{s:2:"id";s:3:"479";s:3:"act";s:1:"Y";s:9:"prod_type";s:0:"";s:4:"name";s:29:"Сапоги Полярник";s:3:"art";s:9:"Сап033";s:4:"sort";s:3:"100";s:6:"search";s:817:"САПОГИ ПОЛЯРНИК

РАНТОВО-КЛЕЕВОЙ МЕТОД КРЕПЛЕНИЯ. ПОДОШВА И КАБЛУК ИЗ МОРОЗОСТОЙКОЙ ПОРИСТОЙ РЕЗИНЫ. ДЕТАЛИ ВЕРХА (СОЮЗКА, ЗАДИНКА, ЗАДНИЙ НАРУЖНЫЙ РЕМЕНЬ) - ЮФТЬ ОБУВНАЯ. РЕГУЛИРУЕМОЕ ГОЛЕНИЩЕ НА ПОЛОВИНУ ВЫПОЛНЕНО ИЗ ВОЙЛОКА, А НИЖНЯЯ ЧАСТЬ - ЮФТЬ ОБУВНАЯ. ПОДКЛАДКА ПОД СОЮЗКУ И НИЖНЮЮ ЧАСТЬ ГОЛЕНИЩ -ВОЙЛОК 4 ММ., ВКЛАДНАЯ СТЕЛЬКА ИЗ ВОЙЛОКА. В НОСОЧНОЙ ЧАСТИ УСТАНОВЛЕН ЖЕСТКИЙ ПОДНОСОК, ЗАДНИК - КОЖКАРТОН ОБУВНОЙ. ГОСТ 12.4.187-97 РАЗМЕРНЫЙ РЯД: 38-46";s:6:"parent";s:2:"18";s:4:"durl";s:57:"obuv-rabochaya/obuv-zimnyaya-uteplennaya/sapogi-polyarnik";s:4:"dtxt";s:792:"Рантово-клеевой метод крепления. Подошва и каблук из морозостойкой пористой резины. Детали верха &#40;союзка, задинка, задний наружный ремень&#41; - юфть обувная. Регулируемое голенище на половину выполнено из войлока, а нижняя часть - юфть обувная. Подкладка под союзку и нижнюю часть голенищ -войлок 4 мм., вкладная стелька из войлока. В носочной части установлен жесткий подносок, задник - кожкартон обувной. ГОСТ 12.4.187-97 Размерный ряд: 38-46";s:4:"dpic";s:14:"/9f6/16682.jpg";s:11:"preview_pic";s:14:"/42d/16682.jpg";s:4:"bxid";s:6:"202179";s:5:"alias";s:16:"sapogi-polyarnik";s:7:"section";s:5:"11663";s:5:"title";s:0:"";s:11:"description";s:0:"";s:8:"keywords";s:0:"";s:5:"price";s:1:"0";s:9:"old-price";s:1:"0";}i:68;a:20:{s:2:"id";s:2:"41";s:3:"act";s:1:"N";s:9:"prod_type";s:0:"";s:4:"name";s:49:"Брюки ПВХ/Винитол рыбацкие";s:3:"art";s:16:"Брю23(С)1500";s:4:"sort";s:3:"100";s:6:"search";s:845:"БРЮКИ ПВХ/ВИНИТОЛ РЫБАЦКИЕ

ВЕРХНЯЯ, ДОСТАТОЧНО ШИРОКАЯ ЧАСТЬ РЫБАЦКИХ БРЮК ИЗГОТОВЛЕНА ИЗ ОБЛЕГЧЕННОЙ, ПРОЧНОЙ И ВОДОНЕПРОНИЦАЕМОЙ ПВХ- ТКАНИ И ПРИВАРЕНА ВЫСОКОЧАСТОТНЫМИ ТОКАМИ К КЛАССИЧЕСКОЙ МОДЕЛИ ВЫСОКИХ МУЖСКИХ САПОГ НА ТОЛСТОЙ ПОДОШВЕ С ГЛУБОКИМ ПРОТЕКТОРОМ. СОЕДИНЕНИЯ ШВОВ И ШВЫ КРОЯ, КОТОРЫЕ ТАКЖЕ СВАРЕНЫ ТОКАМИ ВЫСОКОЙ ЧАСТОТЫ, ЯВЛЯЮТСЯ АБСОЛЮТНО ВОДОНЕПРОНИЦАЕМЫМИ. БРЮКИ УПАКОВАНЫ В ИНДИВИДУАЛЬНЫЕ ПАКЕТЫ РАЗМЕРЫ:С 41 ПО 46 (В КОРОБКЕ ПО 5 ШТУК) .";s:6:"parent";s:1:"8";s:4:"durl";s:63:"obuv-rabochaya/obuv-iz-pvkh-i-eva/bryuki-pvkh-vinitol-rybatskie";s:4:"dtxt";s:800:"Верхняя, достаточно широкая часть рыбацких брюк изготовлена из облегченной, прочной и водонепроницаемой ПВХ- ткани и приварена высокочастотными токами к классической модели высоких мужских сапог на толстой подошве с глубоким протектором. Соединения швов и швы кроя, которые также сварены токами высокой частоты, являются абсолютно водонепроницаемыми. Брюки упакованы в индивидуальные пакеты Размеры:С 41 по 46 &#40;в коробке по 5 штук&#41; .";s:4:"dpic";s:14:"/091/14750.jpg";s:11:"preview_pic";s:14:"/8ea/14750.jpg";s:4:"bxid";s:6:"200289";s:5:"alias";s:29:"bryuki-pvkh-vinitol-rybatskie";s:7:"section";s:5:"11653";s:5:"title";s:0:"";s:11:"description";s:0:"";s:8:"keywords";s:0:"";s:5:"price";s:1:"0";s:9:"old-price";s:1:"0";}i:69;a:20:{s:2:"id";s:2:"42";s:3:"act";s:1:"N";s:9:"prod_type";s:0:"";s:4:"name";s:39:"Галоши на валенки КМФ";s:3:"art";s:9:"Гал002";s:4:"sort";s:3:"100";s:6:"search";s:159:"ГАЛОШИ НА ВАЛЕНКИ КМФ

ИЗГОТОВЛЕНЫ ИЗ ПВХ. ПРЕДНАЗНАЧЕНЫ ДЛЯ ЗАЩИТЫ ВАЛЕНОК ОТ ВЛАГИ. .";s:6:"parent";s:1:"8";s:4:"durl";s:56:"obuv-rabochaya/obuv-iz-pvkh-i-eva/galoshi-na-valenki-kmf";s:4:"dtxt";s:116:"Изготовлены из ПВХ. Предназначены для защиты валенок от влаги. .";s:4:"dpic";s:14:"/c55/15638.jpg";s:11:"preview_pic";s:14:"/b29/15638.jpg";s:4:"bxid";s:6:"200322";s:5:"alias";s:22:"galoshi-na-valenki-kmf";s:7:"section";s:5:"11653";s:5:"title";s:0:"";s:11:"description";s:0:"";s:8:"keywords";s:0:"";s:5:"price";s:1:"0";s:9:"old-price";s:1:"0";}i:70;a:20:{s:2:"id";s:2:"43";s:3:"act";s:1:"N";s:9:"prod_type";s:0:"";s:4:"name";s:32:"Галоши на валенки";s:3:"art";s:9:"Гал001";s:4:"sort";s:3:"100";s:6:"search";s:305:"ГАЛОШИ НА ВАЛЕНКИ

УНИВЕРСАЛЬНАЯ МОДЕЛЬ. ДЛЯ ИСПОЛЬЗОВАНИЯ С ВАЛЕНКАМИ. ЛИТАЯ РЕЗИНА. ПРЕДНАЗНАЧЕНЫ ДЛЯ ЗАЩИТЫ ВАЛЕНОК ОТ ВОДЫ И ОБЩЕ ПРОИЗВОДСТВЕННЫХ ЗАГРЯЗНЕНИЙ. .";s:6:"parent";s:1:"8";s:4:"durl";s:52:"obuv-rabochaya/obuv-iz-pvkh-i-eva/galoshi-na-valenki";s:4:"dtxt";s:269:"Универсальная модель. Для использования с валенками. Литая резина. Предназначены для защиты валенок от воды и обще производственных загрязнений. .";s:4:"dpic";s:13:"/c3b/4203.jpg";s:11:"preview_pic";s:13:"/235/4203.jpg";s:4:"bxid";s:6:"200323";s:5:"alias";s:18:"galoshi-na-valenki";s:7:"section";s:5:"11653";s:5:"title";s:0:"";s:11:"description";s:0:"";s:8:"keywords";s:0:"";s:5:"price";s:1:"0";s:9:"old-price";s:1:"0";}i:71;a:20:{s:2:"id";s:2:"44";s:3:"act";s:1:"Y";s:9:"prod_type";s:0:"";s:4:"name";s:27:"Галоши садовые";s:3:"art";s:9:"Гал008";s:4:"sort";s:3:"100";s:6:"search";s:94:"ГАЛОШИ САДОВЫЕ

ЦВЕТ БЕРНЫЙ ВЕРХ: ПВХ ПОДОШВА: ПВХ .";s:6:"parent";s:1:"8";s:4:"durl";s:49:"obuv-rabochaya/obuv-iz-pvkh-i-eva/galoshi-sadovye";s:4:"dtxt";s:63:"Цвет берный верх: ПВХ подошва: ПВХ .";s:4:"dpic";s:13:"/538/5819.jpg";s:11:"preview_pic";s:13:"/166/5819.jpg";s:4:"bxid";s:6:"200324";s:5:"alias";s:15:"galoshi-sadovye";s:7:"section";s:5:"11653";s:5:"title";s:0:"";s:11:"description";s:0:"";s:8:"keywords";s:0:"";s:5:"price";s:1:"0";s:9:"old-price";s:1:"0";}i:72;a:20:{s:2:"id";s:2:"45";s:3:"act";s:1:"N";s:9:"prod_type";s:0:"";s:4:"name";s:51:"Костюм ПВХ/Винитол рыбацкий";s:3:"art";s:16:"Кос18(С)1500";s:4:"sort";s:3:"100";s:6:"search";s:1554:"КОСТЮМ ПВХ/ВИНИТОЛ РЫБАЦКИЙ

МОДЕЛЬ РАЗРАБОТАНА НА БАЗЕ САПОГ ИЗ ПВХ, К КОТОРЫМ ПРИ ПОМОЩИ СВАРКИ ТОКОМ ВЫСОКОЙ ЧАСТОТЫ КРЕПИТСЯ ТЕКСТИЛЬНЫЙ ВЕРХ ИЗ ВИНИТОЛА ИЛИ НЕЙЛОНА. ДОПОЛНИТЕЛЬНО ПРИМЕНЯЕТСЯ ТЕХНОЛОГИЯ ДВОЙНОГО ШВА, КОТОРАЯ ПРИДАЕТ ОБУВИ ГАРАНТИРОВАННУЮ ПРОЧНОСТЬ, ИЗНОСОСТОЙКОСТЬ И ГЕРМЕТИЧНОСТЬ. САМ БАЗОВЫЙ САПОГ ВЫПОЛНЕН МЕТОДАМИ ДВУХКОМПОНЕНТНОГО ИЛИ ТРЕХКОМПОНЕНТНОГО ЛИТЬЯ – С ПРИМЕНЕНИЕМ ТРЕТЬЕГО ДОПОЛНИТЕЛЬНОГО ПРОМЕЖУТОЧНОГО СЛОЯ ПОДОШВЫ ИЗ ВСПЕНЕННОГО ПВХ, ЧТО ПРИДАЕТ ОБУВИ ВЫСОКИЕ АМОРТИЗИРУЮЩИЕ, ТЕПЛОЗАЩИТНЫЕ И АНТИСТАТИЧЕСКИЕ СВОЙСТВА. ДЛЯ ЛЕГКОГО И БЫСТРОГО СНЯТИЯ КОМБИНЕЗОНА ПРИСПОСОБЛЕНЫ УДОБНЫЕ И КАЧЕСТВЕННЫЕ КАРАБИНЫ, А ДЛЯ ХРАНЕНИЯ МЕЛКИХ ПРЕДМЕТОВ – ВНУТРЕННИЙ КАРМАН, ЧТО СОЗДАЕТ ДОПОЛНИТЕЛЬНОЕ УДОБСТВО НА РЫБАЛКЕ. ХАРАКТЕРИСТИКИ: МАТЕРИАЛ — ПВХ (ВИНИТОЛ) ЦВЕТ — ТЕМНО-ЗЕЛЕНЫЙ РАЗМЕРЫ: 41, 42, 43, 44, 45, 46, 47.";s:6:"parent";s:1:"8";s:4:"durl";s:64:"obuv-rabochaya/obuv-iz-pvkh-i-eva/kostyum-pvkh-vinitol-rybatskiy";s:4:"dtxt";s:1507:"Модель разработана на базе сапог из ПВХ, к которым при помощи сварки током высокой частоты крепится текстильный верх из винитола или нейлона. Дополнительно применяется технология двойного шва, которая придает обуви гарантированную прочность, износостойкость и герметичность. Сам базовый сапог выполнен методами двухкомпонентного или трехкомпонентного литья – с применением третьего дополнительного промежуточного слоя подошвы из вспененного ПВХ, что придает обуви высокие амортизирующие, теплозащитные и антистатические свойства. Для легкого и быстрого снятия комбинезона приспособлены удобные и качественные карабины, а для хранения мелких предметов – внутренний карман, что создает дополнительное удобство на рыбалке. Характеристики: Материал — ПВХ &#40;винитол&#41; Цвет — темно-зеленый Размеры: 41, 42, 43, 44, 45, 46, 47.";s:4:"dpic";s:14:"/f9c/14752.jpg";s:11:"preview_pic";s:14:"/084/14752.jpg";s:4:"bxid";s:6:"200669";s:5:"alias";s:30:"kostyum-pvkh-vinitol-rybatskiy";s:7:"section";s:5:"11653";s:5:"title";s:0:"";s:11:"description";s:0:"";s:8:"keywords";s:0:"";s:5:"price";s:1:"0";s:9:"old-price";s:1:"0";}i:73;a:20:{s:2:"id";s:2:"46";s:3:"act";s:1:"N";s:9:"prod_type";s:0:"";s:4:"name";s:63:"Полукомбинезон ПВХ рыбацкий ПС9 ПК";s:3:"art";s:10:"ПС9_ПК";s:4:"sort";s:3:"100";s:6:"search";s:1710:"ПОЛУКОМБИНЕЗОН ПВХ РЫБАЦКИЙ ПС9 ПК

КЛАССИЧЕСКАЯ МОДЕЛЬ РЫБАЦКОГО ПОЛУКОМБИНЕЗОНА. МОДЕЛЬ СОЗДАНА НА ОСНОВЕ МОДЕЛИ ВЫСОКИХ МУЖСКИХ САПОГ АРТ. ПС 9. ПЛОТНАЯ РИФЛЕНАЯ ПОДОШВА ОБЕСПЕЧИВАЕТ КОМФОРТНОСТЬ ПРИ ХОДЬБЕ ПО ЛЮБОЙ ПОВЕРХНОСТИ. ТЕКСТИЛЬНЫЙ ВЕРХ, ВЫПОЛНЕННЫЙ ИЗ ЛЕГКОЙ ВОДОНЕПРОНИЦАЕМОЙ ПВХ-ТКАНИ (ВИНИТОЛ), КРЕПИТСЯ К БАЗОВОМУ САПОГУ НА СОВРЕМЕННОМ ИТАЛЬЯНСКОМ ОБОРУДОВАНИИ ПРИ ПОМОЩИ СВАРКИ ТОКОМ ВЫСОКОЙ ЧАСТОТЫ, ЧТО ГАРАНТИРУЕТ АБСОЛЮТНУЮ ВОДОНЕПРОНИЦАЕМОСТЬ. ДОПОЛНИТЕЛЬНО ПРИМЕНЯЕТСЯ ТЕХНОЛОГИЯ ДВОЙНОГО ШВА, КОТОРАЯ ПРИДАЕТ ОБУВИ ЕЩЕ БОЛЬШУЮ ПРОЧНОСТЬ, ИЗНОСОСТОЙКОСТЬ И ГЕРМЕТИЧНОСТЬ. ДЛЯ ЛЕГКОГО И БЫСТРОГО СНЯТИЯ ПОЛУКОМБИНЕЗОНА ПРИСПОСОБЛЕНЫ УДОБНЫЕ И КАЧЕСТВЕННЕЕ КАРАБИНЫ. ВНУТРЕННИЙ КАРМАН ДЛЯ ХРАНЕНИЯ МЕЛКИХ ПРЕДМЕТОВ СОЗДАЕТ ДОПОЛНИТЕЛЬНОЕ УДОБСТВО НА РЫБАЛКЕ. СПОСОБ ЛИТЬЯ: ДВУХКОМПОНЕНТНОЕ МАТЕРИАЛ ТКАНИ: ВИНИТОЛ ЦВЕТОВЫЕ ПРЕДЛОЖЕНИЯ (ОДНОТОННЫЕ): БОЛОТНЫЙ РАЗМЕРНЫЙ РЯД: 41-47 Р. МАТЕРИАЛ САПОГА: ПВХ";s:6:"parent";s:1:"8";s:4:"durl";s:70:"obuv-rabochaya/obuv-iz-pvkh-i-eva/polukombinezon-pvkh-rybatskiy-ps9-pk";s:4:"dtxt";s:1659:"Классическая модель рыбацкого полукомбинезона. Модель создана на основе модели высоких мужских сапог арт. ПС 9. Плотная рифленая подошва обеспечивает комфортность при ходьбе по любой поверхности. Текстильный верх, выполненный из легкой водонепроницаемой ПВХ-ткани &#40;винитол&#41;, крепится к базовому сапогу на современном итальянском оборудовании при помощи сварки током высокой частоты, что гарантирует абсолютную водонепроницаемость. Дополнительно применяется технология двойного шва, которая придает обуви еще большую прочность, износостойкость и герметичность. Для легкого и быстрого снятия полукомбинезона приспособлены удобные и качественнее карабины. Внутренний карман для хранения мелких предметов создает дополнительное удобство на рыбалке. Способ литья: Двухкомпонентное Материал ткани: винитол Цветовые предложения &#40;однотонные&#41;: болотный Размерный ряд: 41-47 р. Материал сапога: ПВХ";s:4:"dpic";s:13:"/3d1/3826.jpg";s:11:"preview_pic";s:13:"/94a/3826.jpg";s:4:"bxid";s:6:"201197";s:5:"alias";s:36:"polukombinezon-pvkh-rybatskiy-ps9-pk";s:7:"section";s:5:"11653";s:5:"title";s:0:"";s:11:"description";s:0:"";s:8:"keywords";s:0:"";s:5:"price";s:1:"0";s:9:"old-price";s:1:"0";}i:74;a:20:{s:2:"id";s:2:"47";s:3:"act";s:1:"N";s:9:"prod_type";s:0:"";s:4:"name";s:64:"Полукомбинезон ПВХ рыбацкий СВ-17ПР";s:3:"art";s:11:"СВ-17ПР";s:4:"sort";s:3:"100";s:6:"search";s:1061:"ПОЛУКОМБИНЕЗОН ПВХ РЫБАЦКИЙ СВ-17ПР

РАЗМЕРНЫЙ РЯД: 41-45 КОРОБКА 4 ПАРЫ ОДНОГО РАЗМЕРА ОСНОВНОЙ МАТЕРИАЛ – ПОЛИВИНИЛХЛОРИД (ПВХ). ПВХ ГОРАЗДО ЛЕГЧЕ, ДОЛГОВЕЧНЕЕ И ПРОЧНЕЕ РЕЗИНЫ. ПРИ ИЗГОТОВЛЕНИИ РЫБАЦКИХ САПОГ «ПСКОВ-ПОЛИМЕР» ПРИМЕНЯЕТСЯ ТЕХНОЛОГИЯ ДВОЙНОГО ШВА, ЧТО ПРИДАЕТ ОБУВИ ДОПОЛНИТЕЛЬНУЮ ГАРАНТИРОВАННУЮ ПРОЧНОСТЬ, ИЗНОСОУСТОЙЧИВОСТЬ И, КОНЕЧНО, ГЕРМЕТИЧНОСТЬ. МОДЕЛИ ВЫПУСКАЮТСЯ МЕТОДОМ НЕ ТОЛЬКО ДВУХКОМПОНЕНТНОГО, НО И ТРЕХКОМПОНЕНТНОГО ЛИТЬЯ. ВЫСОКОЕ КАЧЕСТВО ИСПОЛЬЗУЕМЫХ МАТЕРИАЛОВ ГАРАНТИРУЕТ ВСЕМ МОДЕЛЯМ ОБУВИ ««ПСКОВ-ПОЛИМЕР» 100%-НУЮ ВОДОНЕПРОНИЦАЕМОСТЬ. .";s:6:"parent";s:1:"8";s:4:"durl";s:71:"obuv-rabochaya/obuv-iz-pvkh-i-eva/polukombinezon-pvkh-rybatskiy-sv-17pr";s:4:"dtxt";s:1005:"Размерный ряд: 41-45 Коробка 4 пары одного размера Основной материал – поливинилхлорид &#40;ПВХ&#41;. ПВХ гораздо легче, долговечнее и прочнее резины. При изготовлении рыбацких сапог «Псков-Полимер» применяется технология двойного шва, что придает обуви дополнительную гарантированную прочность, износоустойчивость и, конечно, герметичность. Модели выпускаются методом не только двухкомпонентного, но и трехкомпонентного литья. Высокое качество используемых материалов гарантирует всем моделям обуви ««Псков-Полимер» 100&#37;-ную водонепроницаемость. .";s:4:"dpic";s:14:"/0f2/10380.jpg";s:11:"preview_pic";s:14:"/b04/10380.jpg";s:4:"bxid";s:6:"201198";s:5:"alias";s:37:"polukombinezon-pvkh-rybatskiy-sv-17pr";s:7:"section";s:5:"11653";s:5:"title";s:0:"";s:11:"description";s:0:"";s:8:"keywords";s:0:"";s:5:"price";s:1:"0";s:9:"old-price";s:1:"0";}i:75;a:20:{s:2:"id";s:2:"48";s:3:"act";s:1:"N";s:9:"prod_type";s:0:"";s:4:"name";s:67:"Полукомбинезон ПВХ/Винитол рыбацкий";s:3:"art";s:16:"Пол11(С)1500";s:4:"sort";s:3:"100";s:6:"search";s:477:"ПОЛУКОМБИНЕЗОН ПВХ/ВИНИТОЛ РЫБАЦКИЙ

ИЗГОТОВЛЕН ИЗ ВОДОНЕПОРНИЦАЕМОЙ ПВХ-ТКАНИ. ШЛЕЙКИ СНАБЖЕНЫ ЗАЩЕЛКОЙ-КАРАБИНОМ И РЕГУЛИРУЮТСЯ ПО ВЫСОТЕ В СООТВЕТСТВИИ С РОСТОМ. ИМЕЕТСЯ СКРЫТЫЙ УДОБНЫЙ КАРМАН ДЛЯ РЫБОЛОВНОЙ МЕЛОЧИ. РАЗМЕРЫ: С 41- ПО 47 (В КОРОБКЕ ПО 5 ШТУК). .";s:6:"parent";s:1:"8";s:4:"durl";s:71:"obuv-rabochaya/obuv-iz-pvkh-i-eva/polukombinezon-pvkh-vinitol-rybatskiy";s:4:"dtxt";s:414:"Изготовлен из водонепорницаемой ПВХ-ткани. Шлейки снабжены защелкой-карабином и регулируются по высоте в соответствии с ростом. Имеется скрытый удобный карман для рыболовной мелочи. Размеры: С 41- по 47 &#40;в коробке по 5 штук&#41;. .";s:4:"dpic";s:14:"/613/14751.jpg";s:11:"preview_pic";s:14:"/dcf/14751.jpg";s:4:"bxid";s:6:"201199";s:5:"alias";s:37:"polukombinezon-pvkh-vinitol-rybatskiy";s:7:"section";s:5:"11653";s:5:"title";s:0:"";s:11:"description";s:0:"";s:8:"keywords";s:0:"";s:5:"price";s:1:"0";s:9:"old-price";s:1:"0";}i:76;a:20:{s:2:"id";s:2:"49";s:3:"act";s:1:"N";s:9:"prod_type";s:0:"";s:4:"name";s:32:"Сапоги дутыши ЭВА";s:3:"art";s:9:"Сап115";s:4:"sort";s:3:"100";s:6:"search";s:359:"САПОГИ ДУТЫШИ ЭВА

САПОГИ ДУТЫШИ ЭВА САПОГИ ИЗГОТОВЛЕНЫ НА ОСНОВЕ ГАЛОШИ ЭВА, ВЕРХ ИЗ ВЛАГОЗАЩИТНОЙ ТКАНИ ОКСФОРД. УТЕПЛИТЕЛЬ - ИСКУССТВЕННЫЙ МЕХ. ШИРИНА ГОЛЕНИЩА РЕГУЛИРУЕТСЯ ЛЕНТОЙ - ЛИПУЧКОЙ. .";s:6:"parent";s:1:"8";s:4:"durl";s:52:"obuv-rabochaya/obuv-iz-pvkh-i-eva/sapogi-dutyshi-eva";s:4:"dtxt";s:323:"Сапоги дутыши ЭВА Сапоги изготовлены на основе галоши ЭВА, верх из влагозащитной ткани Оксфорд. Утеплитель - искусственный мех. Ширина голенища регулируется лентой - липучкой. .";s:4:"dpic";s:14:"/4e8/11914.jpg";s:11:"preview_pic";s:14:"/cbc/11914.jpg";s:4:"bxid";s:6:"201358";s:5:"alias";s:18:"sapogi-dutyshi-eva";s:7:"section";s:5:"11653";s:5:"title";s:0:"";s:11:"description";s:0:"";s:8:"keywords";s:0:"";s:5:"price";s:1:"0";s:9:"old-price";s:1:"0";}i:77;a:20:{s:2:"id";s:2:"50";s:3:"act";s:1:"N";s:9:"prod_type";s:0:"";s:4:"name";s:74:"Сапоги дутыши галоша-ЭВА, конт. лента КМФ";s:3:"art";s:9:"Сап111";s:4:"sort";s:3:"100";s:6:"search";s:368:"САПОГИ ДУТЫШИ ГАЛОША-ЭВА, КОНТ. ЛЕНТА КМФ

САПОГИ ИЗГОТОВЛЕНЫ НА ОСНОВЕ ГАЛОШИ ЭВА, ВЕРХ ИЗ ВЛАГОЗАЩИТНОЙ ТКАНИ ОКСФОРД. УТЕПЛИТЕЛЬ - ИСКУССТВЕННЫЙ МЕХ. ШИРИНА ГОЛЕНИЩА РЕГУЛИРУЕТСЯ ЛЕНТОЙ - ЛИПУЧКОЙ. .";s:6:"parent";s:1:"8";s:4:"durl";s:75:"obuv-rabochaya/obuv-iz-pvkh-i-eva/sapogi-dutyshi-galosha-eva-kont-lenta-kmf";s:4:"dtxt";s:290:"Сапоги изготовлены на основе галоши ЭВА, верх из влагозащитной ткани Оксфорд. Утеплитель - искусственный мех. Ширина голенища регулируется лентой - липучкой. .";s:4:"dpic";s:14:"/f27/13817.jpg";s:11:"preview_pic";s:14:"/6b5/13817.jpg";s:4:"bxid";s:6:"201359";s:5:"alias";s:41:"sapogi-dutyshi-galosha-eva-kont-lenta-kmf";s:7:"section";s:5:"11653";s:5:"title";s:0:"";s:11:"description";s:0:"";s:8:"keywords";s:0:"";s:5:"price";s:1:"0";s:9:"old-price";s:1:"0";}i:78;a:20:{s:2:"id";s:2:"51";s:3:"act";s:1:"N";s:9:"prod_type";s:0:"";s:4:"name";s:78:"Сапоги дутыши галоша-ЭВА, контактная лента";s:3:"art";s:9:"Сап112";s:4:"sort";s:3:"100";s:6:"search";s:372:"САПОГИ ДУТЫШИ ГАЛОША-ЭВА, КОНТАКТНАЯ ЛЕНТА

САПОГИ ИЗГОТОВЛЕНЫ НА ОСНОВЕ ГАЛОШИ ЭВА, ВЕРХ ИЗ ВЛАГОЗАЩИТНОЙ ТКАНИ ОКСФОРД. УТЕПЛИТЕЛЬ - ИСКУССТВЕННЫЙ МЕХ. ШИРИНА ГОЛЕНИЩА РЕГУЛИРУЕТСЯ ЛЕНТОЙ - ЛИПУЧКОЙ. .";s:6:"parent";s:1:"8";s:4:"durl";s:78:"obuv-rabochaya/obuv-iz-pvkh-i-eva/sapogi-dutyshi-galosha-eva-kontaktnaya-lenta";s:4:"dtxt";s:290:"Сапоги изготовлены на основе галоши ЭВА, верх из влагозащитной ткани Оксфорд. Утеплитель - искусственный мех. Ширина голенища регулируется лентой - липучкой. .";s:4:"dpic";s:13:"/ba9/4233.jpg";s:11:"preview_pic";s:13:"/394/4233.jpg";s:4:"bxid";s:6:"201360";s:5:"alias";s:44:"sapogi-dutyshi-galosha-eva-kontaktnaya-lenta";s:7:"section";s:5:"11653";s:5:"title";s:0:"";s:11:"description";s:0:"";s:8:"keywords";s:0:"";s:5:"price";s:1:"0";s:9:"old-price";s:1:"0";}i:79;a:20:{s:2:"id";s:2:"52";s:3:"act";s:1:"N";s:9:"prod_type";s:0:"";s:4:"name";s:46:"Сапоги дутыши удлинненые";s:3:"art";s:9:"Сап113";s:4:"sort";s:3:"100";s:6:"search";s:451:"САПОГИ ДУТЫШИ УДЛИННЕНЫЕ

УНИВЕРСАЛЬНАЯ МОДЕЛЬ. ВЕРХ ИЗ ПЛАЩЕВОЙ ТКАНИ ПРЕПЯТСТВУЕТ ПРОНИКНОВЕНИЮ ВЛАГИ. УТЕПЛЕНЫ ИСКУССТВЕННЫМ МЕХОМ. ПОДОШВА ИЗ МОРОЗОСТОЙКОГО ВСПЕНЕННОГО ПВХ (ДО -18С), СПЕЦИАЛЬНЫЙ ПРОТЕКТОР ПОДОШВЫ ПРЕПЯТСТВУЕТ СКОЛЬЖЕНИЮ. .";s:6:"parent";s:1:"8";s:4:"durl";s:59:"obuv-rabochaya/obuv-iz-pvkh-i-eva/sapogi-dutyshi-udlinnenye";s:4:"dtxt";s:409:"Универсальная модель. Верх из плащевой ткани препятствует проникновению влаги. Утеплены искусственным мехом. Подошва из морозостойкого вспененного ПВХ &#40;до -18С&#41;, специальный протектор подошвы препятствует скольжению. .";s:4:"dpic";s:13:"/32b/4243.jpg";s:11:"preview_pic";s:13:"/7df/4243.jpg";s:4:"bxid";s:6:"201361";s:5:"alias";s:25:"sapogi-dutyshi-udlinnenye";s:7:"section";s:5:"11653";s:5:"title";s:0:"";s:11:"description";s:0:"";s:8:"keywords";s:0:"";s:5:"price";s:1:"0";s:9:"old-price";s:1:"0";}i:80;a:20:{s:2:"id";s:2:"53";s:3:"act";s:1:"N";s:9:"prod_type";s:0:"";s:4:"name";s:39:"Сапоги мужские ПЕ-5 УМ";s:3:"art";s:10:"ПЕ5_УМ";s:4:"sort";s:3:"100";s:6:"search";s:1161:"САПОГИ МУЖСКИЕ ПЕ-5 УМ

МОДЕЛЬ ВЫСОКИХ МУЖСКИХ САПОГ ИЗ МАТЕРИАЛА ЭВА СОЗДАНА В ЛУЧШИХ ЕВРОПЕЙСКИХ ТРАДИЦИЯХ С АДАПТАЦИЕЙ НА РОССИЙСКОГО ПОТРЕБИТЕЛЯ И ОБЛАДАЕТ ВСЕМИ УНИКАЛЬНЫМИ ОСОБЕННОСТЯМИ, ПРИСУЩИМИ ОБУВИ ИЗ ЭВА: 1) ЧРЕЗВЫЧАЙНАЯ ЛЕГКОСТЬ (МАТЕРИАЛ ЭВА В 4 РАЗА ЛЕГЧЕ АНАЛОГА ИЗ ПВХ); 2) ВЫСОКАЯ МОРОЗОУСТОЙЧИВОСТЬ (МАТЕРИАЛ ОСТАЕТСЯ ЭЛАСТИЧНЫМ ПРИ -30?С.); 3) НУЛЕВАЯ ТЕПЛОПРОВОДНОСТЬ (МАТЕРИАЛ ОБЛАДАЕТ НИЗКОЙ СТЕПЕНЬЮ ТЕПЛООТДАЧИ); 4) ПОЛНАЯ ВОДОНЕПРОНИЦАЕМОСТЬ; 5) АМОРТИЗИРУЮЩИЕ СВОЙСТВА; 6) БЕЗОПАСНОСТЬ ДЛЯ ЗДОРОВЬЯ СРЕДНЯЯ ВЫСОТА: 38 СМ УТЕПЛИТЕЛЬ: ВКЛАДЫШ ИЗ МЕХА ЦВЕТОВЫЕ ПРЕДЛОЖЕНИЯ (ОДНОТОННЫЕ): ОЛИВКОВЫЙ РАЗМЕРНЫЙ РЯД: 41/42-47/48";s:6:"parent";s:1:"8";s:4:"durl";s:57:"obuv-rabochaya/obuv-iz-pvkh-i-eva/sapogi-muzhskie-pe-5-um";s:4:"dtxt";s:1174:"Модель высоких мужских сапог из материала ЭВА создана в лучших европейских традициях с адаптацией на российского потребителя и обладает всеми уникальными особенностями, присущими обуви из ЭВА: 1&#41; чрезвычайная легкость &#40;материал ЭВА в 4 раза легче аналога из ПВХ&#41;; 2&#41; высокая морозоустойчивость &#40;материал остается эластичным при -30?С.&#41;; 3&#41; нулевая теплопроводность &#40;материал обладает низкой степенью теплоотдачи&#41;; 4&#41; полная водонепроницаемость; 5&#41; амортизирующие свойства; 6&#41; Безопасность для здоровья Средняя высота: 38 см Утеплитель: вкладыш из меха Цветовые предложения &#40;однотонные&#41;: оливковый Размерный ряд: 41/42-47/48";s:4:"dpic";s:13:"/9e7/9182.jpg";s:11:"preview_pic";s:13:"/1be/9182.jpg";s:4:"bxid";s:6:"201363";s:5:"alias";s:23:"sapogi-muzhskie-pe-5-um";s:7:"section";s:5:"11653";s:5:"title";s:0:"";s:11:"description";s:0:"";s:8:"keywords";s:0:"";s:5:"price";s:1:"0";s:9:"old-price";s:1:"0";}i:81;a:20:{s:2:"id";s:2:"54";s:3:"act";s:1:"N";s:9:"prod_type";s:0:"";s:4:"name";s:56:"Сапоги мужские ПЕ-5 УММ (манжет)";s:3:"art";s:12:"ПЕ5_УММ";s:4:"sort";s:3:"100";s:6:"search";s:1213:"САПОГИ МУЖСКИЕ ПЕ-5 УММ (МАНЖЕТ)

МОДЕЛЬ ВЫСОКИХ МУЖСКИХ САПОГ ИЗ МАТЕРИАЛА ЭВА СОЗДАНА В ЛУЧШИХ ЕВРОПЕЙСКИХ ТРАДИЦИЯХ С АДАПТАЦИЕЙ НА РОССИЙСКОГО ПОТРЕБИТЕЛЯ И ОБЛАДАЕТ ВСЕМИ УНИКАЛЬНЫМИ ОСОБЕННОСТЯМИ, ПРИСУЩИМИ ОБУВИ ИЗ ЭВА: 1) ЧРЕЗВЫЧАЙНАЯ ЛЕГКОСТЬ (МАТЕРИАЛ ЭВА В 4 РАЗА ЛЕГЧЕ АНАЛОГА ИЗ ПВХ); 2) ВЫСОКАЯ МОРОЗОУСТОЙЧИВОСТЬ (МАТЕРИАЛ ОСТАЕТСЯ ЭЛАСТИЧНЫМ ПРИ -30С.); 3) НУЛЕВАЯ ТЕПЛОПРОВОДНОСТЬ (МАТЕРИАЛ ОБЛАДАЕТ НИЗКОЙ СТЕПЕНЬЮ ТЕПЛООТДАЧИ); 4) ПОЛНАЯ ВОДОНЕПРОНИЦАЕМОСТЬ; 5) АМОРТИЗИРУЮЩИЕ СВОЙСТВА; 6) БЕЗОПАСНОСТЬ ДЛЯ ЗДОРОВЬЯ СРЕДНЯЯ ВЫСОТА: 38 СМ УТЕПЛИТЕЛЬ: ВКЛАДЫШ ИЗ МЕХА МАНЖЕТА: ТКАНЬ RIP STOP ЦВЕТОВЫЕ ПРЕДЛОЖЕНИЯ (ОДНОТОННЫЕ): ОЛИВКОВЫЙ РАЗМЕРНЫЙ РЯД: 41/42-47/48";s:6:"parent";s:1:"8";s:4:"durl";s:66:"obuv-rabochaya/obuv-iz-pvkh-i-eva/sapogi-muzhskie-pe-5-umm-manzhet";s:4:"dtxt";s:1209:"Модель высоких мужских сапог из материала ЭВА создана в лучших европейских традициях с адаптацией на российского потребителя и обладает всеми уникальными особенностями, присущими обуви из ЭВА: 1&#41; чрезвычайная легкость &#40;материал ЭВА в 4 раза легче аналога из ПВХ&#41;; 2&#41; высокая морозоустойчивость &#40;материал остается эластичным при -30С.&#41;; 3&#41; нулевая теплопроводность &#40;материал обладает низкой степенью теплоотдачи&#41;; 4&#41; полная водонепроницаемость; 5&#41; амортизирующие свойства; 6&#41; Безопасность для здоровья Средняя высота: 38 см Утеплитель: вкладыш из меха Манжета: ткань Rip Stop Цветовые предложения &#40;однотонные&#41;: оливковый Размерный ряд: 41/42-47/48";s:4:"dpic";s:14:"/b78/12008.jpg";s:11:"preview_pic";s:14:"/d46/12008.jpg";s:4:"bxid";s:6:"201364";s:5:"alias";s:32:"sapogi-muzhskie-pe-5-umm-manzhet";s:7:"section";s:5:"11653";s:5:"title";s:0:"";s:11:"description";s:0:"";s:8:"keywords";s:0:"";s:5:"price";s:1:"0";s:9:"old-price";s:1:"0";}i:82;a:20:{s:2:"id";s:2:"55";s:3:"act";s:1:"N";s:9:"prod_type";s:0:"";s:4:"name";s:52:"Сапоги ПВХ белые КЩС женские";s:3:"art";s:9:"Сап014";s:4:"sort";s:3:"100";s:6:"search";s:192:"САПОГИ ПВХ БЕЛЫЕ КЩС ЖЕНСКИЕ

МАТЕРИАЛЫ: ВЕРХ: ПВХ ПОДКЛАДКА: БЕСПОДКЛАДОЧНЫЕ ПОДОШВА: ПВХ РАЗМЕРЫ: 36–40 .";s:6:"parent";s:1:"8";s:4:"durl";s:67:"obuv-rabochaya/obuv-iz-pvkh-i-eva/sapogi-pvkh-belye-kshchs-zhenskie";s:4:"dtxt";s:136:"Материалы: верх: ПВХ подкладка: бесподкладочные подошва: ПВХ Размеры: 36–40 .";s:4:"dpic";s:13:"/038/3834.jpg";s:11:"preview_pic";s:13:"/687/3834.jpg";s:4:"bxid";s:6:"201365";s:5:"alias";s:33:"sapogi-pvkh-belye-kshchs-zhenskie";s:7:"section";s:5:"11653";s:5:"title";s:0:"";s:11:"description";s:0:"";s:8:"keywords";s:0:"";s:5:"price";s:1:"0";s:9:"old-price";s:1:"0";}i:83;a:20:{s:2:"id";s:2:"56";s:3:"act";s:1:"N";s:9:"prod_type";s:0:"";s:4:"name";s:52:"Сапоги ПВХ белые КЩС мужские";s:3:"art";s:9:"Сап030";s:4:"sort";s:3:"100";s:6:"search";s:881:"САПОГИ ПВХ БЕЛЫЕ КЩС МУЖСКИЕ

САПОГИ ПРЕДНАЗНАЧЕНЫ ДЛЯ ЗАЩИТЫ ОТ ВОДЫ, РАСТВОРОВ НЕТОКСИЧНЫХ ВЕЩЕСТВ, ОТ ИСТИРАНИЯ, ОТ ЩЕЛОЧЕЙ КОНЦЕНТРАЦИИ ДО 20 %, ОТ РАСТИТЕЛЬНЫХ И ЖИВОТНЫХ МАСЕЛ И ЖИРОВ, ОТ КИСЛОТ КОНЦЕНТРАЦИИ ДО 20 %, ОТ НЕФТЯНЫХ МАСЕЛ И ПРОДУКТОВ ТЯЖЕЛЫХ ФРАКЦИЙ, ОТ ОБЩИХ ПРОИЗВОДСТВЕННЫХ ЗАГРЯЗНЕНИЙ. МОДЕЛЬ ПРЕДНАЗНАЧЕНА ДЛЯ РАБОТНИКОВ ПИЩЕВОЙ ПРОМЫШЛЕННОСТИ И МЕДИЦИНСКИХ ПРЕДПРИЯТИЙ, ВЫПОЛНЕНА ИЗ ПВХ. ХАРАКТЕРИСТИКИ: МАТЕРИАЛ: ПОЛИВИНИЛХЛОРИД (ПВХ) ЦВЕТ: БЕЛЫЙ РАЗМЕР: 41-46";s:6:"parent";s:1:"8";s:4:"durl";s:67:"obuv-rabochaya/obuv-iz-pvkh-i-eva/sapogi-pvkh-belye-kshchs-muzhskie";s:4:"dtxt";s:841:"Сапоги предназначены для защиты от воды, растворов нетоксичных веществ, от истирания, от щелочей концентрации до 20 &#37;, от растительных и животных масел и жиров, от кислот концентрации до 20 &#37;, от нефтяных масел и продуктов тяжелых фракций, от общих производственных загрязнений. Модель предназначена для работников пищевой промышленности и медицинских предприятий, выполнена из ПВХ. Характеристики: Материал: Поливинилхлорид &#40;ПВХ&#41; Цвет: Белый Размер: 41-46";s:4:"dpic";s:13:"/d7a/3959.jpg";s:11:"preview_pic";s:13:"/859/3959.jpg";s:4:"bxid";s:6:"201366";s:5:"alias";s:33:"sapogi-pvkh-belye-kshchs-muzhskie";s:7:"section";s:5:"11653";s:5:"title";s:0:"";s:11:"description";s:0:"";s:8:"keywords";s:0:"";s:5:"price";s:1:"0";s:9:"old-price";s:1:"0";}i:84;a:20:{s:2:"id";s:2:"57";s:3:"act";s:1:"N";s:9:"prod_type";s:0:"";s:4:"name";s:49:"Сапоги ПВХ женские Полимер";s:3:"art";s:6:"РС11";s:4:"sort";s:3:"100";s:6:"search";s:781:"САПОГИ ПВХ ЖЕНСКИЕ ПОЛИМЕР

СОВРЕМЕННАЯ УДОБНАЯ МОДЕЛЬ ЖЕНСКИХ САПОГ СОЗДАНА НА ОСНОВЕ ЕВРОПЕЙСКИХ СТАНДАРТОВ И ПОЛЬЗУЕТСЯ НЕИЗМЕННОЙ ПОПУЛЯРНОСТЬЮ У ПОКУПАТЕЛЬНИЦ.САПОГИ ХАРАКТЕРИЗУЮТСЯ ОТЛИЧНЫМИ ЭКСПЛУАТАЦИОННЫМИ ХАРАКТЕРИСТИКАМИ И СОВРЕМЕННЫМ ВНЕШНИМ ВИДОМ. МАТЕРИАЛ: ПВХ СПОСОБ ЛИТЬЯ: ДВУХКОМПОНЕНТНОЕ СРЕДНЯЯ ВЫСОТА: 32 СМ ЦВЕТОВЫЕ ПРЕДЛОЖЕНИЯ (ОДНОТОННЫЕ): ТЕМНО-СИНИЙ, СИНИЙ, МУРЕНА, БОРДО, БЕЛЫЙ РАЗМЕРНЫЙ РЯД: 35-42";s:6:"parent";s:1:"8";s:4:"durl";s:62:"obuv-rabochaya/obuv-iz-pvkh-i-eva/sapogi-pvkh-zhenskie-polimer";s:4:"dtxt";s:736:"Современная удобная модель женских сапог создана на основе европейских стандартов и пользуется неизменной популярностью у покупательниц.Сапоги характеризуются отличными эксплуатационными характеристиками и современным внешним видом. Материал: ПВХ Способ литья: Двухкомпонентное Средняя высота: 32 см Цветовые предложения &#40;однотонные&#41;: темно-синий, синий, мурена, бордо, белый Размерный ряд: 35-42";s:4:"dpic";s:13:"/709/3858.jpg";s:11:"preview_pic";s:13:"/22b/3858.jpg";s:4:"bxid";s:6:"201367";s:5:"alias";s:28:"sapogi-pvkh-zhenskie-polimer";s:7:"section";s:5:"11653";s:5:"title";s:0:"";s:11:"description";s:0:"";s:8:"keywords";s:0:"";s:5:"price";s:1:"0";s:9:"old-price";s:1:"0";}i:85;a:20:{s:2:"id";s:2:"58";s:3:"act";s:1:"Y";s:9:"prod_type";s:0:"";s:4:"name";s:55:"Сапоги ПВХ женские 14.2 выс.26,5см";s:3:"art";s:10:"Сап14.2";s:4:"sort";s:3:"100";s:6:"search";s:581:"САПОГИ ПВХ ЖЕНСКИЕ 14.2 ВЫС.26,5СМ

ПОДОШВА САПОГ УСТОЙЧИВА К СКОЛЬЖЕНИЮ. МОДЕЛЬ ПРЕДНАЗНАЧЕНА ДЛЯ ЗАЩИТЫ ОТ ВОДЫ И ОБЩЕПРОИЗВОДСТВЕННЫХ ЗАГРЯЗНЕНИЙ, В ТОМ ЧИСЛЕ ОТ РАСТИТЕЛЬНЫХ И ЖИВОТНЫХ МАСЕЛ И ЖИРОВ, ОТ НЕФТЯНЫХ МАСЕЛ И ПРОДУКТОВ ТЯЖЕЛЫХ ФРАКЦИЙ. ВЫСОТА САПОГА 26 СМ. МАТЕРИАЛ: ПОЛИВИНИЛХЛОРИД (ПВХ) РАЗМЕРНЫЙ РЯД: 37-41 .";s:6:"parent";s:1:"8";s:4:"durl";s:70:"obuv-rabochaya/obuv-iz-pvkh-i-eva/sapogi-pvkh-zhenskie-14-2-vys-26-5sm";s:4:"dtxt";s:530:"Подошва сапог устойчива к скольжению. Модель предназначена для защиты от воды и общепроизводственных загрязнений, в том числе от растительных и животных масел и жиров, от нефтяных масел и продуктов тяжелых фракций. Высота сапога 26 см. Материал: поливинилхлорид &#40;ПВХ&#41; Размерный ряд: 37-41 .";s:4:"dpic";s:13:"/c2d/7358.jpg";s:11:"preview_pic";s:13:"/629/7358.jpg";s:4:"bxid";s:6:"201368";s:5:"alias";s:36:"sapogi-pvkh-zhenskie-14-2-vys-26-5sm";s:7:"section";s:5:"11653";s:5:"title";s:0:"";s:11:"description";s:0:"";s:8:"keywords";s:0:"";s:5:"price";s:1:"0";s:9:"old-price";s:1:"0";}i:86;a:20:{s:2:"id";s:2:"59";s:3:"act";s:1:"N";s:9:"prod_type";s:0:"";s:4:"name";s:62:"Сапоги ПВХ женские 15.1 выс.34см (РС11)";s:3:"art";s:10:"Сап15.1";s:4:"sort";s:3:"100";s:6:"search";s:66:"САПОГИ ПВХ ЖЕНСКИЕ 15.1 ВЫС.34СМ (РС11)

";s:6:"parent";s:1:"8";s:4:"durl";s:73:"obuv-rabochaya/obuv-iz-pvkh-i-eva/sapogi-pvkh-zhenskie-15-1-vys-34sm-rs11";s:4:"dtxt";s:0:"";s:4:"dpic";s:13:"/8d5/7373.jpg";s:11:"preview_pic";s:13:"/2fa/7373.jpg";s:4:"bxid";s:6:"201369";s:5:"alias";s:39:"sapogi-pvkh-zhenskie-15-1-vys-34sm-rs11";s:7:"section";s:5:"11653";s:5:"title";s:0:"";s:11:"description";s:0:"";s:8:"keywords";s:0:"";s:5:"price";s:1:"0";s:9:"old-price";s:1:"0";}i:87;a:20:{s:2:"id";s:2:"60";s:3:"act";s:1:"N";s:9:"prod_type";s:0:"";s:4:"name";s:42:"Сапоги ПВХ женские 26 см";s:3:"art";s:5:"ПС2";s:4:"sort";s:3:"100";s:6:"search";s:563:"САПОГИ ПВХ ЖЕНСКИЕ 26 СМ

КЛАССИЧЕСКАЯ МОДЕЛЬ МАТОВЫХ НЕВЫСОКИХ ЖЕНСКИХ САПОГ С УДОБНОЙ КОЛОДКОЙ И ДОСТАТОЧНО ШИРОКИМ ГОЛЕНИЩЕМ. ДОСТОЙНАЯ АЛЬТЕРНАТИВА ГЛЯНЦЕВЫМ САПОГАМ. МАТЕРИАЛ: ПВХ СПОСОБ ЛИТЬЯ: ДВУХКОМПОНЕНТНОЕ СРЕДНЯЯ ВЫСОТА: 26 СМ ЦВЕТОВЫЕ ПРЕДЛОЖЕНИЯ (ОДНОТОННЫЕ): В АССОРТИМЕНТЕ РАЗМЕРНЫЙ РЯД: 36-41 .";s:6:"parent";s:1:"8";s:4:"durl";s:60:"obuv-rabochaya/obuv-iz-pvkh-i-eva/sapogi-pvkh-zhenskie-26-sm";s:4:"dtxt";s:525:"Классическая модель матовых невысоких женских сапог с удобной колодкой и достаточно широким голенищем. Достойная альтернатива глянцевым сапогам. Материал: ПВХ Способ литья: Двухкомпонентное Средняя высота: 26 см Цветовые предложения &#40;однотонные&#41;: в ассортименте Размерный ряд: 36-41 .";s:4:"dpic";s:13:"/eb8/3941.jpg";s:11:"preview_pic";s:13:"/fc3/3941.jpg";s:4:"bxid";s:6:"201370";s:5:"alias";s:26:"sapogi-pvkh-zhenskie-26-sm";s:7:"section";s:5:"11653";s:5:"title";s:0:"";s:11:"description";s:0:"";s:8:"keywords";s:0:"";s:5:"price";s:1:"0";s:9:"old-price";s:1:"0";}i:88;a:20:{s:2:"id";s:2:"61";s:3:"act";s:1:"N";s:9:"prod_type";s:0:"";s:4:"name";s:70:"Сапоги ПВХ женские с манжетом 31см(ПС2М)";s:3:"art";s:9:"СВ-25М";s:4:"sort";s:3:"100";s:6:"search";s:74:"САПОГИ ПВХ ЖЕНСКИЕ С МАНЖЕТОМ 31СМ(ПС2М)

";s:6:"parent";s:1:"8";s:4:"durl";s:76:"obuv-rabochaya/obuv-iz-pvkh-i-eva/sapogi-pvkh-zhenskie-s-manzhetom-31sm-ps2m";s:4:"dtxt";s:0:"";s:4:"dpic";s:13:"/1ae/3949.jpg";s:11:"preview_pic";s:13:"/ab5/3949.jpg";s:4:"bxid";s:6:"201371";s:5:"alias";s:42:"sapogi-pvkh-zhenskie-s-manzhetom-31sm-ps2m";s:7:"section";s:5:"11653";s:5:"title";s:0:"";s:11:"description";s:0:"";s:8:"keywords";s:0:"";s:5:"price";s:1:"0";s:9:"old-price";s:1:"0";}i:89;a:20:{s:2:"id";s:2:"62";s:3:"act";s:1:"N";s:9:"prod_type";s:0:"";s:4:"name";s:42:"Сапоги ПВХ женские СВ-25";s:3:"art";s:7:"СВ-25";s:4:"sort";s:3:"100";s:6:"search";s:223:"САПОГИ ПВХ ЖЕНСКИЕ СВ-25

САПОГИ ЖЕНСКИЕ ПВХ ДЛИННЫЕ (ВЫСОТА ГОЛЕНИЩА 34 СМ) РАЗМЕРНЫЙ РЯД: 36-40 КОРОБКА 10 ПАР ОДНОГО РАЗМЕРА .";s:6:"parent";s:1:"8";s:4:"durl";s:60:"obuv-rabochaya/obuv-iz-pvkh-i-eva/sapogi-pvkh-zhenskie-sv-25";s:4:"dtxt";s:185:"Сапоги женские ПВХ длинные &#40;высота голенища 34 см&#41; Размерный ряд: 36-40 Коробка 10 пар одного размера .";s:4:"dpic";s:13:"/79c/3876.jpg";s:11:"preview_pic";s:13:"/14b/3876.jpg";s:4:"bxid";s:6:"201372";s:5:"alias";s:26:"sapogi-pvkh-zhenskie-sv-25";s:7:"section";s:5:"11653";s:5:"title";s:0:"";s:11:"description";s:0:"";s:8:"keywords";s:0:"";s:5:"price";s:1:"0";s:9:"old-price";s:1:"0";}i:90;a:20:{s:2:"id";s:2:"63";s:3:"act";s:1:"N";s:9:"prod_type";s:0:"";s:4:"name";s:42:"Сапоги ПВХ женские СВ-26";s:3:"art";s:7:"СВ-26";s:4:"sort";s:3:"100";s:6:"search";s:223:"САПОГИ ПВХ ЖЕНСКИЕ СВ-26

САПОГИ ЖЕНСКИЕ ПВХ ДЛИННЫЕ (ВЫСОТА ГОЛЕНИЩА 34 СМ) РАЗМЕРНЫЙ РЯД: 36-40 КОРОБКА 10 ПАР ОДНОГО РАЗМЕРА .";s:6:"parent";s:1:"8";s:4:"durl";s:60:"obuv-rabochaya/obuv-iz-pvkh-i-eva/sapogi-pvkh-zhenskie-sv-26";s:4:"dtxt";s:185:"Сапоги женские ПВХ длинные &#40;высота голенища 34 см&#41; Размерный ряд: 36-40 Коробка 10 пар одного размера .";s:4:"dpic";s:14:"/258/15188.jpg";s:11:"preview_pic";s:14:"/b14/15188.jpg";s:4:"bxid";s:6:"201373";s:5:"alias";s:26:"sapogi-pvkh-zhenskie-sv-26";s:7:"section";s:5:"11653";s:5:"title";s:0:"";s:11:"description";s:0:"";s:8:"keywords";s:0:"";s:5:"price";s:1:"0";s:9:"old-price";s:1:"0";}i:91;a:20:{s:2:"id";s:2:"64";s:3:"act";s:1:"N";s:9:"prod_type";s:0:"";s:4:"name";s:74:"Сапоги ПВХ мужские 11.2 утепленные выс.27см";s:3:"art";s:10:"Сап11.2";s:4:"sort";s:3:"100";s:6:"search";s:367:"САПОГИ ПВХ МУЖСКИЕ 11.2 УТЕПЛЕННЫЕ ВЫС.27СМ

САПОГИ ПВХ МУЖСКИЕ 11.2 УТЕПЛЕННЫЕ ВЫС.27СМ САПОГИ МУЖСКИЕ ПВХ (ВЫСОТА ГОЛЕНИЩА 27 СМ). САПОГИ С УТЕПЛЯЮЩИМ ЧУЛКОМ. РАЗМЕРНЫЙ РЯД: 41-45 КОРОБКА 12 ПАР ОДНОГО РАЗМЕРА .";s:6:"parent";s:1:"8";s:4:"durl";s:79:"obuv-rabochaya/obuv-iz-pvkh-i-eva/sapogi-pvkh-muzhskie-11-2-uteplennye-vys-27sm";s:4:"dtxt";s:297:"Сапоги ПВХ мужские 11.2 утепленные выс.27см Сапоги мужские ПВХ &#40;высота голенища 27 см&#41;. Сапоги с утепляющим чулком. Размерный ряд: 41-45 Коробка 12 пар одного размера .";s:4:"dpic";s:13:"/019/7368.jpg";s:11:"preview_pic";s:13:"/ee7/7368.jpg";s:4:"bxid";s:6:"201374";s:5:"alias";s:45:"sapogi-pvkh-muzhskie-11-2-uteplennye-vys-27sm";s:7:"section";s:5:"11653";s:5:"title";s:0:"";s:11:"description";s:0:"";s:8:"keywords";s:0:"";s:5:"price";s:1:"0";s:9:"old-price";s:1:"0";}i:92;a:20:{s:2:"id";s:2:"65";s:3:"act";s:1:"Y";s:9:"prod_type";s:0:"";s:4:"name";s:53:"Сапоги ПВХ мужские 11.3 выс.27см";s:3:"art";s:10:"Сап11.3";s:4:"sort";s:3:"100";s:6:"search";s:492:"САПОГИ ПВХ МУЖСКИЕ 11.3 ВЫС.27СМ

САПОГИ ПВХ РЕЗИНОВЫЕ МУЖСКИЕ ОБЩЕГО НАЗНАЧЕНИЯ ПРЕДНАЗНАЧЕНЫ ДЛЯ ОБЩЕПРОМЫШЛЕННЫХ ЗАГРЯЗНЕНИЙ ДЛЯ ПОВСЕДНЕВНОГО ИСПОЛЬЗОВАНИЯ В ДОЖДЛИВУЮ СЛЯКОТНУЮ ПАГОДУ. ДАННЫЕ РЕЗИНОВЫЕ САПОГИ МУЖСКИЕ ОБЛАДАЮТ ВСЕМИ КАЧЕСТВАМИ РЕЗИНОВОЙ ОБУВИ. .";s:6:"parent";s:1:"8";s:4:"durl";s:68:"obuv-rabochaya/obuv-iz-pvkh-i-eva/sapogi-pvkh-muzhskie-11-3-vys-27sm";s:4:"dtxt";s:435:"Сапоги ПВХ резиновые мужские общего назначения предназначены для общепромышленных загрязнений для повседневного использования в дождливую слякотную пагоду. Данные резиновые сапоги мужские обладают всеми качествами резиновой обуви. .";s:4:"dpic";s:17:"/36c/sap11.31.jpg";s:11:"preview_pic";s:17:"/55c/sap11.31.jpg";s:4:"bxid";s:6:"201375";s:5:"alias";s:34:"sapogi-pvkh-muzhskie-11-3-vys-27sm";s:7:"section";s:5:"11653";s:5:"title";s:0:"";s:11:"description";s:0:"";s:8:"keywords";s:0:"";s:5:"price";s:1:"0";s:9:"old-price";s:1:"0";}i:93;a:20:{s:2:"id";s:2:"66";s:3:"act";s:1:"N";s:9:"prod_type";s:0:"";s:4:"name";s:56:"Сапоги ПВХ мужские 18.1 выс.32-34см";s:3:"art";s:10:"Сап18.1";s:4:"sort";s:3:"100";s:6:"search";s:147:"САПОГИ ПВХ МУЖСКИЕ 18.1 ВЫС.32-34СМ

РАЗМЕРНЫЙ РЯД: 41-45 КОРОБКА 10 ПАР ОДНОГО РАЗМЕРА .";s:6:"parent";s:1:"8";s:4:"durl";s:71:"obuv-rabochaya/obuv-iz-pvkh-i-eva/sapogi-pvkh-muzhskie-18-1-vys-32-34sm";s:4:"dtxt";s:87:"Размерный ряд: 41-45 Коробка 10 пар одного размера .";s:4:"dpic";s:13:"/0af/7379.jpg";s:11:"preview_pic";s:13:"/ff0/7379.jpg";s:4:"bxid";s:6:"201376";s:5:"alias";s:37:"sapogi-pvkh-muzhskie-18-1-vys-32-34sm";s:7:"section";s:5:"11653";s:5:"title";s:0:"";s:11:"description";s:0:"";s:8:"keywords";s:0:"";s:5:"price";s:1:"0";s:9:"old-price";s:1:"0";}i:94;a:20:{s:2:"id";s:2:"67";s:3:"act";s:1:"N";s:9:"prod_type";s:0:"";s:4:"name";s:66:"Сапоги ПВХ мужские 19.1 (манжет) утепл.";s:3:"art";s:14:"Сап19.1УМ";s:4:"sort";s:3:"100";s:6:"search";s:274:"САПОГИ ПВХ МУЖСКИЕ 19.1 (МАНЖЕТ) УТЕПЛ.

САПОГИ МУЖСКИЕ ПВХ С КАМУФЛЯЖНОЙ ВСТАВКОЙ (ВЫСОТА ГОЛЕНИЩА 44 СМ) РАЗМЕРНЫЙ РЯД: 41-46 КОРОБКА 6 ПАР ОДНОГО РАЗМЕРА .";s:6:"parent";s:1:"8";s:4:"durl";s:73:"obuv-rabochaya/obuv-iz-pvkh-i-eva/sapogi-pvkh-muzhskie-19-1-manzhet-utepl";s:4:"dtxt";s:212:"Сапоги мужские ПВХ с камуфляжной вставкой &#40;высота голенища 44 см&#41; Размерный ряд: 41-46 Коробка 6 пар одного размера .";s:4:"dpic";s:14:"/a08/14724.jpg";s:11:"preview_pic";s:14:"/c2b/14724.jpg";s:4:"bxid";s:6:"201377";s:5:"alias";s:39:"sapogi-pvkh-muzhskie-19-1-manzhet-utepl";s:7:"section";s:5:"11653";s:5:"title";s:0:"";s:11:"description";s:0:"";s:8:"keywords";s:0:"";s:5:"price";s:1:"0";s:9:"old-price";s:1:"0";}i:95;a:20:{s:2:"id";s:2:"68";s:3:"act";s:1:"N";s:9:"prod_type";s:0:"";s:4:"name";s:65:"Сапоги ПВХ мужские 19.1 выс.42см (СВ-15М)";s:3:"art";s:10:"Сап19.1";s:4:"sort";s:3:"100";s:6:"search";s:567:"САПОГИ ПВХ МУЖСКИЕ 19.1 ВЫС.42СМ (СВ-15М)

САПОГИ МУЖСКИЕ ПВХ ПРЕКРАСНО ПОДОЙДУТ КАК ДЛЯ РАБОТЫ, ТАК И ДЛЯ РЫБАЛКИ И АКТИВНОГО ОТДЫХА. МАНЖЕТА САПОГ ИЗГОТОВЛЕННАЯ ИЗ ВОДООТТАЛКИВАЮЩЕЙ ТКАНИ ОКСФОРД, ФИКСИРУЕТСЯ НА НОГЕ С ПОМОЩЬЮ ШНУРКА И СТОПОРА, ЧТО ПРЕПЯТСТВУЕТ ПОПАДАНИЮ ВЛАГИ. ВЫСОТА МОДЕЛИ 42 СМ. МАТЕРИАЛ: ПВХ .";s:6:"parent";s:1:"8";s:4:"durl";s:75:"obuv-rabochaya/obuv-iz-pvkh-i-eva/sapogi-pvkh-muzhskie-19-1-vys-42sm-sv-15m";s:4:"dtxt";s:498:"Сапоги мужские ПВХ прекрасно подойдут как для работы, так и для рыбалки и активного отдыха. Манжета сапог изготовленная из водоотталкивающей ткани Оксфорд, фиксируется на ноге с помощью шнурка и стопора, что препятствует попаданию влаги. Высота модели 42 см. Материал: ПВХ .";s:4:"dpic";s:13:"/e1a/7384.jpg";s:11:"preview_pic";s:13:"/37d/7384.jpg";s:4:"bxid";s:6:"201378";s:5:"alias";s:41:"sapogi-pvkh-muzhskie-19-1-vys-42sm-sv-15m";s:7:"section";s:5:"11653";s:5:"title";s:0:"";s:11:"description";s:0:"";s:8:"keywords";s:0:"";s:5:"price";s:1:"0";s:9:"old-price";s:1:"0";}i:96;a:20:{s:2:"id";s:2:"69";s:3:"act";s:1:"N";s:9:"prod_type";s:0:"";s:4:"name";s:53:"Сапоги ПВХ мужские 20.1 выс.33см";s:3:"art";s:10:"Сап20.1";s:4:"sort";s:3:"100";s:6:"search";s:183:"САПОГИ ПВХ МУЖСКИЕ 20.1 ВЫС.33СМ

ВЫСОТА ГОЛЕНИЩА 33,5 СМ РАЗМЕРНЫЙ РЯД 41-45 КОРОБКА 6 ПАР ОДНОГО РАЗМЕРА. .";s:6:"parent";s:1:"8";s:4:"durl";s:68:"obuv-rabochaya/obuv-iz-pvkh-i-eva/sapogi-pvkh-muzhskie-20-1-vys-33sm";s:4:"dtxt";s:126:"высота голенища 33,5 см размерный ряд 41-45 коробка 6 пар одного размера. .";s:4:"dpic";s:13:"/8c3/7389.jpg";s:11:"preview_pic";s:13:"/ba5/7389.jpg";s:4:"bxid";s:6:"201379";s:5:"alias";s:34:"sapogi-pvkh-muzhskie-20-1-vys-33sm";s:7:"section";s:5:"11653";s:5:"title";s:0:"";s:11:"description";s:0:"";s:8:"keywords";s:0:"";s:5:"price";s:1:"0";s:9:"old-price";s:1:"0";}i:97;a:20:{s:2:"id";s:2:"70";s:3:"act";s:1:"N";s:9:"prod_type";s:0:"";s:4:"name";s:53:"Сапоги ПВХ мужские 20К выс.35см";s:3:"art";s:10:"Сап20К";s:4:"sort";s:3:"100";s:6:"search";s:1285:"САПОГИ ПВХ МУЖСКИЕ 20К ВЫС.35СМ

МОДЕЛЬ МУЖСКИХ РАБОЧИХ САПОГ ПРЕДНАЗНАЧЕНА ДЛЯ ЗАЩИТЫ НОГ ОТ ВОДЫ, ВОЗДЕЙСТВИЯ РАСТВОРОВ НЕОРГАНИЧЕСКИХ КИСЛОТ, ЩЕЛОЧЕЙ, НЕФТЕПРОДУКТОВ, ОТ МЕХАНИЧЕСКИХ ВОЗДЕЙСТВИЙ. САПОГИ ВЫПУСКАЮТСЯ ПО ТЕХНОЛОГИИ ДВУХКОМПОНЕНТНОГО ЛИТЬЯ. ДЛЯ ИЗГОТОВЛЕНИЯ ВЕРХНЕЙ ЧАСТИ ОБУВИ ПРИМЕНЯЕТСЯ ЭЛАСТИЧНЫЙ ОБУВНОЙ ПЛАСТИКАТ, А ДЛЯ ИЗГОТОВЛЕНИЯ НИЖНЕЙ ЧАСТИ САПОГА - ПОДОШВЕННЫЙ ПЛАСТИКАТ С ВЫСОКОЙ СТЕПЕНЬЮ ИЗНОСОСТОЙКОСТИ. ОБЛАСТЬ ПРИМЕНЕНИЯ ДАННОЙ МОДЕЛИ САПОГ В ОСНОВНОМ СВЯЗАНА С РАБОТОЙ В УСЛОВИЯХ ПОВЫШЕННОЙ ВЛАЖНОСТИ. МОДЕЛЬ ИМЕЕТ ВЫСОКОЕ ГОЛЕНИЩЕ, ИЗНОСОСТОЙКУЮ ПОДОШВУ С КАБЛУКОМ И ГЛУБОКИМ РИФЛЕНЫМ РИСУНКОМ ПОДОШВЫ РАЗЛИЧНОЙ ГЛУБИНЫ ОТ 5 ДО 8 ММ., ПРЕПЯТСТВУЮЩИМ СКОЛЬЖЕНИЮ.";s:6:"parent";s:1:"8";s:4:"durl";s:67:"obuv-rabochaya/obuv-iz-pvkh-i-eva/sapogi-pvkh-muzhskie-20k-vys-35sm";s:4:"dtxt";s:1228:"Модель мужских рабочих сапог предназначена для защиты ног от воды, воздействия растворов неорганических кислот, щелочей, нефтепродуктов, от механических воздействий. Сапоги выпускаются по технологии двухкомпонентного литья. Для изготовления верхней части обуви применяется эластичный обувной пластикат, а для изготовления нижней части сапога - подошвенный пластикат с высокой степенью износостойкости. Область применения данной модели сапог в основном связана с работой в условиях повышенной влажности. Модель имеет высокое голенище, износостойкую подошву с каблуком и глубоким рифленым рисунком подошвы различной глубины от 5 до 8 мм., препятствующим скольжению.";s:4:"dpic";s:14:"/6ef/16200.jpg";s:11:"preview_pic";s:14:"/03a/16200.jpg";s:4:"bxid";s:6:"201380";s:5:"alias";s:33:"sapogi-pvkh-muzhskie-20k-vys-35sm";s:7:"section";s:5:"11653";s:5:"title";s:0:"";s:11:"description";s:0:"";s:8:"keywords";s:0:"";s:5:"price";s:1:"0";s:9:"old-price";s:1:"0";}i:98;a:20:{s:2:"id";s:2:"71";s:3:"act";s:1:"N";s:9:"prod_type";s:0:"";s:4:"name";s:41:"Сапоги ПВХ мужские 27см";s:3:"art";s:6:"ПС14";s:4:"sort";s:3:"100";s:6:"search";s:520:"САПОГИ ПВХ МУЖСКИЕ 27СМ

НЕВЫСОКИЕ МУЖСКИЕ САПОГИ НА ПЛОТНОЙ ПОДОШВЕ. МОДЕЛЬ ИЗНОСОУСТОЙЧИВА И КОМФОРТНА. МАТЕРИАЛ: ПВХ СПОСОБ ЛИТЬЯ: ДВУХКОМПОНЕНТНОЕ СРЕДНЯЯ ВЫСОТА: 27 СМ УТЕПЛИТЕЛЬ: ВКЛАДЫШ ИЗ НЕТКАНОГО ПОЛОТНА ЦВЕТОВЫЕ ПРЕДЛОЖЕНИЯ (ОДНОТОННЫЕ): ЧЕРНЫЙ, ОЛИВКОВЫЙ РАЗМЕРНЫЙ РЯД: 41-46";s:6:"parent";s:1:"8";s:4:"durl";s:59:"obuv-rabochaya/obuv-iz-pvkh-i-eva/sapogi-pvkh-muzhskie-27sm";s:4:"dtxt";s:483:"Невысокие мужские сапоги на плотной подошве. Модель износоустойчива и комфортна. Материал: ПВХ Способ литья: Двухкомпонентное Средняя высота: 27 см Утеплитель: вкладыш из нетканого полотна Цветовые предложения &#40;однотонные&#41;: черный, оливковый Размерный ряд: 41-46";s:4:"dpic";s:13:"/df2/3973.jpg";s:11:"preview_pic";s:13:"/ab1/3973.jpg";s:4:"bxid";s:6:"201381";s:5:"alias";s:25:"sapogi-pvkh-muzhskie-27sm";s:7:"section";s:5:"11653";s:5:"title";s:0:"";s:11:"description";s:0:"";s:8:"keywords";s:0:"";s:5:"price";s:1:"0";s:9:"old-price";s:1:"0";}i:99;a:20:{s:2:"id";s:2:"72";s:3:"act";s:1:"N";s:9:"prod_type";s:0:"";s:4:"name";s:42:"Сапоги ПВХ мужские 34 см";s:3:"art";s:7:"ПС9_2";s:4:"sort";s:3:"100";s:6:"search";s:809:"САПОГИ ПВХ МУЖСКИЕ 34 СМ

САМАЯ ПОПУЛЯРНАЯ МОДЕЛЬ МУЖСКИХ САПОГ СРЕДИ НАШИХ ПОКУПАТЕЛЕЙ. ХАРАКТЕРИЗУЕТСЯ ОТЛИЧНЫМИ ЭКСПЛУТАЦИОННЫМИ ХАРАКТЕРИСТИКАМИ И СОВРЕМЕННЫМ ВНЕШНИМ ВИДОМ. НА БАЗЕ ДАННОЙ МОДЕЛИ МУЖСКИХ САПОГ ВЫПУСКАЕТСЯ РЯД МОДЕЛЕЙ РЫБАЦКИХ САПОГ И ПОЛУКОМБИНЕЗОНОВ, А ТАКЖЕ СЕРИЯ РАБОЧЕЙ ОБУВИ. МАТЕРИАЛ: ПВХ СПОСОБ ЛИТЬЯ: ДВУХКОМПОНЕНТНОЕ СРЕДНЯЯ ВЫСОТА: 34 СМ ЦВЕТОВЫЕ ПРЕДЛОЖЕНИЯ (ОДНОТОННЫЕ): ЧЕРНЫЙ, ОЛИВКОВЫЙ РАЗМЕРНЫЙ РЯД: 41-47";s:6:"parent";s:1:"8";s:4:"durl";s:60:"obuv-rabochaya/obuv-iz-pvkh-i-eva/sapogi-pvkh-muzhskie-34-sm";s:4:"dtxt";s:771:"Самая популярная модель мужских сапог среди наших покупателей. Характеризуется отличными эксплутационными характеристиками и современным внешним видом. На базе данной модели мужских сапог выпускается ряд моделей рыбацких сапог и полукомбинезонов, а также серия рабочей обуви. Материал: ПВХ Способ литья: Двухкомпонентное Средняя высота: 34 см Цветовые предложения &#40;однотонные&#41;: черный, оливковый Размерный ряд: 41-47";s:4:"dpic";s:13:"/c7c/4002.jpg";s:11:"preview_pic";s:13:"/28f/4002.jpg";s:4:"bxid";s:6:"201382";s:5:"alias";s:26:"sapogi-pvkh-muzhskie-34-sm";s:7:"section";s:5:"11653";s:5:"title";s:0:"";s:11:"description";s:0:"";s:8:"keywords";s:0:"";s:5:"price";s:1:"0";s:9:"old-price";s:1:"0";}i:100;a:20:{s:2:"id";s:2:"73";s:3:"act";s:1:"N";s:9:"prod_type";s:0:"";s:4:"name";s:63:"Сапоги ПВХ мужские манжет цв.болот";s:3:"art";s:9:"Сап171";s:4:"sort";s:3:"100";s:6:"search";s:635:"САПОГИ ПВХ МУЖСКИЕ МАНЖЕТ ЦВ.БОЛОТ

САПОГИ МУЖСКИЕ ПВХ С МАНЖЕТОЙ. ОБЛАДАЮТ ВЫСОКОЙ ЭЛАСТИЧНОСТЬЮ ПРИ МИНУСОВОЙ ТЕМПЕРАТУРЕ. ПОДОШВА СТОЙКАЯ К ИЗГИБАМ И ИСТИРАНИЮ. САПОГИ ИМЕЮТ ТКАНЕВУЮ ВОДООТТАЛКИВАЮЩУЮ НАДСТАВКУ И ОСНАЩЕНЫ РЕЗИНКОЙ С ФИКСАТОРОМ, ЧТО ПОЗВОЛЯЕТ ИЗБЕЖАТЬ ПРОНИКНОВЕНИЯ ЗАГРЯЗНЕНИЙ ВНУТРЬ САПОГА. ЦВЕТ БОЛОТНЫЙ РАЗМЕР: С 41 ПО 45 .";s:6:"parent";s:1:"8";s:4:"durl";s:72:"obuv-rabochaya/obuv-iz-pvkh-i-eva/sapogi-pvkh-muzhskie-manzhet-tsv-bolot";s:4:"dtxt";s:568:"Сапоги мужские ПВХ с манжетой. Обладают высокой эластичностью при минусовой температуре. Подошва стойкая к изгибам и истиранию. Сапоги имеют тканевую водоотталкивающую надставку и оснащены резинкой с фиксатором, что позволяет избежать проникновения загрязнений внутрь сапога. Цвет болотный Размер: с 41 по 45 .";s:4:"dpic";s:14:"/aea/14741.jpg";s:11:"preview_pic";s:14:"/4f0/14741.jpg";s:4:"bxid";s:6:"201383";s:5:"alias";s:38:"sapogi-pvkh-muzhskie-manzhet-tsv-bolot";s:7:"section";s:5:"11653";s:5:"title";s:0:"";s:11:"description";s:0:"";s:8:"keywords";s:0:"";s:5:"price";s:1:"0";s:9:"old-price";s:1:"0";}i:101;a:20:{s:2:"id";s:2:"74";s:3:"act";s:1:"N";s:9:"prod_type";s:0:"";s:4:"name";s:61:"Сапоги ПВХ мужские с манжетом 33см";s:3:"art";s:9:"ПС14_М";s:4:"sort";s:3:"100";s:6:"search";s:574:"САПОГИ ПВХ МУЖСКИЕ С МАНЖЕТОМ 33СМ

НЕВЫСОКИЕ МУЖСКИЕ САПОГИ НА ПЛОТНОЙ ПОДОШВЕ. МОДЕЛЬ ИЗНОСОУСТОЙЧИВА И КОМФОРТНА. МАТЕРИАЛ: ПВХ СПОСОБ ЛИТЬЯ: ДВУХКОМПОНЕНТНОЕ СРЕДНЯЯ ВЫСОТА: 33 СМ УТЕПЛИТЕЛЬ: ВКЛАДЫШ ИЗ НЕТКАНОГО ПОЛОТНА МАНЖЕТА: ТКАНЬ OXFORD ЦВЕТОВЫЕ ПРЕДЛОЖЕНИЯ (ОДНОТОННЫЕ): ЧЕРНЫЙ, ОЛИВКОВЫЙ РАЗМЕРНЫЙ РЯД: 41-46";s:6:"parent";s:1:"8";s:4:"durl";s:71:"obuv-rabochaya/obuv-iz-pvkh-i-eva/sapogi-pvkh-muzhskie-s-manzhetom-33sm";s:4:"dtxt";s:517:"Невысокие мужские сапоги на плотной подошве. Модель износоустойчива и комфортна. Материал: ПВХ Способ литья: Двухкомпонентное Средняя высота: 33 см Утеплитель: вкладыш из нетканого полотна Манжета: ткань Oxford Цветовые предложения &#40;однотонные&#41;: черный, оливковый Размерный ряд: 41-46";s:4:"dpic";s:13:"/05d/3979.jpg";s:11:"preview_pic";s:13:"/9da/3979.jpg";s:4:"bxid";s:6:"201384";s:5:"alias";s:37:"sapogi-pvkh-muzhskie-s-manzhetom-33sm";s:7:"section";s:5:"11653";s:5:"title";s:0:"";s:11:"description";s:0:"";s:8:"keywords";s:0:"";s:5:"price";s:1:"0";s:9:"old-price";s:1:"0";}i:102;a:20:{s:2:"id";s:2:"75";s:3:"act";s:1:"N";s:9:"prod_type";s:0:"";s:4:"name";s:61:"Сапоги ПВХ мужские с манжетом 37см";s:3:"art";s:9:"Сап888";s:4:"sort";s:3:"100";s:6:"search";s:1320:"САПОГИ ПВХ МУЖСКИЕ С МАНЖЕТОМ 37СМ

САПОГИ С МАНЖЕТОЙ ИЗГОТОВЛЕНЫ МЕТОДОМ ЛИТЬЯ ИЗ ВЫСОКОКАЧЕСТВЕННОГО СЫРЬЯ. ВЫСОТА - 35 СМ. ГОЛЕНИЩЕ ИМЕЕТ ТОЛСТЫЕ СТЕНКИ (НЕ МЕНЕЕ 1,8 ММ), ЧТО ПОВЫШАЕТ ИЗНОСОУСТОЙЧИВОСТЬ ОБУВИ. ТОЛЩИНА СТЕНОК САПОГА УМЕНЬШАЕТСЯ ОТ ПОДОШВЫ К ВЕРХУ САПОГА ДЛЯ СНИЖЕНИЯ МАССЫ. ПОДОШВА ИМЕЕТ ТОЛЩИНУ НЕ МЕНЕЕ 1,5 СМ, ЧТО ПОЗВОЛЯЕТ НЕ ЧУВСТВОВАТЬ ПРИ ХОДЬБЕ КАМНИ, ВЕТКИ ДЕРЕВЬЕВ И ПРОЧИЕ ПРЕДМЕТЫ. ПРОТЕКТОР РАЗРАБОТАН С УЧЕТОМ ДОСТИЖЕНИЙ ШИННОЙ ПРОМЫШЛЕННОСТИ: ПРЕПЯТСТВУЕТ СКОЛЬЖЕНИЮ, НАЛИПАНИЮ ГРЯЗИ, ЗАСТРЕВАНИЮ МЕЛКОГО МУСОРА В РИФЕ. МАНЖЕТ ПРЕПЯТСТВУЕТ ПОПАДАНИЮ ВНУТРЬ САПОГА ВОДЫ, ПЫЛИ И МЕЛКОГО МУСОРА. ТЕМПЕРАТУРНЫЙ ДИАПАЗОН ОТ -10°С ДО +30°С. МАТЕРИАЛ: ПВХ ЦВЕТ: ЧЕРНЫЙ/ОЛИВА РАЗМЕР: 41 - 45 В КОРОБЕ 10 ПАР.";s:6:"parent";s:1:"8";s:4:"durl";s:71:"obuv-rabochaya/obuv-iz-pvkh-i-eva/sapogi-pvkh-muzhskie-s-manzhetom-37sm";s:4:"dtxt";s:1267:"Сапоги с манжетой изготовлены методом литья из высококачественного сырья. Высота - 35 см. Голенище имеет толстые стенки &#40;не менее 1,8 мм&#41;, что повышает износоустойчивость обуви. Толщина стенок сапога уменьшается от подошвы к верху сапога для снижения массы. Подошва имеет толщину не менее 1,5 см, что позволяет не чувствовать при ходьбе камни, ветки деревьев и прочие предметы. Протектор разработан с учетом достижений шинной промышленности: препятствует скольжению, налипанию грязи, застреванию мелкого мусора в рифе. Манжет препятствует попаданию внутрь сапога воды, пыли и мелкого мусора. Температурный диапазон от -10°С до &#43;30°С. Материал: ПВХ Цвет: черный/олива Размер: 41 - 45 В коробе 10 пар.";s:4:"dpic";s:13:"/a65/3916.jpg";s:11:"preview_pic";s:13:"/f16/3916.jpg";s:4:"bxid";s:6:"201385";s:5:"alias";s:37:"sapogi-pvkh-muzhskie-s-manzhetom-37sm";s:7:"section";s:5:"11653";s:5:"title";s:0:"";s:11:"description";s:0:"";s:8:"keywords";s:0:"";s:5:"price";s:1:"0";s:9:"old-price";s:1:"0";}i:103;a:20:{s:2:"id";s:2:"76";s:3:"act";s:1:"N";s:9:"prod_type";s:0:"";s:4:"name";s:75:"Сапоги ПВХ мужские с меховыми вкладышами";s:3:"art";s:11:"ПС14_УМ";s:4:"sort";s:3:"100";s:6:"search";s:554:"САПОГИ ПВХ МУЖСКИЕ С МЕХОВЫМИ ВКЛАДЫШАМИ

НЕВЫСОКИЕ МУЖСКИЕ САПОГИ НА ПЛОТНОЙ ПОДОШВЕ. МОДЕЛЬ ИЗНОСОУСТОЙЧИВА И КОМФОРТНА. МАТЕРИАЛ: ПВХ СПОСОБ ЛИТЬЯ: ДВУХКОМПОНЕНТНОЕ СРЕДНЯЯ ВЫСОТА: 27 СМ УТЕПЛИТЕЛЬ: ВКЛАДЫШ ИЗ НЕТКАНОГО ПОЛОТНА ЦВЕТОВЫЕ ПРЕДЛОЖЕНИЯ (ОДНОТОННЫЕ): ЧЕРНЫЙ, ОЛИВКОВЫЙ РАЗМЕРНЫЙ РЯД: 41-46";s:6:"parent";s:1:"8";s:4:"durl";s:78:"obuv-rabochaya/obuv-iz-pvkh-i-eva/sapogi-pvkh-muzhskie-s-mekhovymi-vkladyshami";s:4:"dtxt";s:483:"Невысокие мужские сапоги на плотной подошве. Модель износоустойчива и комфортна. Материал: ПВХ Способ литья: Двухкомпонентное Средняя высота: 27 см Утеплитель: вкладыш из нетканого полотна Цветовые предложения &#40;однотонные&#41;: черный, оливковый Размерный ряд: 41-46";s:4:"dpic";s:13:"/1ce/3983.jpg";s:11:"preview_pic";s:13:"/d6e/3983.jpg";s:4:"bxid";s:6:"201386";s:5:"alias";s:44:"sapogi-pvkh-muzhskie-s-mekhovymi-vkladyshami";s:7:"section";s:5:"11653";s:5:"title";s:0:"";s:11:"description";s:0:"";s:8:"keywords";s:0:"";s:5:"price";s:1:"0";s:9:"old-price";s:1:"0";}i:104;a:20:{s:2:"id";s:2:"77";s:3:"act";s:1:"N";s:9:"prod_type";s:0:"";s:4:"name";s:60:"Сапоги ПВХ резиновые мужские 38см";s:3:"art";s:7:"ПС9_1";s:4:"sort";s:3:"100";s:6:"search";s:827:"САПОГИ ПВХ РЕЗИНОВЫЕ МУЖСКИЕ 38СМ

САМАЯ ПОПУЛЯРНАЯ МОДЕЛЬ МУЖСКИХ САПОГ СРЕДИ НАШИХ ПОКУПАТЕЛЕЙ. ХАРАКТЕРИЗУЕТСЯ ОТЛИЧНЫМИ ЭКСПЛУТАЦИОННЫМИ ХАРАКТЕРИСТИКАМИ И СОВРЕМЕННЫМ ВНЕШНИМ ВИДОМ. НА БАЗЕ ДАННОЙ МОДЕЛИ МУЖСКИХ САПОГ ВЫПУСКАЕТСЯ РЯД МОДЕЛЕЙ РЫБАЦКИХ САПОГ И ПОЛУКОМБИНЕЗОНОВ, А ТАКЖЕ СЕРИЯ РАБОЧЕЙ ОБУВИ. МАТЕРИАЛ: ПВХ СПОСОБ ЛИТЬЯ: ДВУХКОМПОНЕНТНОЕ СРЕДНЯЯ ВЫСОТА: 38 СМ ЦВЕТОВЫЕ ПРЕДЛОЖЕНИЯ (ОДНОТОННЫЕ): ЧЕРНЫЙ, ОЛИВКОВЫЙ РАЗМЕРНЫЙ РЯД: 41-47";s:6:"parent";s:1:"8";s:4:"durl";s:69:"obuv-rabochaya/obuv-iz-pvkh-i-eva/sapogi-pvkh-rezinovye-muzhskie-38sm";s:4:"dtxt";s:771:"Самая популярная модель мужских сапог среди наших покупателей. Характеризуется отличными эксплутационными характеристиками и современным внешним видом. На базе данной модели мужских сапог выпускается ряд моделей рыбацких сапог и полукомбинезонов, а также серия рабочей обуви. Материал: ПВХ Способ литья: Двухкомпонентное Средняя высота: 38 см Цветовые предложения &#40;однотонные&#41;: черный, оливковый Размерный ряд: 41-47";s:4:"dpic";s:13:"/cc7/4020.jpg";s:11:"preview_pic";s:13:"/d84/4020.jpg";s:4:"bxid";s:6:"201387";s:5:"alias";s:35:"sapogi-pvkh-rezinovye-muzhskie-38sm";s:7:"section";s:5:"11653";s:5:"title";s:0:"";s:11:"description";s:0:"";s:8:"keywords";s:0:"";s:5:"price";s:1:"0";s:9:"old-price";s:1:"0";}i:105;a:20:{s:2:"id";s:2:"78";s:3:"act";s:1:"N";s:9:"prod_type";s:0:"";s:4:"name";s:51:"Сапоги ПВХ рыбацкие женские";s:3:"art";s:14:"Сап167-01Ж";s:4:"sort";s:3:"100";s:6:"search";s:896:"САПОГИ ПВХ РЫБАЦКИЕ ЖЕНСКИЕ

САПОГИ ЖЕНСКИЕ РЫБАЦКИЕ ИЗГОТАВЛИВАЮТСЯ НА БАЗЕ РАБОЧИХ САПОГ ПО ТЕХНОЛОГИИ ТРЕХЦВЕТНОГО ЛИТЬЯ, НАДСТАВКА ГОЛЕНИЩА ИЗГОТОВЛЕНА ИЗ БОЛЕЕ ПРОЧНОГО МАТЕРИАЛА ВИНИТОЛА, КОТОРАЯ ПРИВАРИВАЕТСЯ С ИСПОЛЬЗОВАНИЕМ СОВРЕМЕННОГО ВЫСОКОТЕХНОЛОГИЧЕСКОГО ОБОРУДОВАНИЯ. В ОБЛАСТИ КОЛЕНА, ТАМ, ГДЕ ГОЛЕНИЩЕ ПОДВЕРЖЕНО НАИБОЛЕЕ ИНТЕНСИВНЫМ МЕХАНИЧЕСКИМ ВОЗДЕЙСТВИЯМ, ОНО УКРЕПЛЕНО СПЕЦИАЛЬНЫМ НАКОЛЕННИКОМ. ДЛЯ КРЕПЛЕНИЯ К ПОЯСУ САПОГИ ОСНАЩЕНЫ СПЕЦИАЛЬНЫМИ РЕМНЯМИ. .";s:6:"parent";s:1:"8";s:4:"durl";s:64:"obuv-rabochaya/obuv-iz-pvkh-i-eva/sapogi-pvkh-rybatskie-zhenskie";s:4:"dtxt";s:841:"Сапоги женские рыбацкие изготавливаются на базе рабочих сапог по технологии трехцветного литья, надставка голенища изготовлена из более прочного материала винитола, которая приваривается с использованием современного высокотехнологического оборудования. В области колена, там, где голенище подвержено наиболее интенсивным механическим воздействиям, оно укреплено специальным наколенником. Для крепления к поясу сапоги оснащены специальными ремнями. .";s:4:"dpic";s:14:"/e9e/12984.jpg";s:11:"preview_pic";s:14:"/a3e/12984.jpg";s:4:"bxid";s:6:"201388";s:5:"alias";s:30:"sapogi-pvkh-rybatskie-zhenskie";s:7:"section";s:5:"11653";s:5:"title";s:0:"";s:11:"description";s:0:"";s:8:"keywords";s:0:"";s:5:"price";s:1:"0";s:9:"old-price";s:1:"0";}i:106;a:20:{s:2:"id";s:2:"79";s:3:"act";s:1:"N";s:9:"prod_type";s:0:"";s:4:"name";s:91:"Сапоги ПВХ рыбацкие мужские цельнолитые цв.болот.";s:3:"art";s:12:"Сап167-02";s:4:"sort";s:3:"100";s:6:"search";s:672:"САПОГИ ПВХ РЫБАЦКИЕ МУЖСКИЕ ЦЕЛЬНОЛИТЫЕ ЦВ.БОЛОТ.

ВЫСОКИЕ ДО БЕДЕР САПОГИ БОЛОТНЫЕ ВЫПОЛНЕНЫ ИЗ ПЛАСТИКАТА ПВХ (ПОЛИВИНИЛХЛОРИДА).НА НИЗ ОБУВИ ИСПОЛЬЗУЮТ САПОГИ СПЕЦИАЛИСТ В ТРЕХКОМПОНЕНТНОМ ИСПОЛНЕНИИ. НА ВЕРХ- ЦЕЛЬНОЛИТАЯ НАДСТАВКА.ВЫСОКОПРОЧНОЕ СОЕДИНЕНИЕ ВЕРХНЕЙ И НИЖНЕЙ ЧАСТЕЙ ТОКАМИ ВЫСОКОЙ ЧАСТОТЫ ОБЕСПЕЧИВАЮТ ЗАЩИТУ ОТ ПРОНИКНОВЕНИЯ ВЛАГИ ВО ВНУТРЬ. .";s:6:"parent";s:1:"8";s:4:"durl";s:86:"obuv-rabochaya/obuv-iz-pvkh-i-eva/sapogi-pvkh-rybatskie-muzhskie-tselnolitye-tsv-bolot";s:4:"dtxt";s:585:"Высокие до бедер сапоги болотные выполнены из пластиката ПВХ &#40;поливинилхлорида&#41;.На низ обуви используют сапоги Специалист в трехкомпонентном исполнении. На верх- цельнолитая надставка.Высокопрочное соединение верхней и нижней частей токами высокой частоты обеспечивают защиту от проникновения влаги во внутрь. .";s:4:"dpic";s:14:"/fd2/14748.jpg";s:11:"preview_pic";s:14:"/8fc/14748.jpg";s:4:"bxid";s:6:"201389";s:5:"alias";s:52:"sapogi-pvkh-rybatskie-muzhskie-tselnolitye-tsv-bolot";s:7:"section";s:5:"11653";s:5:"title";s:0:"";s:11:"description";s:0:"";s:8:"keywords";s:0:"";s:5:"price";s:1:"0";s:9:"old-price";s:1:"0";}i:107;a:20:{s:2:"id";s:2:"80";s:3:"act";s:1:"N";s:9:"prod_type";s:0:"";s:4:"name";s:36:"Сапоги ПВХ рыбацкие";s:3:"art";s:8:"ПС9_Р";s:4:"sort";s:3:"100";s:6:"search";s:1467:"САПОГИ ПВХ РЫБАЦКИЕ

КЛАССИЧЕСКАЯ МОДЕЛЬ РЫБАЦКИХ САПОГ. МОДЕЛЬ СОЗДАНА НА ОСНОВЕ МОДЕЛИ ВЫСОКИХ МУЖСКИХ САПОГ АРТ. ПС 9. ПЛОТНАЯ РИФЛЕНАЯ ПОДОШВА ОБЕСПЕЧИВАЕТ КОМФОРТНОСТЬ ПРИ ХОДЬБЕ ПО ЛЮБОЙ ПОВЕРХНОСТИ. ТЕКСТИЛЬНЫЙ ВЕРХ, ВЫПОЛНЕННЫЙ ИЗ ЛЕГКОЙ ВОДОНЕПРОНИЦАЕМОЙ ПВХ-ТКАНИ (ВИНИТОЛ), КРЕПИТСЯ К БАЗОВОМУ САПОГУ НА СОВРЕМЕННОМ ИТАЛЬЯНСКОМ ОБОРУДОВАНИИ ПРИ ПОМОЩИ СВАРКИ ТОКОМ ВЫСОКОЙ ЧАСТОТЫ, ЧТО ГАРАНТИРУЕТ АБСОЛЮТНУЮ ВОДОНЕПРОНИЦАЕМОСТЬ. ДОПОЛНИТЕЛЬНО ПРИМЕНЯЕТСЯ ТЕХНОЛОГИЯ ДВОЙНОГО ШВА, КОТОРАЯ ПРИДАЕТ ОБУВИ ЕЩЕ БОЛЬШУЮ ПРОЧНОСТЬ, ИЗНОСОСТОЙКОСТЬ И ГЕРМЕТИЧНОСТЬ. ДЛЯ НАДЕЖНОЙ ФИКСАЦИИ САПОГ ИМЕЕТСЯ УДОБНОЕ ПРИСПОСОБЛЕНИЕ ДЛЯ ПРИСТЕГИВАНИЯ К ПОЯСНОМУ РЕМНЮ. СРЕДНЯЯ ВЫСОТА: 90 СМ МАТЕРИАЛ ТКАНИ: ВИНИТОЛ ЦВЕТОВЫЕ ПРЕДЛОЖЕНИЯ (ОДНОТОННЫЕ): БОЛОТНЫЙ РАЗМЕРНЫЙ РЯД: 41-47 МАТЕРИАЛ САПОГА: ПВХ";s:6:"parent";s:1:"8";s:4:"durl";s:55:"obuv-rabochaya/obuv-iz-pvkh-i-eva/sapogi-pvkh-rybatskie";s:4:"dtxt";s:1443:"Классическая модель рыбацких сапог. Модель создана на основе модели высоких мужских сапог арт. ПС 9. Плотная рифленая подошва обеспечивает комфортность при ходьбе по любой поверхности. Текстильный верх, выполненный из легкой водонепроницаемой ПВХ-ткани &#40;винитол&#41;, крепится к базовому сапогу на современном итальянском оборудовании при помощи сварки током высокой частоты, что гарантирует абсолютную водонепроницаемость. Дополнительно применяется технология двойного шва, которая придает обуви еще большую прочность, износостойкость и герметичность. Для надежной фиксации сапог имеется удобное приспособление для пристегивания к поясному ремню. Средняя высота: 90 см Материал ткани: винитол Цветовые предложения &#40;однотонные&#41;: болотный Размерный ряд: 41-47 Материал сапога: ПВХ";s:4:"dpic";s:13:"/fc4/4028.jpg";s:11:"preview_pic";s:13:"/434/4028.jpg";s:4:"bxid";s:6:"201390";s:5:"alias";s:21:"sapogi-pvkh-rybatskie";s:7:"section";s:5:"11653";s:5:"title";s:0:"";s:11:"description";s:0:"";s:8:"keywords";s:0:"";s:5:"price";s:1:"0";s:9:"old-price";s:1:"0";}i:108;a:20:{s:2:"id";s:2:"81";s:3:"act";s:1:"N";s:9:"prod_type";s:0:"";s:4:"name";s:47:"Сапоги ПВХ рыбацкие СВ-17 Р";s:3:"art";s:10:"СВ-17_Р";s:4:"sort";s:3:"100";s:6:"search";s:1648:"САПОГИ ПВХ РЫБАЦКИЕ СВ-17 Р

РАЗМЕРНЫЙ РЯД: 41-46 КОРОБКА 6 ПАР ОДНОГО РАЗМЕРА ВЕРХНЯЯ ЧАСТЬ САПОГ ИЗ НЕЙЛОНА С ПВХ. МАТЕРИАЛ САПОГ - ПВХ. НИЗ САПОГА ПРОИЗВОДИТСЯ ПУТЕМ ЛИТЬЯ ПВХ ПОД ДАВЛЕНИЕМ, ЧТО ГАРАНТИРУЕТ ЕГО ПОЛНУЮ ВОДОНЕПРОНИЦАЕМОСТЬ И ВЫСОКУЮ ИЗНОСОСТОЙКОСТЬ, ПРИМЕНЕНИЕ СЫРЬЯ ВЫСОКОГО КАЧЕСТВА ПОЗВОЛЯЕТ ИСПОЛЬЗОВАТЬ НАШУ ОБУВЬ НЕ ТОЛЬКО В ТЕПЛОЕ ВРЕМЯ ГОДА, НО И ВО ВРЕМЯ НЕБОЛЬШИХ ЗАМОРОЗКОВ. ВЕРХ САПОГА ИЗГОТАВЛИВАЕТСЯ ИЗ ПРОЧНОЙ ТКАНИ С НАНЕСЕННЫМ ВОДОНЕПРОНИЦАЕМЫМ СЛОЕМ ПВХ. ВСЕ ШВЫ ДЕЛАЮТСЯ МЕТОДОМ СВАРКИ С ПРИМЕНЕНИЕМ ТОКОВ ВЫСОКОЙ ЧАСТОТЫ, ЧТО ГАРАНТИРУЕТ ПОЛНУЮ ЗАЩИТУ ОТ ВЛАГИ. В ЦЕЛОМ ВЕРХ САПОГА ИЗГОТОВЛЕННЫЙ ТАКИМ МЕТОДОМ ОСТАЕТСЯ МАКСИМАЛЬНО КРЕПКИМ ПРИ ДОСТАТОЧНО ВЫСОКОЙ ЭЛАСТИЧНОСТИ, ОБЕСПЕЧИВАЯ ТЕМ САМЫМ МАКСИМАЛЬНЫЙ КОМФОРТ ПРИ НОСКЕ. ПОРИСТЫЙ СЛОЙ ОБЕСПЕЧИВАЕТ УЛУЧШЕННУЮ АМОРТИЗАЦИЮ ПРИ ХОДЬБЕ И ВЫСОКУЮ ТЕПЛОЗАЩИТУ ПОЗВОЛЯЯ НАХОДИТЬСЯ В ВОДЕ БОЛЕЕ ДОЛГОЕ ВРЕМЯ.";s:6:"parent";s:1:"8";s:4:"durl";s:63:"obuv-rabochaya/obuv-iz-pvkh-i-eva/sapogi-pvkh-rybatskie-sv-17-r";s:4:"dtxt";s:1597:"Размерный ряд: 41-46 Коробка 6 пар одного размера Верхняя часть сапог из нейлона с ПВХ. Материал сапог - ПВХ. Низ сапога производится путем литья ПВХ под давлением, что гарантирует его полную водонепроницаемость и высокую износостойкость, применение сырья высокого качества позволяет использовать нашу обувь не только в теплое время года, но и во время небольших заморозков. Верх сапога изготавливается из прочной ткани с нанесенным водонепроницаемым слоем ПВХ. Все швы делаются методом сварки с применением токов высокой частоты, что гарантирует полную защиту от влаги. В целом верх сапога изготовленный таким методом остается максимально крепким при достаточно высокой эластичности, обеспечивая тем самым максимальный комфорт при носке. Пористый слой обеспечивает улучшенную амортизацию при ходьбе и высокую теплозащиту позволяя находиться в воде более долгое время.";s:4:"dpic";s:14:"/def/10385.jpg";s:11:"preview_pic";s:14:"/e33/10385.jpg";s:4:"bxid";s:6:"201391";s:5:"alias";s:29:"sapogi-pvkh-rybatskie-sv-17-r";s:7:"section";s:5:"11653";s:5:"title";s:0:"";s:11:"description";s:0:"";s:8:"keywords";s:0:"";s:5:"price";s:1:"0";s:9:"old-price";s:1:"0";}i:109;a:20:{s:2:"id";s:2:"82";s:3:"act";s:1:"N";s:9:"prod_type";s:0:"";s:4:"name";s:59:"Сапоги ПВХ рыбацкие трехцветные";s:3:"art";s:10:"ПС-15_Р";s:4:"sort";s:3:"100";s:6:"search";s:1809:"САПОГИ ПВХ РЫБАЦКИЕ ТРЕХЦВЕТНЫЕ

МОДЕЛЬ СОЗДАНА НА ОСНОВЕ МОДЕЛИ ВЫСОКИХ МУЖСКИХ САПОГ АРТ. ПС 15. ПЛОТНАЯ РИФЛЕНАЯ ПОДОШВА ВЫПОЛНЕНА МЕТОДОМ ТРЕХКОМПОНЕНТНОГО ЛИТЬЯ - С ПРИМЕНЕНИЕМ ТРЕТЬЕГО ДОПОЛНИТЕЛЬНОГО ПРОМЕЖУТОЧНОГО СЛОЯ ИЗ ВСПЕНЕННОГО ПВХ, ЧТО ПРИДАЕТ ОБУВИ ВЫСОКИЕ АМОРТИЗИРУЮЩИЕ, ТЕПЛОЗАЩИТНЫЕ И АНТИСТАТИЧЕСКИЕ СВОЙСТВА, ОБЕСПЕЧИВАЯ КОМФОРТНОСТЬ ПРИ ХОДЬБЕ ПО ЛЮБОЙ ПОВЕРХНОСТИ. ТЕКСТИЛЬНЫЙ ВЕРХ, ВЫПОЛНЕННЫЙ ИЗ ЛЕГКОЙ ВОДОНЕПРОНИЦАЕМОЙ ПВХ-ТКАНИ (ВИНИТОЛ), КРЕПИТСЯ К БАЗОВОМУ САПОГУ НА СОВРЕМЕННОМ ИТАЛЬЯНСКОМ ОБОРУДОВАНИИ ПРИ ПОМОЩИ СВАРКИ ТОКОМ ВЫСОКОЙ ЧАСТОТЫ, ЧТО ГАРАНТИРУЕТ АБСОЛЮТНУЮ ВОДОНЕПРОНИЦАЕМОСТЬ. ДОПОЛНИТЕЛЬНО ПРИМЕНЯЕТСЯ ТЕХНОЛОГИЯ ДВОЙНОГО ШВА, КОТОРАЯ ПРИДАЕТ ОБУВИ ЕЩЕ БОЛЬШУЮ ПРОЧНОСТЬ, ИЗНОСОСТОЙКОСТЬ И ГЕРМЕТИЧНОСТЬ. ДЛЯ НАДЕЖНОЙ ФИКСАЦИИ САПОГ ИМЕЕТСЯ УДОБНОЕ ПРИСПОСОБЛЕНИЕ ДЛЯ ПРИСТЕГИВАНИЯ К ПОЯСНОМУ РЕМНЮ. СРЕДНЯЯ ВЫСОТА: 90 СМ МАТЕРИАЛ ТКАНИ: ВИНИТОЛ ЦВЕТОВЫЕ ПРЕДЛОЖЕНИЯ (ОДНОТОННЫЕ): БОЛОТНЫЙ РАЗМЕРНЫЙ РЯД: 41-47 МАТЕРИАЛ САПОГА: ПВХ";s:6:"parent";s:1:"8";s:4:"durl";s:69:"obuv-rabochaya/obuv-iz-pvkh-i-eva/sapogi-pvkh-rybatskie-trekhtsvetnye";s:4:"dtxt";s:1762:"Модель создана на основе модели высоких мужских сапог арт. ПС 15. Плотная рифленая подошва выполнена методом трехкомпонентного литья - с применением третьего дополнительного промежуточного слоя из вспененного ПВХ, что придает обуви высокие амортизирующие, теплозащитные и антистатические свойства, обеспечивая комфортность при ходьбе по любой поверхности. Текстильный верх, выполненный из легкой водонепроницаемой ПВХ-ткани &#40;винитол&#41;, крепится к базовому сапогу на современном итальянском оборудовании при помощи сварки током высокой частоты, что гарантирует абсолютную водонепроницаемость. Дополнительно применяется технология двойного шва, которая придает обуви еще большую прочность, износостойкость и герметичность. Для надежной фиксации сапог имеется удобное приспособление для пристегивания к поясному ремню. Средняя высота: 90 см Материал ткани: винитол Цветовые предложения &#40;однотонные&#41;: болотный Размерный ряд: 41-47 Материал сапога: ПВХ";s:4:"dpic";s:14:"/23d/14326.jpg";s:11:"preview_pic";s:14:"/98f/14326.jpg";s:4:"bxid";s:6:"201392";s:5:"alias";s:35:"sapogi-pvkh-rybatskie-trekhtsvetnye";s:7:"section";s:5:"11653";s:5:"title";s:0:"";s:11:"description";s:0:"";s:8:"keywords";s:0:"";s:5:"price";s:1:"0";s:9:"old-price";s:1:"0";}i:110;a:20:{s:2:"id";s:2:"83";s:3:"act";s:1:"N";s:9:"prod_type";s:0:"";s:4:"name";s:52:"Сапоги ПВХ с метал.подноском";s:3:"art";s:12:"Сап345-98";s:4:"sort";s:3:"100";s:6:"search";s:56:"САПОГИ ПВХ С МЕТАЛ.ПОДНОСКОМ

";s:6:"parent";s:1:"8";s:4:"durl";s:63:"obuv-rabochaya/obuv-iz-pvkh-i-eva/sapogi-pvkh-s-metal-podnoskom";s:4:"dtxt";s:0:"";s:4:"dpic";N;s:11:"preview_pic";N;s:4:"bxid";s:6:"201393";s:5:"alias";s:29:"sapogi-pvkh-s-metal-podnoskom";s:7:"section";s:5:"11653";s:5:"title";s:0:"";s:11:"description";s:0:"";s:8:"keywords";s:0:"";s:5:"price";s:1:"0";s:9:"old-price";s:1:"0";}i:111;a:20:{s:2:"id";s:2:"84";s:3:"act";s:1:"Y";s:9:"prod_type";s:0:"";s:4:"name";s:81:"Сапоги ПВХ черные короткие на молнии, каблук";s:3:"art";s:10:"СРМК11";s:4:"sort";s:3:"100";s:6:"search";s:1089:"САПОГИ ПВХ ЧЕРНЫЕ КОРОТКИЕ НА МОЛНИИ, КАБЛУК

РЕЗИНОВЫЙ ПОЛУСАПОЖКИ COOLLOOK ИМЕЮТ ОДНОТОННУЮ РАСЦВЕТКУ. САПОГИ ЛИТЫЕ, СДЕЛАНЫ ИЗ ЦЕЛЬНОЙ РЕЗИНЫ, НА НЕВЫСОКОМ КАБЛУЧКЕ. КОЛОДКА У НИХ ОЧЕНЬ УДОБНАЯ, НОГИ НЕ УСТАЮТ. НЕ ПРОМОКАЮТ, НЕ ПРОПУСКАЮТ ВОДУ. НА РЕЗИНОВЫЙ САПОЖКАХ COOLLOOK ЕСТЬ ЗАМОК-МОЛНИЯ. ВНУТРИ НЕТ УТЕПЛЕНИЯ. ПОДОШВА У ЭТИХ РЕЗИНОВЫХ САПОГ НЕ СКОЛЬЗЯЩАЯ, РЕЗИНОВАЯ. ИХ МОЖНО СМЕЛО ОДЕВАТЬ ПОД ЛЮБЫЕ БРЮКИ И ПОД ПАЛЬТО И НЕ ПЕРЕЖИВАТЬ, ЧТО НОГИ ИЗМАЖУТСЯ И ПРОМОКНУТ. РЕЗИНОВАЯ ОБУВЬ ОЧЕНЬ УДОБНА ДЛЯ СЫРОЙ И ГРЯЗНОЙ ПОГОДЫ-НОГИ НЕ ПРОМОКАЮТ, ТЕПЕРЬ МОЖНО НЕ БОЯТЬСЯ ВЫХОДИТЬ НА УЛИЦУ В НЕНАСТЬЕ.";s:6:"parent";s:1:"8";s:4:"durl";s:79:"obuv-rabochaya/obuv-iz-pvkh-i-eva/sapogi-pvkh-chernye-korotkie-na-molnii-kabluk";s:4:"dtxt";s:1004:"Резиновый полусапожки Coollook имеют однотонную расцветку. Сапоги литые, сделаны из цельной резины, на невысоком каблучке. Колодка у них очень удобная, ноги не устают. Не промокают, не пропускают воду. На резиновый сапожках Coollook есть замок-молния. Внутри нет утепления. Подошва у этих резиновых сапог не скользящая, резиновая. Их можно смело одевать под любые брюки и под пальто и не переживать, что ноги измажутся и промокнут. Резиновая обувь очень удобна для сырой и грязной погоды-ноги не промокают, теперь можно не бояться выходить на улицу в ненастье.";s:4:"dpic";s:14:"/5ba/10179.jpg";s:11:"preview_pic";s:14:"/144/10179.jpg";s:4:"bxid";s:6:"201394";s:5:"alias";s:45:"sapogi-pvkh-chernye-korotkie-na-molnii-kabluk";s:7:"section";s:5:"11653";s:5:"title";s:0:"";s:11:"description";s:0:"";s:8:"keywords";s:0:"";s:5:"price";s:1:"0";s:9:"old-price";s:1:"0";}i:112;a:20:{s:2:"id";s:2:"85";s:3:"act";s:1:"N";s:9:"prod_type";s:0:"";s:4:"name";s:27:"Сапоги ПВХ, КЩС";s:3:"art";s:9:"Сап044";s:4:"sort";s:3:"100";s:6:"search";s:31:"САПОГИ ПВХ, КЩС

";s:6:"parent";s:1:"8";s:4:"durl";s:52:"obuv-rabochaya/obuv-iz-pvkh-i-eva/sapogi-pvkh-kshchs";s:4:"dtxt";s:0:"";s:4:"dpic";N;s:11:"preview_pic";N;s:4:"bxid";s:6:"201395";s:5:"alias";s:18:"sapogi-pvkh-kshchs";s:7:"section";s:5:"11653";s:5:"title";s:0:"";s:11:"description";s:0:"";s:8:"keywords";s:0:"";s:5:"price";s:1:"0";s:9:"old-price";s:1:"0";}i:113;a:20:{s:2:"id";s:2:"86";s:3:"act";s:1:"N";s:9:"prod_type";s:0:"";s:4:"name";s:83:"Сапоги ПВХ/Винитол рыбацкие женские цв.болот.";s:3:"art";s:15:"Сап05(С)850";s:4:"sort";s:3:"100";s:6:"search";s:765:"САПОГИ ПВХ/ВИНИТОЛ РЫБАЦКИЕ ЖЕНСКИЕ ЦВ.БОЛОТ.

ГОЛЕНИЩЕ ИЗГОТОВЛЕНО ИЗ ЛЕГКОЙ ВОДОНЕПРОНИЦАЕМОЙ ПВХ-ТКАНИ И ПРИВАРЕНО ВЫСОКОЧАСТОТНЫМИ ТОКАМИ, ЧТО ДЕЛАЕТ МОДЕЛИ ГЕРМЕТИЧНЫМИ. НА ГОЛЕНИЩАХ ПРЕДУСМОТРЕНЫ СПЕЦИАЛЬНЫЕ, РЕГУЛИРУЕМЫЕ ПО ДЛИНЕ, ПЕТЛИ НА ПОЯСНОЙ РЕМЕНЬ. ОБЛАСТИ КОЛЕН ПРОДУБЛИРОВАНЫ ДОПОЛНИТЕЛЬНОЙ НАКЛАДКОЙ ИЗ ПВХ-ТКАНИ, ДЛЯ ПРОЧНОСТИ И СМЯГЧЕНИЯ ПРИ ОПОРЕ НА КОЛЕНО. РАЗМЕРЫ: С 37 ПО 41 (ПО 6 ПАР В КОРОБКЕ) .";s:6:"parent";s:1:"8";s:4:"durl";s:82:"obuv-rabochaya/obuv-iz-pvkh-i-eva/sapogi-pvkh-vinitol-rybatskie-zhenskie-tsv-bolot";s:4:"dtxt";s:686:"Голенище изготовлено из легкой водонепроницаемой ПВХ-ткани и приварено высокочастотными токами, что делает модели герметичными. На голенищах предусмотрены специальные, регулируемые по длине, петли на поясной ремень. Области колен продублированы дополнительной накладкой из ПВХ-ткани, для прочности и смягчения при опоре на колено. Размеры: С 37 по 41 &#40;по 6 пар в коробке&#41; .";s:4:"dpic";s:14:"/da8/14746.jpg";s:11:"preview_pic";s:14:"/621/14746.jpg";s:4:"bxid";s:6:"201396";s:5:"alias";s:48:"sapogi-pvkh-vinitol-rybatskie-zhenskie-tsv-bolot";s:7:"section";s:5:"11653";s:5:"title";s:0:"";s:11:"description";s:0:"";s:8:"keywords";s:0:"";s:5:"price";s:1:"0";s:9:"old-price";s:1:"0";}i:114;a:20:{s:2:"id";s:2:"87";s:3:"act";s:1:"N";s:9:"prod_type";s:0:"";s:4:"name";s:83:"Сапоги ПВХ/Винитол рыбацкие мужские цв.болот.";s:3:"art";s:15:"Сап10(С)850";s:4:"sort";s:3:"100";s:6:"search";s:529:"САПОГИ ПВХ/ВИНИТОЛ РЫБАЦКИЕ МУЖСКИЕ ЦВ.БОЛОТ.

ОСНОВА САПОГА ИЗГОТОВЛЕНА ИЗ ОДНОТОННОГО ПВХ, ВЕРХ - ИЗ ВОДОНЕПРОНИЦАЕМОГО МАТЕРИАЛА ВИНИТОЛ. ВВЕРХУ САПОГА ИМЕЕТСЯ ФИКСАТОР, КОТОРЫЙ КРЕПИТСЯ К РЕМНЮ, ОБЕСПЕЧИВАЯ ТАКИМ ОБРАЗОМ УДОБСТВО ПРИ ПЕРЕДВИЖЕНИИ. РАЗМЕРЫ С 41 ПО 47 (ПО 6 ПАР В КОРОБКЕ) .";s:6:"parent";s:1:"8";s:4:"durl";s:82:"obuv-rabochaya/obuv-iz-pvkh-i-eva/sapogi-pvkh-vinitol-rybatskie-muzhskie-tsv-bolot";s:4:"dtxt";s:450:"Основа сапога изготовлена из однотонного ПВХ, верх - из водонепроницаемого материала винитол. Вверху сапога имеется фиксатор, который крепится к ремню, обеспечивая таким образом удобство при передвижении. Размеры С 41 по 47 &#40;по 6 пар в коробке&#41; .";s:4:"dpic";s:14:"/0ef/15127.jpg";s:11:"preview_pic";s:14:"/2e2/15127.jpg";s:4:"bxid";s:6:"201397";s:5:"alias";s:48:"sapogi-pvkh-vinitol-rybatskie-muzhskie-tsv-bolot";s:7:"section";s:5:"11653";s:5:"title";s:0:"";s:11:"description";s:0:"";s:8:"keywords";s:0:"";s:5:"price";s:1:"0";s:9:"old-price";s:1:"0";}i:115;a:20:{s:2:"id";s:2:"88";s:3:"act";s:1:"N";s:9:"prod_type";s:0:"";s:4:"name";s:78:"Сапоги ПВХ/Винитол рыбацкие мужские цв.лес";s:3:"art";s:17:"Сап10(С)850Р";s:4:"sort";s:3:"100";s:6:"search";s:379:"САПОГИ ПВХ/ВИНИТОЛ РЫБАЦКИЕ МУЖСКИЕ ЦВ.ЛЕС

ГОЛЕНИЩЕ ИЗГОТОВЛЕНО ИЗ ПЛОТНОЙ ПВХ-ТКАНИ И ПРИВАРЕНО К САПОГУ ВЫСОКОЧАСТОТНЫМИ ТОКАМИ, ЧТО ДЕЛАЕТ МОДЕЛЬ ВОДОНЕПРОНИЦАЕМОЙ. РАЗМЕРЫ: С 41 ПО 47 (ПО 6 ПАР В КОРОБКЕ) .";s:6:"parent";s:1:"8";s:4:"durl";s:80:"obuv-rabochaya/obuv-iz-pvkh-i-eva/sapogi-pvkh-vinitol-rybatskie-muzhskie-tsv-les";s:4:"dtxt";s:305:"Голенище изготовлено из плотной ПВХ-ткани и приварено к сапогу высокочастотными токами, что делает модель водонепроницаемой. Размеры: С 41 по 47 &#40;по 6 пар в коробке&#41; .";s:4:"dpic";s:14:"/252/14747.jpg";s:11:"preview_pic";s:14:"/ddd/14747.jpg";s:4:"bxid";s:6:"201398";s:5:"alias";s:46:"sapogi-pvkh-vinitol-rybatskie-muzhskie-tsv-les";s:7:"section";s:5:"11653";s:5:"title";s:0:"";s:11:"description";s:0:"";s:8:"keywords";s:0:"";s:5:"price";s:1:"0";s:9:"old-price";s:1:"0";}i:116;a:20:{s:2:"id";s:2:"89";s:3:"act";s:1:"N";s:9:"prod_type";s:0:"";s:4:"name";s:58:"Сапоги ЭВА  Пумка женские утепл.";s:3:"art";s:9:"Сап391";s:4:"sort";s:3:"100";s:6:"search";s:710:"САПОГИ ЭВА  ПУМКА ЖЕНСКИЕ УТЕПЛ.

САПОГИ ЭВА ЖЕНСКИЕ. ДАННЫЕ САПОГИ КОМПЛЕКТУЮТСЯ ВКЛАДНЫМ УТЕПЛИТЕЛЕМ, КОТОРЫЙ ЛЕГКО ВСТАВЛЯЕТСЯ И ВЫНИМАЕТСЯ ИЗ ОБУВИ. УТЕПЛИТЕЛЬ ВЫПОЛНЕН НА 80% ИЗ АВСТРАЛИЙСКОЙ ШЕРСТИ (МЕРИНОС) + 20% ИСКУССТВЕННОЕ ВОЛОКНО. НАТУРАЛЬНАЯ ШЕРСТЬ ПРЕКРАСНО СОХРАНЯЕТ ТЕПЛО, А ИСКУССТВЕННОЕ ВОЛОКНО ОТВОДИТ ВЛАГУ. РАЗМЕРНЫЙ РЯД: 36-37, 38-39 - ПО 10 ПАР В КОРОБЕ 40-41 - ПО 8 ПАР В КОРОБЕ .";s:6:"parent";s:1:"8";s:4:"durl";s:65:"obuv-rabochaya/obuv-iz-pvkh-i-eva/sapogi-eva-pumka-zhenskie-utepl";s:4:"dtxt";s:668:"Сапоги ЭВА женские. Данные сапоги комплектуются вкладным утеплителем, который легко вставляется и вынимается из обуви. Утеплитель выполнен на 80&#37; из австралийской шерсти &#40;меринос&#41; &#43; 20&#37; искусственное волокно. Натуральная шерсть прекрасно сохраняет тепло, а искусственное волокно отводит влагу. Размерный ряд: 36-37, 38-39 - по 10 пар в коробе 40-41 - по 8 пар в коробе .";s:4:"dpic";s:14:"/31c/14298.jpg";s:11:"preview_pic";s:14:"/165/14298.jpg";s:4:"bxid";s:6:"201421";s:5:"alias";s:31:"sapogi-eva-pumka-zhenskie-utepl";s:7:"section";s:5:"11653";s:5:"title";s:0:"";s:11:"description";s:0:"";s:8:"keywords";s:0:"";s:5:"price";s:1:"0";s:9:"old-price";s:1:"0";}i:117;a:20:{s:2:"id";s:2:"90";s:3:"act";s:1:"N";s:9:"prod_type";s:0:"";s:4:"name";s:42:"Сапоги ЭВА SnowMan мужские";s:3:"art";s:13:"Сап000-333";s:4:"sort";s:3:"100";s:6:"search";s:626:"САПОГИ ЭВА SNOWMAN МУЖСКИЕ

САПОГИ ИЗ ЭВА «SNOWMAN» ПРЕДНАЗНАЧЕНЫ КАК ДЛЯ ПОВСЕДНЕВНОЙ НОСКИ, ТАК И ДЛЯ ИСПОЛЬЗОВАНИЯ НА ЗИМНЕЙ РЫБАЛКЕ И ОХОТЕ. САПОГИ ИЗ ЭВА «SNOWMAN» КОМПЛЕКТУЮТСЯ МНОГОСЛОЙНЫМ ФОЛЬГИРОВАННЫМ УТЕПЛЯЮЩИМ ВКЛАДЫШЕМ, КОТОРЫЙ СОХРАНЯЕТ ТЕПЛО ПРИ ТЕМПЕРАТУРЕ ВОЗДУХА ДО -50С. РАЗМЕРНЫЙ РЯД САПОГ ИЗ ЭВА «SNOWMAN» С 38 ПО 47: 38-39, 40-41, 42-43, 44-45, 46-47. .";s:6:"parent";s:1:"8";s:4:"durl";s:61:"obuv-rabochaya/obuv-iz-pvkh-i-eva/sapogi-eva-snowman-muzhskie";s:4:"dtxt";s:580:"Сапоги из ЭВА «Snowman» предназначены как для повседневной носки, так и для использования на зимней рыбалке и охоте. Сапоги из ЭВА «Snowman» комплектуются многослойным фольгированным утепляющим вкладышем, который сохраняет тепло при температуре воздуха до -50С. размерный ряд сапог из ЭВА «Snowman» с 38 по 47: 38-39, 40-41, 42-43, 44-45, 46-47. .";s:4:"dpic";s:14:"/4b2/14301.jpg";s:11:"preview_pic";s:14:"/648/14301.jpg";s:4:"bxid";s:6:"201422";s:5:"alias";s:27:"sapogi-eva-snowman-muzhskie";s:7:"section";s:5:"11653";s:5:"title";s:0:"";s:11:"description";s:0:"";s:8:"keywords";s:0:"";s:5:"price";s:1:"0";s:9:"old-price";s:1:"0";}i:118;a:20:{s:2:"id";s:2:"91";s:3:"act";s:1:"N";s:9:"prod_type";s:0:"";s:4:"name";s:63:"Сапоги ЭВА Айсберг мужские ЛЕС (t-25)";s:3:"art";s:9:"Сап019";s:4:"sort";s:3:"100";s:6:"search";s:523:"САПОГИ ЭВА АЙСБЕРГ МУЖСКИЕ ЛЕС (T-25)

САПОГИ С МНОГОСЛОЙНЫМ МЕХОВЫМ ВКЛАДЫШЕМ. ШИРОКОЕ УТЕПЛЕННОЕ ГОЛЕНИЩЕ ИЗ ВОДООТТАЛКИВАЮЩЕЙ ТКАНИ ОКСФОРД С ДВУМЯ ХЛЯСТИКАМИ НА ЛИПУЧКАХ. УТОЛЩЕННАЯ ПОДОШВА С ПРОТЕКТОРОМ. КОНТРАСТНАЯ ОТСТРОЧКА РАЗМЕРНЫЙ РЯД: 41-1П, 42-2П, 43-3П, 44-3П, 45-2П, 46-1П - ВСЕГО 12 ПАР .";s:6:"parent";s:1:"8";s:4:"durl";s:70:"obuv-rabochaya/obuv-iz-pvkh-i-eva/sapogi-eva-aysberg-muzhskie-les-t-25";s:4:"dtxt";s:456:"Сапоги с многослойным меховым вкладышем. Широкое утепленное голенище из водоотталкивающей ткани Оксфорд с двумя хлястиками на липучках. Утолщенная подошва с протектором. Контрастная отстрочка Размерный ряд: 41-1п, 42-2п, 43-3п, 44-3п, 45-2п, 46-1п - всего 12 пар .";s:4:"dpic";s:14:"/8ee/14228.jpg";s:11:"preview_pic";s:14:"/1d2/14228.jpg";s:4:"bxid";s:6:"201423";s:5:"alias";s:36:"sapogi-eva-aysberg-muzhskie-les-t-25";s:7:"section";s:5:"11653";s:5:"title";s:0:"";s:11:"description";s:0:"";s:8:"keywords";s:0:"";s:5:"price";s:1:"0";s:9:"old-price";s:1:"0";}i:119;a:20:{s:2:"id";s:2:"92";s:3:"act";s:1:"N";s:9:"prod_type";s:0:"";s:4:"name";s:52:"Сапоги ЭВА Ирбис мужские (t-20)";s:3:"art";s:9:"Сап020";s:4:"sort";s:3:"100";s:6:"search";s:423:"САПОГИ ЭВА ИРБИС МУЖСКИЕ (T-20)

УКОРОЧЕННЫЕ САПОГИ С ВКЛАДЫШЕМ-ФОЛЬГИРОВАННЫМ УТЕПЛИТЕЛЕМ ФЛЕКС. ШИРОКОЕ ГОЛЕНИЩЕ. МАНЖЕТА ИЗ ВОДООТТАЛКИВАЮЩЕЙ ТКАНИ ОКСФОРД НА КУЛИСКЕ СО ТОПОРОМ. РАЗМЕРНЫЙ РЯД: 41-42, 42-43, 43-44, 45-46 - ПО 4 ПАРЫ В КОРОБЕ. .";s:6:"parent";s:1:"8";s:4:"durl";s:64:"obuv-rabochaya/obuv-iz-pvkh-i-eva/sapogi-eva-irbis-muzhskie-t-20";s:4:"dtxt";s:367:"Укороченные сапоги с вкладышем-фольгированным утеплителем Флекс. Широкое голенище. Манжета из водоотталкивающей ткани Оксфорд на кулиске со топором. Размерный ряд: 41-42, 42-43, 43-44, 45-46 - по 4 пары в коробе. .";s:4:"dpic";s:14:"/88c/14360.jpg";s:11:"preview_pic";s:14:"/339/14360.jpg";s:4:"bxid";s:6:"201424";s:5:"alias";s:30:"sapogi-eva-irbis-muzhskie-t-20";s:7:"section";s:5:"11653";s:5:"title";s:0:"";s:11:"description";s:0:"";s:8:"keywords";s:0:"";s:5:"price";s:1:"0";s:9:"old-price";s:1:"0";}i:120;a:20:{s:2:"id";s:2:"93";s:3:"act";s:1:"N";s:9:"prod_type";s:0:"";s:4:"name";s:54:"Сапоги ЭВА Канада мужские (t-75)";s:3:"art";s:13:"Сап000-555";s:4:"sort";s:3:"100";s:6:"search";s:2989:"САПОГИ ЭВА КАНАДА МУЖСКИЕ (T-75)

САПОГИ ЭВА КАНАДА ПРОИЗВОДЯТСЯ В РОССИИ ДЛЯ ЭКСТРИМАЛЬНО -ХОЛОДНЫХ ТЕМПЕРАТУР. РАССЧИТАНЫ НА ЭКСПЛУАТАЦИЮ ДО - 75 ГРАДУСОВ. САПОГИ ЭВА КАНАДА ИЗГОТАВЛИВАЮТСЯ ТОЛЬКО ЧЕРНОГО ЦВЕТА. ЭТО НОВАЯ МОДЕЛЬ НА РОССИЙСКОМ РЫНКЕ ТЕПЛОЙ ОБУВИ ДЛЯ ОХОТНИКОВ И РЫБАКОВ. САПОГИ ЭВА КАНАДА ИМЕЮТ МНОГО ПРЕИМУЩЕСТВ ПО СРАВНЕНИЮ С ДРУГИМИ ЛЕГКИМИ САПОГАМИ. НАПРИМЕР, САМЫЕ ТОЛСТЫЕ СТЕНКИ САПОГА И ПОДОШВА. ХИМИЧЕСКИЙ СОСТАВ МАТЕРИАЛА САПОГ ЭВА УСОВЕРШЕНСТВОВАН И ИМЕЕТ БОЛЕЕ ПРОЧНУЮ СТРУКТУРУ. В РАЙОНЕ ПАЛЬЦЕВ ПЯТКИ И ПО ПЕРИМЕТРУ СТУПНИ САПОГИ КАНАДА ИМЕЮТ БОЛЕЕ ТОЛСТЫЙ СЛОЙ ЭВА ДЛЯ БОЛЬШЕЙ ЗАЩИТЫ НОГИ. СЛЕДОВАТЕЛЬНО, САПОГИ ЭВА КАНАДА РЕЖЕ ПРОКАЛЫВАЮТСЯ ЧЕМ ОСТАЛЬНАЯ ОБУВЬ ИЗ ТАКОГО МАТЕРИАЛА, УВЕЛИЧЕНА ИЗНОСОСТОЙКОСТЬ, ХОТЯ ВЕС САПОГ ТАКОЙ ЖЕ ЛЕГКИЙ. ДЛЯ УМЕНЬШЕНИЯ СКОЛЬЗКОСТИ САПОГ ПРЕДУСМОТРЕНЫ СПЕЦИАЛЬНЫЕ ПРОТЕКТОРЫ НА ПОДОШВЕ. А ВНУТРИ САПОГА ЕСТЬ СПЕЦИАЛЬНЫЕ ЯЧЕЙКИ ДЛЯ ОТВОДА ВЛАГИ И ДЛЯ ТОГО ЧТОБ НОГА ВНУТРИ САПОГА НЕ ЕЗДИЛА. СВЕРХУ САПОГА КАНАДА, КАК И У ДРУГИХ САПОГ ЭВА, ПРЕДУСМОТРЕНА СПЕЦИАЛЬНАЯ МАНЖЕТА ДЛЯ ЗАЩИТЫ ОТ ПОПАДАНИЯ СНЕГА И ГРЯЗИ. ШНУРОК С ФИКСАТОРОМ ПОЗВОЛЯЕТ ЗАТЯГИВАТЬ МАНЖЕТУ ДО УПОРА. ТОЛСТЫЙ ВОСЬМИСЛОЙНЫЙ УТЕПЛИТЕЛЬ ПОЛНОСТЬЮ ЗАКРЫВАЕТ НОГУ И ПРИЖИМАЕТСЯ ЛИПУЧКАМИ. ОСНОВНЫЕ СЛОИ УТЕПЛИТЕЛЯ САПОГ ЭВА КАНАДА: ВНЕШНЯЯ СЕТЧАТАЯ ПОВЕРХНОСТЬ ДЛЯ ЗАЩИТЫ ФОЛЬГИРОВАННОГО СЛОЯ; ФОЛЬГИРОВАННЫЙ СЛОЙ ДЛЯ ОТРАЖЕНИЯ ХОЛОДА И СОХРАНЕНИЯ ТЕПЛА В САПОГЕ; НЕСКОЛЬКО ВНУТРЕННИХ СЛОЕВ ИЗ ПОЛИЭФИРНОГО И НАТУРАЛЬНЫХ МАТЕРИАЛОВ;, СО СТОРОНЫ НОГИ СЛОЙ ИЗ РЕГЕНЕРИРОВАННОГО МЕХА. УТЕПЛЯЮЩИЙ САПОЖОК МОЖНО ВЫНИМАТЬ ИЗ САПОГ ДЛЯ СУШКИ ИЛИ ЗАМЕНЫ. РАЗМЕРНЫЙ РЯД САПОГ ЭВА КАНАДА : 40-41, 42-43, 44-45, 46-47.";s:6:"parent";s:1:"8";s:4:"durl";s:65:"obuv-rabochaya/obuv-iz-pvkh-i-eva/sapogi-eva-kanada-muzhskie-t-75";s:4:"dtxt";s:2931:"Сапоги ЭВА Канада производятся в России для экстримально -холодных температур. Рассчитаны на эксплуатацию до - 75 градусов. Сапоги ЭВА Канада изготавливаются только черного цвета. Это новая модель на Российском рынке теплой обуви для охотников и рыбаков. Сапоги ЭВА Канада имеют много преимуществ по сравнению с другими легкими сапогами. Например, самые толстые стенки сапога и подошва. Химический состав материала сапог ЭВА усовершенствован и имеет более прочную структуру. В районе пальцев пятки и по периметру ступни сапоги Канада имеют более толстый слой ЭВА для большей защиты ноги. Следовательно, сапоги ЭВА Канада реже прокалываются чем остальная обувь из такого материала, увеличена износостойкость, хотя вес сапог такой же легкий. Для уменьшения скользкости сапог предусмотрены специальные протекторы на подошве. А внутри сапога есть специальные ячейки для отвода влаги и для того чтоб нога внутри сапога не ездила. Сверху сапога Канада, как и у других сапог ЭВА, предусмотрена специальная манжета для защиты от попадания снега и грязи. Шнурок с фиксатором позволяет затягивать манжету до упора. Толстый восьмислойный утеплитель полностью закрывает ногу и прижимается липучками. Основные слои утеплителя сапог ЭВА КАНАДА: внешняя сетчатая поверхность для защиты фольгированного слоя; фольгированный слой для отражения холода и сохранения тепла в сапоге; несколько внутренних слоев из полиэфирного и натуральных материалов;, со стороны ноги слой из регенерированного меха. Утепляющий сапожок можно вынимать из сапог для сушки или замены. Размерный ряд сапог ЭВА Канада : 40-41, 42-43, 44-45, 46-47.";s:4:"dpic";s:14:"/d30/15702.jpg";s:11:"preview_pic";s:14:"/0ae/15702.jpg";s:4:"bxid";s:6:"201425";s:5:"alias";s:31:"sapogi-eva-kanada-muzhskie-t-75";s:7:"section";s:5:"11653";s:5:"title";s:0:"";s:11:"description";s:0:"";s:8:"keywords";s:0:"";s:5:"price";s:1:"0";s:9:"old-price";s:1:"0";}i:121;a:20:{s:2:"id";s:2:"94";s:3:"act";s:1:"N";s:9:"prod_type";s:0:"";s:4:"name";s:65:"Сапоги ЭВА Милитари мужские КМФ (t-25)";s:3:"art";s:9:"Сап016";s:4:"sort";s:3:"100";s:6:"search";s:596:"САПОГИ ЭВА МИЛИТАРИ МУЖСКИЕ КМФ (T-25)

МАТЕРИАЛ САПОГА: ГАЛОША ЭВА, ВЕРХ УТЕПЛЕННЫЙ ОКСФОРД. САПОГИ С МНОГОСЛОЙНЫМ МЕХОВЫМ ВКЛАДЫШЕМ. ШИРОКОЕ УТЕПЛЕННОЕ ГОЛЕНИЩЕ ИЗ ВОДООТТАЛКИВАЮЩЕЙ ТКАНИ ОКСФОРД НА ШНУРОВКЕ. УДОБНЫЙ КАРМАН НА ГОЛЕНИЩЕ. УТОЛЩЕННАЯ ПОДОШВА С ПРОТЕКТОРОМ РАЗМЕРНЫЙ РЯД: 41-1П, 42-2П, 43-3П, 44-3П, 45-2П, 46-1П - ВСЕГО 12 ПАР .";s:6:"parent";s:1:"8";s:4:"durl";s:71:"obuv-rabochaya/obuv-iz-pvkh-i-eva/sapogi-eva-militari-muzhskie-kmf-t-25";s:4:"dtxt";s:527:"Материал сапога: галоша ЭВА, верх утепленный оксфорд. Сапоги с многослойным меховым вкладышем. Широкое утепленное голенище из водоотталкивающей ткани Оксфорд на шнуровке. Удобный карман на голенище. Утолщенная подошва с протектором Размерный ряд: 41-1п, 42-2п, 43-3п, 44-3п, 45-2п, 46-1п - всего 12 пар .";s:4:"dpic";s:14:"/cf6/14168.jpg";s:11:"preview_pic";s:14:"/d7c/14168.jpg";s:4:"bxid";s:6:"201426";s:5:"alias";s:37:"sapogi-eva-militari-muzhskie-kmf-t-25";s:7:"section";s:5:"11653";s:5:"title";s:0:"";s:11:"description";s:0:"";s:8:"keywords";s:0:"";s:5:"price";s:1:"0";s:9:"old-price";s:1:"0";}i:122;a:20:{s:2:"id";s:2:"95";s:3:"act";s:1:"N";s:9:"prod_type";s:0:"";s:4:"name";s:71:"Сапоги ЭВА Милитари мужские черные (t-25)";s:3:"art";s:9:"Сап024";s:4:"sort";s:3:"100";s:6:"search";s:1499:"САПОГИ ЭВА МИЛИТАРИ МУЖСКИЕ ЧЕРНЫЕ (T-25)

ОБУВЬ EVA ДЛЯ МУЖЧИН ОБЕСПЕЧИВАЕТ НОГАМ ТЕПЛО, СУХОСТЬ И КОМФОРТ, ОТЛИЧАЕТСЯ ПОВЫШЕННОЙ ПРОЧНОСТЬЮ И ОТЛИЧНО ВЫГЛЯДИТ. ПОМИМО ВОДОНЕПРОНИЦАЕМОСТИ И ЭФФЕКТИВНОЙ ЗАЩИТЫ ОТ ХОЛОДА, МОДЕЛИ ЭТОЙ СЕРИИ ИМЕЮТ НЕБОЛЬШОЙ ВЕС И ОТЛИЧАЮТСЯ РАЗНООБРАЗИЕМ ВАРИАНТОВ ИСПОЛНЕНИЯ, А ЗНАЧИТ, ПОДХОДЯТ КО ВСЕМ СЛУЧАЯМ ЖИЗНИ. ПРИ ТЕМПЕРАТУРЕ ИСПОЛЬЗОВАНИЯ ДО -30°С ПРИ АКТИВНОМ ИСПОЛЬЗОВАНИИ САПОГИ EVA ОБЕСПЕЧИВАЮТ ВЫСОКИЙ УРОВЕНЬ ТЕПЛА И КОМФОРТА, ХАРАКТЕРНЫЙ ДЛЯ ВСЕЙ ОБУВИ КОМПАНИИ EVA - SHOES. ОБУВЬ EVA ПРЕДНАЗНАЧЕНА ДЛЯ СЫРОЙ ХОЛОДНОЙ ПОГОДЫ И МОЖЕТ ИСПОЛЬЗОВАТЬСЯ КАК В ЗИМНЕЕ ВРЕМЯ, ТАК И В ВЕСЕННЕ - ОСЕННИЙ ПЕРИОД. - САПОГИ СО СЪЕМНЫМ МЕХОВЫМ ВКЛАДЫШЕМ - ШИРОКОЕ УТЕПЛЕННОЕ ГОЛЕНИЩЕ ИЗ ВОДООТТАЛКИВАЮЩЕЙ ТКАНИ ОКСФОРД НА ШНУРОВКЕ - УДОБНЫЙ КАРМАН НА ГОЛЕНИЩЕ - УТОЛЩЕННАЯ ПОДОШВА С ПРОТЕКТОРАМИ";s:6:"parent";s:1:"8";s:4:"durl";s:75:"obuv-rabochaya/obuv-iz-pvkh-i-eva/sapogi-eva-militari-muzhskie-chernye-t-25";s:4:"dtxt";s:1424:"Обувь EVA для мужчин обеспечивает ногам тепло, сухость и комфорт, отличается повышенной прочностью и отлично выглядит. Помимо водонепроницаемости и эффективной защиты от холода, модели этой серии имеют небольшой вес и отличаются разнообразием вариантов исполнения, а значит, подходят ко всем случаям жизни. При температуре использования до -30°С при активном использовании сапоги EVA обеспечивают высокий уровень тепла и комфорта, характерный для всей обуви компании EVA - SHOES. Обувь EVA предназначена для сырой холодной погоды и может использоваться как в зимнее время, так и в весенне - осенний период. - Сапоги со съемным меховым вкладышем - Широкое утепленное голенище из водоотталкивающей ткани Оксфорд на шнуровке - Удобный карман на голенище - Утолщенная подошва с протекторами";s:4:"dpic";s:14:"/c38/14497.jpg";s:11:"preview_pic";s:14:"/c26/14497.jpg";s:4:"bxid";s:6:"201427";s:5:"alias";s:41:"sapogi-eva-militari-muzhskie-chernye-t-25";s:7:"section";s:5:"11653";s:5:"title";s:0:"";s:11:"description";s:0:"";s:8:"keywords";s:0:"";s:5:"price";s:1:"0";s:9:"old-price";s:1:"0";}i:123;a:20:{s:2:"id";s:2:"96";s:3:"act";s:1:"N";s:9:"prod_type";s:0:"";s:4:"name";s:62:"Сапоги ЭВА Сапсан (манжет) мужские";s:3:"art";s:9:"Сап017";s:4:"sort";s:3:"100";s:6:"search";s:428:"САПОГИ ЭВА САПСАН (МАНЖЕТ) МУЖСКИЕ

САМЫЕ ЛЕГКИЕ ВЫСОКИЕ САПОГИ С ОБЛЕГЧЕННЫМ ВКЛАДЫШЕМ-УТЕПЛИТЕЛЕМ СОФТ. ИДЕАЛЬНЫ ДЛЯ ВЕСНЫ-ОСЕНИ. МАНЖЕТА ИЗ ВОДООТТАЛКИВАЮЩЕЙ ТКАНИ ОКСФОРД НА КУЛИСКЕ. РАЗМЕРНЫЙ РЯД: 41, 42, 43, 44, 45, 46 - ПО 6 ПАР В КОРОБЕ .";s:6:"parent";s:1:"8";s:4:"durl";s:68:"obuv-rabochaya/obuv-iz-pvkh-i-eva/sapogi-eva-sapsan-manzhet-muzhskie";s:4:"dtxt";s:362:"Самые легкие высокие сапоги с облегченным вкладышем-утеплителем Софт. Идеальны для весны-осени. Манжета из водоотталкивающей ткани Оксфорд на кулиске. Размерный ряд: 41, 42, 43, 44, 45, 46 - по 6 пар в коробе .";s:4:"dpic";s:14:"/c62/14173.jpg";s:11:"preview_pic";s:14:"/70b/14173.jpg";s:4:"bxid";s:6:"201428";s:5:"alias";s:34:"sapogi-eva-sapsan-manzhet-muzhskie";s:7:"section";s:5:"11653";s:5:"title";s:0:"";s:11:"description";s:0:"";s:8:"keywords";s:0:"";s:5:"price";s:1:"0";s:9:"old-price";s:1:"0";}i:124;a:20:{s:2:"id";s:2:"97";s:3:"act";s:1:"N";s:9:"prod_type";s:0:"";s:4:"name";s:74:"Сапоги ЭВА Сапсан (манжет) утепл. мужские";s:3:"art";s:13:"Сап017УМ";s:4:"sort";s:3:"100";s:6:"search";s:989:"САПОГИ ЭВА САПСАН (МАНЖЕТ) УТЕПЛ. МУЖСКИЕ

ПОЛНОЦЕННЫЕ ЛЕГКИЕ ДЕМИСЕЗОННЫЕ САПОГИ ИЗ ЭВА - САПСАН СОГРЕЮТ ОБЛАДАТЕЛЕЙ ЭТОЙ МОДЕЛИ ПРИ T* ВОЗДУХА ДО - 20*С. ФОЛЬГИРОВАННЫЙ ВКЛАДЫШ УТЕПЛИТЕЛЬ ОТРАЖАЕТ ТЕПЛО ВНУТРЬ САПОГА, А ПРОХЛАДА ОСТАЕТСЯ ВОВНЕ. МАНЖЕТА ИЗ ВОДОНЕПРОМОКАЕМОЙ ТКАНИ OXFORD С КУЛИСКОЙ И ФИКСАТОРОМ, ПРЕДОТВРАЩАЕТ ПОПАДАНИЕ ОСАДКОВ В САПОГИ ЧЕМ ОСОБЕННЫ ЭТИ САПОГИ: - ВЫСОТА - 42 СМ - УПЛОТНЕННАЯ ПЯТОЧНАЯ ЧАСТЬ - 4,5-5 СМ - ГЛУБОКИЙ ПРОТЕКТОР ОБЕСПЕЧИВАЕТ СЦЕПЛЕНИЕ НА СКОЛЬЗКОЙ ПОВЕРХНОСТИ РАЗМЕРНЫЙ РЯД: 41, 42, 43, 44, 45, 46 - ПО 6 ПАР В КОРОБЕ.";s:6:"parent";s:1:"8";s:4:"durl";s:74:"obuv-rabochaya/obuv-iz-pvkh-i-eva/sapogi-eva-sapsan-manzhet-utepl-muzhskie";s:4:"dtxt";s:911:"Полноценные легкие демисезонные сапоги из ЭВА - Сапсан согреют обладателей этой модели при t* воздуха до - 20*С. Фольгированный вкладыш утеплитель отражает тепло внутрь сапога, а прохлада остается вовне. Манжета из водонепромокаемой ткани Oxford с кулиской и фиксатором, предотвращает попадание осадков в сапоги Чем особенны эти сапоги: - Высота - 42 см - Уплотненная пяточная часть - 4,5-5 см - Глубокий протектор обеспечивает сцепление на скользкой поверхности Размерный ряд: 41, 42, 43, 44, 45, 46 - по 6 пар в коробе.";s:4:"dpic";s:14:"/aee/15451.jpg";s:11:"preview_pic";s:14:"/76b/15451.jpg";s:4:"bxid";s:6:"201429";s:5:"alias";s:40:"sapogi-eva-sapsan-manzhet-utepl-muzhskie";s:7:"section";s:5:"11653";s:5:"title";s:0:"";s:11:"description";s:0:"";s:8:"keywords";s:0:"";s:5:"price";s:1:"0";s:9:"old-price";s:1:"0";}i:125;a:20:{s:2:"id";s:2:"98";s:3:"act";s:1:"N";s:9:"prod_type";s:0:"";s:4:"name";s:47:"Сапоги ЭВА Сапсан мужские";s:3:"art";s:9:"Сап023";s:4:"sort";s:3:"100";s:6:"search";s:413:"САПОГИ ЭВА САПСАН МУЖСКИЕ

САМЫЕ ЛЕГКИЕ ВЫСОКИЕ САПОГИ С ОБЛЕГЧЕННЫМ ВКЛАДЫШЕМ-УТЕПЛИТЕЛЕМ СОФТ. ИДЕАЛЬНЫ ДЛЯ ВЕСНЫ-ОСЕНИ. МАНЖЕТА ИЗ ВОДООТТАЛКИВАЮЩЕЙ ТКАНИ ОКСФОРД НА КУЛИСКЕ. РАЗМЕРНЫЙ РЯД: 41, 42, 43, 44, 45, 46 - ПО 6 ПАР В КОРОБЕ .";s:6:"parent";s:1:"8";s:4:"durl";s:60:"obuv-rabochaya/obuv-iz-pvkh-i-eva/sapogi-eva-sapsan-muzhskie";s:4:"dtxt";s:362:"Самые легкие высокие сапоги с облегченным вкладышем-утеплителем Софт. Идеальны для весны-осени. Манжета из водоотталкивающей ткани Оксфорд на кулиске. Размерный ряд: 41, 42, 43, 44, 45, 46 - по 6 пар в коробе .";s:4:"dpic";s:14:"/33b/14454.jpg";s:11:"preview_pic";s:14:"/7a9/14454.jpg";s:4:"bxid";s:6:"201430";s:5:"alias";s:26:"sapogi-eva-sapsan-muzhskie";s:7:"section";s:5:"11653";s:5:"title";s:0:"";s:11:"description";s:0:"";s:8:"keywords";s:0:"";s:5:"price";s:1:"0";s:9:"old-price";s:1:"0";}i:126;a:20:{s:2:"id";s:2:"99";s:3:"act";s:1:"Y";s:9:"prod_type";s:0:"";s:4:"name";s:45:"Сапоги ЭВА Север женские";s:3:"art";s:9:"Сап031";s:4:"sort";s:3:"100";s:6:"search";s:660:"САПОГИ ЭВА СЕВЕР ЖЕНСКИЕ

САПОГИ ИЗ ЭВА СЕВЕР ИЗГОТОВЛЕНЫ МЕТОДОМ ЛИТЬЯ ПОД ДАВЛЕНИЕМ.ОБЛАДАЮТ ВЫСОКИМИ ТЕПЛОИЗОЛИРУЮЩИМИ СВОЙСТВАМИ,СОХРАНЯЮТ ТЕПЛО ДО -30С,АБСОЛЮТНО ВОДОНЕПРОНИЦАЕМЫ.МАЛЫЙ ВЕС САПОГ ЭКОНОМИТ СИЛЫ ПРИ ХОДЬБЕ.ПОДОШВА С ЯРКО ВЫРАЖЕННЫМ ПРОТЕКТОРОМ ОЧЕНЬ УСТОЙЧИВА И ПРЕВОСХОДНО ЗАЩИЩАЕТ ОТ СКОЛЬЖЕНИЯ.УПАКОВЫВАЕТСЯ В ИНДИВИДУАЛЬНЫЙ КОРОБ. .";s:6:"parent";s:1:"8";s:4:"durl";s:59:"obuv-rabochaya/obuv-iz-pvkh-i-eva/sapogi-eva-sever-zhenskie";s:4:"dtxt";s:611:"Сапоги из ЭВА Север изготовлены методом литья под давлением.Обладают высокими теплоизолирующими свойствами,сохраняют тепло до -30С,абсолютно водонепроницаемы.Малый вес сапог экономит силы при ходьбе.Подошва с ярко выраженным протектором очень устойчива и превосходно защищает от скольжения.Упаковывается в индивидуальный короб. .";s:4:"dpic";s:14:"/b32/15631.jpg";s:11:"preview_pic";s:14:"/00c/15631.jpg";s:4:"bxid";s:6:"201431";s:5:"alias";s:25:"sapogi-eva-sever-zhenskie";s:7:"section";s:5:"11653";s:5:"title";s:0:"";s:11:"description";s:0:"";s:8:"keywords";s:0:"";s:5:"price";s:1:"0";s:9:"old-price";s:1:"0";}i:127;a:20:{s:2:"id";s:3:"100";s:3:"act";s:1:"Y";s:9:"prod_type";s:0:"";s:4:"name";s:54:"Сапоги ЭВА Север мужские р.43-44";s:3:"art";s:9:"Сап032";s:4:"sort";s:3:"100";s:6:"search";s:675:"САПОГИ ЭВА СЕВЕР МУЖСКИЕ Р.43-44

САПОГИ ИЗ ЭВА СЕВЕР ИЗГОТОВЛЕНЫ МЕТОДОМ ЛИТЬЯ ПОД ДАВЛЕНИЕМ. ОБЛАДАЮТ ВЫСОКИМИ ТЕПЛОИЗОЛИРУЮЩИМИ СВОЙСТВАМИ, СОХРАНЯЮТ ТЕПЛО ДО -30С, АБСОЛЮТНО ВОДОНЕПРОНИЦАЕМЫ. МАЛЫЙ ВЕС САПОГ ЭКОНОМИТ СИЛЫ ПРИ ХОДЬБЕ. ПОДОШВА С ЯРКО ВЫРАЖЕННЫМ ПРОТЕКТОРОМ ОЧЕНЬ УСТОЙЧИВА И ПРЕВОСХОДНО ЗАЩИЩАЕТ ОТ СКОЛЬЖЕНИЯ. УПАКОВЫВАЕТСЯ В ИНДИВИДУАЛЬНЫЙ КОРОБ. .";s:6:"parent";s:1:"8";s:4:"durl";s:67:"obuv-rabochaya/obuv-iz-pvkh-i-eva/sapogi-eva-sever-muzhskie-r-43-44";s:4:"dtxt";s:617:"Сапоги из ЭВА Север изготовлены методом литья под давлением. Обладают высокими теплоизолирующими свойствами, сохраняют тепло до -30С, абсолютно водонепроницаемы. Малый вес сапог экономит силы при ходьбе. Подошва с ярко выраженным протектором очень устойчива и превосходно защищает от скольжения. Упаковывается в индивидуальный короб. .";s:4:"dpic";s:14:"/6cb/16269.jpg";s:11:"preview_pic";s:14:"/a98/16269.jpg";s:4:"bxid";s:6:"201432";s:5:"alias";s:33:"sapogi-eva-sever-muzhskie-r-43-44";s:7:"section";s:5:"11653";s:5:"title";s:0:"";s:11:"description";s:0:"";s:8:"keywords";s:0:"";s:5:"price";s:1:"0";s:9:"old-price";s:1:"0";}i:128;a:20:{s:2:"id";s:3:"101";s:3:"act";s:1:"N";s:9:"prod_type";s:0:"";s:4:"name";s:89:"Сапоги ЭВА демисезонные манжет-резинка цв.корич.";s:3:"art";s:9:"Сап293";s:4:"sort";s:3:"100";s:6:"search";s:829:"САПОГИ ЭВА ДЕМИСЕЗОННЫЕ МАНЖЕТ-РЕЗИНКА ЦВ.КОРИЧ.

САПОГИ ВЫПОЛНЕНЫ ИЗ МАТЕРИАЛА ЭВА ОСОБОЙ РЕЦЕПТУРЫ, КОТОРАЯ БОЛЕЕ УСТОЙЧИВА К ПРОКОЛАМ И ИЗНОСУ. ВЕС ПАРЫ ОКОЛО 700 ГР. САПОГИ ЯВЛЯЮТСЯ ПОЛНЫМ АНАЛОГОМ ОБУВИ ИЗ ПВХ, ОБЛАДАЯ ПРИ ЭТОМ ВСЕМИ ДОСТОИНСТВАМИ МАТЕРИАЛА ЭВА. В НИХ БУДЕТ УДОБНО КАК В МЕЖСЕЗОНЬЕ, ПРИ ТЕМПЕРАТУРЕ ОТ -10 ДО +10, ТАК И В ЛЕТНИЕ МЕСЯЦЫ: ВОЗМОЖНА НОСКА ПРИ ТЕМПЕРАТУРЕ ДО +30! РАЗМЕРНЫЙ РЯД: 41, 42, 43, 44 - ПО 6 ПАР В КОРОБКЕ 45, 46 - ПО 5 ПАР В КОРОБКЕ .";s:6:"parent";s:1:"8";s:4:"durl";s:84:"obuv-rabochaya/obuv-iz-pvkh-i-eva/sapogi-eva-demisezonnye-manzhet-rezinka-tsv-korich";s:4:"dtxt";s:744:"Сапоги выполнены из материала ЭВА особой рецептуры, которая более устойчива к проколам и износу. Вес пары около 700 гр. Сапоги являются полным аналогом обуви из ПВХ, обладая при этом всеми достоинствами материала ЭВА. В них будет удобно как в межсезонье, при температуре от -10 до &#43;10, так и в летние месяцы: возможна носка при температуре до &#43;30! Размерный ряд: 41, 42, 43, 44 - по 6 пар в коробке 45, 46 - по 5 пар в коробке .";s:4:"dpic";s:14:"/132/14742.jpg";s:11:"preview_pic";s:14:"/bff/14742.jpg";s:4:"bxid";s:6:"201433";s:5:"alias";s:50:"sapogi-eva-demisezonnye-manzhet-rezinka-tsv-korich";s:7:"section";s:5:"11653";s:5:"title";s:0:"";s:11:"description";s:0:"";s:8:"keywords";s:0:"";s:5:"price";s:1:"0";s:9:"old-price";s:1:"0";}i:129;a:20:{s:2:"id";s:3:"102";s:3:"act";s:1:"N";s:9:"prod_type";s:0:"";s:4:"name";s:78:"Сапоги ЭВА демисезонные не утепл. цв.корич.";s:3:"art";s:9:"Сап292";s:4:"sort";s:3:"100";s:6:"search";s:767:"САПОГИ ЭВА ДЕМИСЕЗОННЫЕ НЕ УТЕПЛ. ЦВ.КОРИЧ.

САПОГИ ВЫПОЛНЕНЫ ИЗ 111 Ы, КОТОРАЯ БОЛЕЕ УСТОЙЧИВА К ПРОКОЛАМ И ИЗНОСУ. ВЕС ПАРЫ ОКОЛО 700 ГР. САПОГИ ЯВЛЯЮТСЯ ПОЛНЫМ АНАЛОГОМ ОБУВИ ИЗ ПВХ, ОБЛАДАЯ ПРИ ЭТОМ ВСЕМИ ДОСТОИНСТВАМИ МАТЕРИАЛА ЭВА. В НИХ БУДЕТ УДОБНО КАК В МЕЖСЕЗОНЬЕ, ПРИ ТЕМПЕРАТУРЕ ОТ -10 ДО +10, ТАК И В ЛЕТНИЕ МЕСЯЦЫ: ВОЗМОЖНА НОСКА ПРИ ТЕМПЕРАТУРЕ ДО +30! РАЗМЕРНЫЙ РЯД: 41, 42, 43, 44 - ПО 6 ПАР В КОРОБКЕ 45, 46 - ПО 5 ПАР В КОРОБКЕ .";s:6:"parent";s:1:"8";s:4:"durl";s:77:"obuv-rabochaya/obuv-iz-pvkh-i-eva/sapogi-eva-demisezonnye-ne-utepl-tsv-korich";s:4:"dtxt";s:693:"Сапоги выполнены из 111 ы, которая более устойчива к проколам и износу. Вес пары около 700 гр. Сапоги являются полным аналогом обуви из ПВХ, обладая при этом всеми достоинствами материала ЭВА. В них будет удобно как в межсезонье, при температуре от -10 до &#43;10, так и в летние месяцы: возможна носка при температуре до &#43;30! Размерный ряд: 41, 42, 43, 44 - по 6 пар в коробке 45, 46 - по 5 пар в коробке .";s:4:"dpic";s:14:"/0f9/14910.jpg";s:11:"preview_pic";s:14:"/e01/14910.jpg";s:4:"bxid";s:6:"201434";s:5:"alias";s:43:"sapogi-eva-demisezonnye-ne-utepl-tsv-korich";s:7:"section";s:5:"11653";s:5:"title";s:0:"";s:11:"description";s:0:"";s:8:"keywords";s:0:"";s:5:"price";s:1:"0";s:9:"old-price";s:1:"0";}i:130;a:20:{s:2:"id";s:3:"103";s:3:"act";s:1:"N";s:9:"prod_type";s:0:"";s:4:"name";s:48:"Сапоги ЭВА мужские  Аркуда";s:3:"art";s:9:"Сап022";s:4:"sort";s:3:"100";s:6:"search";s:568:"САПОГИ ЭВА МУЖСКИЕ  АРКУДА

САПОГИ ДЛЯ РЫБОЛОВОВ. ШЕСТИСЛОЙНЫЙ ВКЛАДЫШЕ-УТЕПЛИТЕЛЬ С НАТУРАЛЬНЫМ МЕХОМ. ШИРОКОЕ ГОЛЕНИЩЕ. УСИЛЕННЫЙ НОСОК. МАНЖЕТА ИЗ ВОДООТТАЛКИВАЮЩЕЙ ТКАНИ ОКСФОРД НА КУЛИСКЕ УТОЛЩЕННАЯ ПОДОШВА С ГЛУБОКИМ ПРОТЕКТОРОМ ПРОТИВ СКОЛЬЖЕНИЯ. РАЗМЕРНЫЙ РЯД: 41, 42, 43, 44, 45, 46 - ПО 3 ПАРЫ В КОРОБЕ T ДО -75С";s:6:"parent";s:1:"8";s:4:"durl";s:60:"obuv-rabochaya/obuv-iz-pvkh-i-eva/sapogi-eva-muzhskie-arkuda";s:4:"dtxt";s:516:"Сапоги для рыболовов. Шестислойный вкладыше-утеплитель с натуральным мехом. Широкое голенище. Усиленный носок. Манжета из водоотталкивающей ткани Оксфорд на кулиске Утолщенная подошва с глубоким протектором против скольжения. Размерный ряд: 41, 42, 43, 44, 45, 46 - по 3 пары в коробе t до -75С";s:4:"dpic";s:14:"/87c/14442.jpg";s:11:"preview_pic";s:14:"/54f/14442.jpg";s:4:"bxid";s:6:"201435";s:5:"alias";s:26:"sapogi-eva-muzhskie-arkuda";s:7:"section";s:5:"11653";s:5:"title";s:0:"";s:11:"description";s:0:"";s:8:"keywords";s:0:"";s:5:"price";s:1:"0";s:9:"old-price";s:1:"0";}i:131;a:20:{s:2:"id";s:3:"104";s:3:"act";s:1:"N";s:9:"prod_type";s:0:"";s:4:"name";s:34:"Сапоги мужские ПЕ-5";s:3:"art";s:5:"ПЕ5";s:4:"sort";s:3:"100";s:6:"search";s:1104:"САПОГИ МУЖСКИЕ ПЕ-5

МОДЕЛЬ ВЫСОКИХ МУЖСКИХ САПОГ ИЗ МАТЕРИАЛА ЭВА СОЗДАНА В ЛУЧШИХ ЕВРОПЕЙСКИХ ТРАДИЦИЯХ С АДАПТАЦИЕЙ НА РОССИЙСКОГО ПОТРЕБИТЕЛЯ И ОБЛАДАЕТ ВСЕМИ УНИКАЛЬНЫМИ ОСОБЕННОСТЯМИ, ПРИСУЩИМИ ОБУВИ ИЗ ЭВА: 1) ЧРЕЗВЫЧАЙНАЯ ЛЕГКОСТЬ (МАТЕРИАЛ ЭВА В 4 РАЗА ЛЕГЧЕ АНАЛОГА ИЗ ПВХ); 2) ВЫСОКАЯ МОРОЗОУСТОЙЧИВОСТЬ (МАТЕРИАЛ ОСТАЕТСЯ ЭЛАСТИЧНЫМ ПРИ -30С.); 3) НУЛЕВАЯ ТЕПЛОПРОВОДНОСТЬ (МАТЕРИАЛ ОБЛАДАЕТ НИЗКОЙ СТЕПЕНЬЮ ТЕПЛООТДАЧИ); 4) ПОЛНАЯ ВОДОНЕПРОНИЦАЕМОСТЬ; 5) АМОРТИЗИРУЮЩИЕ СВОЙСТВА; 6) БЕЗОПАСНОСТЬ ДЛЯ ЗДОРОВЬЯ СРЕДНЯЯ ВЫСОТА: 38 СМ ЦВЕТОВЫЕ ПРЕДЛОЖЕНИЯ (ОДНОТОННЫЕ): ОЛИВКОВЫЙ РАЗМЕРНЫЙ РЯД: 41/42-47/48";s:6:"parent";s:1:"8";s:4:"durl";s:54:"obuv-rabochaya/obuv-iz-pvkh-i-eva/sapogi-muzhskie-pe-5";s:4:"dtxt";s:1122:"Модель высоких мужских сапог из материала ЭВА создана в лучших европейских традициях с адаптацией на российского потребителя и обладает всеми уникальными особенностями, присущими обуви из ЭВА: 1&#41; чрезвычайная легкость &#40;материал ЭВА в 4 раза легче аналога из ПВХ&#41;; 2&#41; высокая морозоустойчивость &#40;материал остается эластичным при -30С.&#41;; 3&#41; нулевая теплопроводность &#40;материал обладает низкой степенью теплоотдачи&#41;; 4&#41; полная водонепроницаемость; 5&#41; амортизирующие свойства; 6&#41; Безопасность для здоровья Средняя высота: 38 см Цветовые предложения &#40;однотонные&#41;: оливковый Размерный ряд: 41/42-47/48";s:4:"dpic";N;s:11:"preview_pic";N;s:4:"bxid";s:6:"201436";s:5:"alias";s:20:"sapogi-muzhskie-pe-5";s:7:"section";s:5:"11653";s:5:"title";s:0:"";s:11:"description";s:0:"";s:8:"keywords";s:0:"";s:5:"price";s:1:"0";s:9:"old-price";s:1:"0";}i:132;a:20:{s:2:"id";s:3:"105";s:3:"act";s:1:"N";s:9:"prod_type";s:0:"";s:4:"name";s:58:"Сапоги ПЕ15 УММ из ЭВА с манжетом";s:3:"art";s:13:"ПЕ15_УММ";s:4:"sort";s:3:"100";s:6:"search";s:895:"САПОГИ ПЕ15 УММ ИЗ ЭВА С МАНЖЕТОМ

МОДЕЛЬ УСТОЙЧИВА ДЛЯ МОРОЗОВ ДО -45С°, СОСТОИТ ИЗ УТЕПЛЯЮЩЕГО МНОГОСЛОЙНОГО ВКЛАДЫША И МАНЖЕТЫ КОТОРАЯ ОТТАЛКИВАЕТ ВОДУ. РАЗРАБОТАНЫ ПО ЖЕЛАНИЮ ОХОТНИКОВ И РЫБОЛОВОВ. ВНУТРЕННИЙ СЛОЙ ВКЛАДЫША-НАТУРАЛЬНЫЙ МЕХ, КОТОРЫЙ СОХРАНЯЕТ ТЕПЛО. ВНЕШНИЙ СЛОЙ СОСТОИТ ИЗ ФОЛЬГИРОВАННОГО ПОЛОТНА С НАТУРАЛЬНЫМИ ВОЛОКНАМИ ЛЬНА И ШЕРСТИ, ПОДДЕРЖИВАЕТ ТЕМПЕРАТУРУ ТЕЛА И ОТРАЖАЕТ ХОЛОД. ТОЛЩИНА ВКЛАДЫША 10 ММ. РАЗМЕРЫ: С 41/42 ПО 47/48. КАЖДАЯ ПАРА В ИНДИВИДУАЛЬНОЙ УПАКОВКЕ. .";s:6:"parent";s:1:"8";s:4:"durl";s:68:"obuv-rabochaya/obuv-iz-pvkh-i-eva/sapogi-pe15-umm-iz-eva-s-manzhetom";s:4:"dtxt";s:833:"Модель устойчива для морозов до -45С°, состоит из утепляющего многослойного вкладыша и манжеты которая отталкивает воду. Разработаны по желанию охотников и рыболовов. Внутренний слой вкладыша-натуральный мех, который сохраняет тепло. Внешний слой состоит из фольгированного полотна с натуральными волокнами льна и шерсти, поддерживает температуру тела и отражает холод. Толщина вкладыша 10 мм. Размеры: с 41/42 по 47/48. Каждая пара в индивидуальной упаковке. .";s:4:"dpic";s:14:"/ddb/11439.jpg";s:11:"preview_pic";s:14:"/a23/11439.jpg";s:4:"bxid";s:6:"201437";s:5:"alias";s:34:"sapogi-pe15-umm-iz-eva-s-manzhetom";s:7:"section";s:5:"11653";s:5:"title";s:0:"";s:11:"description";s:0:"";s:8:"keywords";s:0:"";s:5:"price";s:1:"0";s:9:"old-price";s:1:"0";}i:133;a:20:{s:2:"id";s:3:"106";s:3:"act";s:1:"N";s:9:"prod_type";s:0:"";s:4:"name";s:51:"Сапоги ЭВА рыбацкие мужские";s:3:"art";s:12:"Сап167-07";s:4:"sort";s:3:"100";s:6:"search";s:884:"САПОГИ ЭВА РЫБАЦКИЕ МУЖСКИЕ

САПОГИ ДЛЯ РЫБАКОВ ИЗГОТАВЛИВАЮТСЯ НА БАЗЕ РАБОЧИХ САПОГ ПО ТЕХНОЛОГИИ ТРЕХЦВЕТНОГО ЛИТЬЯ, НАДСТАВКА ГОЛЕНИЩА ИЗГОТОВЛЕНА ИЗ БОЛЕЕ ПРОЧНОГО МАТЕРИАЛА НЕЙЛОНА, КОТОРАЯ ПРИВАРИВАЕТСЯ С ИСПОЛЬЗОВАНИЕМ СОВРЕМЕННОГО ВЫСОКОТЕХНОЛОГИЧЕСКОГО ОБОРУДОВАНИЯ. В ОБЛАСТИ КОЛЕНА, ТАМ, ГДЕ ГОЛЕНИЩЕ ПОДВЕРЖЕНО НАИБОЛЕЕ ИНТЕНСИВНЫМ МЕХАНИЧЕСКИМ ВОЗДЕЙСТВИЯМ, ОНО УКРЕПЛЕНО СПЕЦИАЛЬНЫМ НАКОЛЕННИКОМ. ДЛЯ КРЕПЛЕНИЯ К ПОЯСУ САПОГИ ОСНАЩЕНЫ СПЕЦИАЛЬНЫМИ РЕМНЯМИ. .";s:6:"parent";s:1:"8";s:4:"durl";s:63:"obuv-rabochaya/obuv-iz-pvkh-i-eva/sapogi-eva-rybatskie-muzhskie";s:4:"dtxt";s:829:"Сапоги для рыбаков изготавливаются на базе рабочих сапог по технологии трехцветного литья, надставка голенища изготовлена из более прочного материала нейлона, которая приваривается с использованием современного высокотехнологического оборудования. В области колена, там, где голенище подвержено наиболее интенсивным механическим воздействиям, оно укреплено специальным наколенником. Для крепления к поясу сапоги оснащены специальными ремнями. .";s:4:"dpic";s:14:"/d0f/12987.jpg";s:11:"preview_pic";s:14:"/010/12987.jpg";s:4:"bxid";s:6:"201438";s:5:"alias";s:29:"sapogi-eva-rybatskie-muzhskie";s:7:"section";s:5:"11653";s:5:"title";s:0:"";s:11:"description";s:0:"";s:8:"keywords";s:0:"";s:5:"price";s:1:"0";s:9:"old-price";s:1:"0";}i:134;a:20:{s:2:"id";s:3:"107";s:3:"act";s:1:"N";s:9:"prod_type";s:0:"";s:4:"name";s:87:"Сапоги ЭВА рыбацкие цельнолитые манжет-резинка";s:3:"art";s:9:"Сап191";s:4:"sort";s:3:"100";s:6:"search";s:1214:"САПОГИ ЭВА РЫБАЦКИЕ ЦЕЛЬНОЛИТЫЕ МАНЖЕТ-РЕЗИНКА

БОЛОТНИКИ ДЛЯ РЫБАЛКИ НЕ ТРЕБУЮТ КРЕПЛЕНИЯ К ПОЯСНОМУ РЕМНЮ, ОНИ НЕ СПАДАЮТ САМИ ПО СЕБЕ; БОЛОТНИКИ ДЛЯ РЫБАЛКИ ИМЕЮТ ДОСТАТОЧНО БОЛЬШУЮ ТОЛЩИНУ СТЕНОК ГОЛЕНИЩА И НАДСТАВКИ, ЧТО ДЕЛАЕТ ИХ БОЛЕЕ ИЗНОСОСТОЙКИМИ, ЧЕМ АНАЛОГИ С НАДСТАВКОЙ ИЗ ВИНИТОЛА; БОЛОТНИКИ ДЛЯ РЫБАЛКИ ВЕСЯТ НЕ БОЛЕЕ 1 КГ - ОНИ ЛЕГЧЕ, ЧЕМ ЛЮБЫЕ РЫБАЦКИЕ САПОГИ ИЗ ПВХ;БОЛОТНИКИ ДЛЯ РЫБАЛКИ ВОЗМОЖНО ИСПОЛЬЗОВАТЬ В ЛЮБОЕ ВРЕМЯ ГОДА КАК ДЛЯ ОХОТЫ И РЫБАЛКИ, ТАК И ДЛЯ ПРОЧИХ ВИДОВ ОТДЫХА НА ПРИРОДЕ; ЛЕГКО ГНУТСЯ И СВОРАЧИВАЮТСЯ. БОЛОТНИКИ ДЛЯ РЫБАЛКИ НЕ ИМЕЮТ ШВОВ, ТО ЕСТЬ РИСК ПРОТЕЧЕК СВЕДЕН К НУЛЮ. РАЗМЕРНЫЙ РЯД: 40-41, 42-43, 44-45, 46-47 - ПО 6 ПАР В КОРОБКЕ .";s:6:"parent";s:1:"8";s:4:"durl";s:82:"obuv-rabochaya/obuv-iz-pvkh-i-eva/sapogi-eva-rybatskie-tselnolitye-manzhet-rezinka";s:4:"dtxt";s:1123:"Болотники для рыбалки не требуют крепления к поясному ремню, они не спадают сами по себе; Болотники для рыбалки имеют достаточно большую толщину стенок голенища и надставки, что делает их более износостойкими, чем аналоги с надставкой из винитола; Болотники для рыбалки весят не более 1 кг - они легче, чем любые рыбацкие сапоги из ПВХ;Болотники для рыбалки возможно использовать в любое время года как для охоты и рыбалки, так и для прочих видов отдыха на природе; Легко гнутся и сворачиваются. Болотники для рыбалки не имеют швов, то есть риск протечек сведен к нулю. Размерный ряд: 40-41, 42-43, 44-45, 46-47 - по 6 пар в коробке .";s:4:"dpic";s:14:"/541/14749.jpg";s:11:"preview_pic";s:14:"/5ce/14749.jpg";s:4:"bxid";s:6:"201439";s:5:"alias";s:48:"sapogi-eva-rybatskie-tselnolitye-manzhet-rezinka";s:7:"section";s:5:"11653";s:5:"title";s:0:"";s:11:"description";s:0:"";s:8:"keywords";s:0:"";s:5:"price";s:1:"0";s:9:"old-price";s:1:"0";}i:135;a:20:{s:2:"id";s:3:"108";s:3:"act";s:1:"N";s:9:"prod_type";s:0:"";s:4:"name";s:49:"Сапоги ЭВА/нейлон рыбацкие";s:3:"art";s:9:"ПЕ5РН";s:4:"sort";s:3:"100";s:6:"search";s:1804:"САПОГИ ЭВА/НЕЙЛОН РЫБАЦКИЕ

УНИКАЛЬНОСТЬ ДАННОЙ МОДЕЛИ РЫБАЦКИХ САПОГ ИЗ НЕЙЛОНА ЗАКЛЮЧАЕТСЯ В ТОМ, ЧТО В НИХ КОМФОРТНО И ТЕПЛО ЛОВИТЬ РЫБУ В ХОЛОДНОЙ ВОДЕ В ВЕСЕННЕ-ОСЕННИЙ ПЕРИОД, ПОСКОЛЬКУ БАЗОВЫЙ САПОГ ВЫПОЛНЕН ИЗ НОВОГО СОВРЕМЕННОГО МАТЕРИАЛА ЭВА, КОТОРЫЙ ОТЛИЧАЕТСЯ: -НИЗКОЙ ТЕПЛОПРОВОДНОСТЬЮ, - ВЫСОКИМИ ТЕПЛОИЗОЛЯЦИОННЫМИ И АМОРТИЗИРУЮЩИМИ СВОЙСТВАМИ. ПОМИМО ЭТОГО САПОГИ РЫБАЦКИЕ ПЕ-5 РН ГОРАЗДО ЛЕГЧЕ АНАЛОГОВ ИЗ ПВХ, ВЕДЬ БАЗОВЫЙ САПОГ ИЗ ЭВА ОБЛАДАЕТ УДИВИТЕЛЬНОЙ ЛЕГКОСТЬЮ, А ТЕКСТИЛЬНЫЙ ВЕРХ МОДЕЛИ ВЫПОЛНЕН ИЗ НЕЙЛОНА, КОТОРЫЙ ОБЛАДАЕТ БОЛЬШЕЙ ЛЕГКОСТЬЮ, ПРОЧНОСТЬЮ И ИЗНОСОСТОЙКОСТЬЮ ПО СРАВНЕНИЮ С ПВХ. ТАКЖЕ СЛЕДУЕТ ОТМЕТИТЬ, ЧТО МОДЕЛЬ ПЕ-5 РН ПОЛНОСТЬЮ ВОДОНЕПРОНИЦАЕМА. ДОПОЛНИТЕЛЬНО ИЗНУТРИ ТЕКСТИЛЬНОЙ НАДСТАВКИ ПРИМЕНЯЕТСЯ ТЕХНОЛОГИЯ ДВОЙНОГО ШВА, КОТОРАЯ ПРИДАЕТ ОБУВИ ЕЩЕ БОЛЬШУЮ ПРОЧНОСТЬ, ИЗНОСОСТОЙКОСТЬ И ГЕРМЕТИЧНОСТЬ. СРЕДНЯЯ ВЫСОТА: 90 СМ МАТЕРИАЛ ТКАНИ: НЕЙЛОН ЦВЕТОВЫЕ ПРЕДЛОЖЕНИЯ (ОДНОТОННЫЕ): БОЛОТНЫЙ РАЗМЕРНЫЙ РЯД: 41/42-47/48 МАТЕРИАЛ САПОГА: ЭВА";s:6:"parent";s:1:"8";s:4:"durl";s:61:"obuv-rabochaya/obuv-iz-pvkh-i-eva/sapogi-eva-neylon-rybatskie";s:4:"dtxt";s:1759:"Уникальность данной модели рыбацких сапог из нейлона заключается в том, что в них комфортно и тепло ловить рыбу в холодной воде в весенне-осенний период, поскольку базовый сапог выполнен из нового современного материала ЭВА, который отличается: -низкой теплопроводностью, - высокими теплоизоляционными и амортизирующими свойствами. Помимо этого сапоги рыбацкие ПЕ-5 РН гораздо легче аналогов из ПВХ, ведь базовый сапог из ЭВА обладает удивительной легкостью, а текстильный верх модели выполнен из нейлона, который обладает большей легкостью, прочностью и износостойкостью по сравнению с ПВХ. Также следует отметить, что модель ПЕ-5 РН полностью водонепроницаема. Дополнительно изнутри текстильной надставки применяется технология двойного шва, которая придает обуви еще большую прочность, износостойкость и герметичность. Средняя высота: 90 см Материал ткани: нейлон Цветовые предложения &#40;однотонные&#41;: болотный Размерный ряд: 41/42-47/48 Материал сапога: ЭВА";s:4:"dpic";s:14:"/27f/15129.jpg";s:11:"preview_pic";s:14:"/9da/15129.jpg";s:4:"bxid";s:6:"201440";s:5:"alias";s:27:"sapogi-eva-neylon-rybatskie";s:7:"section";s:5:"11653";s:5:"title";s:0:"";s:11:"description";s:0:"";s:8:"keywords";s:0:"";s:5:"price";s:1:"0";s:9:"old-price";s:1:"0";}i:136;a:20:{s:2:"id";s:3:"109";s:3:"act";s:1:"N";s:9:"prod_type";s:0:"";s:4:"name";s:54:"Сапоги ЭВА  Снежок утепленные";s:3:"art";s:9:"Сап362";s:4:"sort";s:3:"100";s:6:"search";s:1347:"САПОГИ ЭВА  СНЕЖОК УТЕПЛЕННЫЕ

САПОГИ СНЕЖОК ИЗГОТОВЛЕНЫ ИЗ ЛЁГКОГО И СТОЙКОГО К СТИРАНИЮ МАТЕРИАЛА ЭВА (EVA). ФОРМА ЭТИХ САПОГ СПРОЕКТИРОВАНА ТАК, ЧТО САПОГ ОБЛЕГАЕТ НОГУ. МАТЕРИАЛ ЭКОЛОГИЧЕСКИ ЧИСТЫЙ И НЕТОКСИЧНЫЙ, АБСОЛЮТНО НЕ ПРОПУСКАЕТ ВЛАГУ. ОБЛАДАЕТ НИЗКОЙ ТЕПЛОПРОВОДНОСТЬЮ, ЧТО ПОЗВОЛЯЕТ НОГЕ НАХОДИТЬСЯ В КОМФОРТЕ, СОЗДАВАЯ ПРИЯТНЫЕ ОЩУЩЕНИЯ ВО ВРЕМЯ РАБОТЫ В ЛЮБЫХ ПОГОДНЫХ УСЛОВИЯХ. САПОГИ МОЖНО ИСПОЛЬЗОВАТЬ КРУГЛЫЙ ГОД. ОНИ ХОРОШО ПРЕДОХРАНЯЮТ ОТ ВЛАГИ, ХОЛОДА И ГРЯЗИ. НОГИ ВСЕГДА НАХОДЯТСЯ В ТЕПЛЕ, ИСКЛЮЧАЮТ ПРОСТУДНЫЕ ЗАБОЛЕВАНИЯ. ЛЕГКО ГНУТЬСЯ И НЕ ДУБЕЮТ НА МОРОЗЕ, ОСТАЮТСЯ МЯГКИМИ В МИНУСОВУЮ ТЕМПЕРАТУРУ. ПРИНИМАЮТ ГЕОМЕТРИЮ СТОПЫ , ПРЕДОХРАНЯЯ НОГИ ОТ ПЛОСКОСТОПИЯ. НЕ НАТИРАЮТ МОЗОЛИ (МЯГКИЙ, ГЛАДКИЙ МАТЕРИАЛ).";s:6:"parent";s:1:"8";s:4:"durl";s:63:"obuv-rabochaya/obuv-iz-pvkh-i-eva/sapogi-eva-snezhok-uteplennye";s:4:"dtxt";s:1305:"Сапоги Снежок изготовлены из лёгкого и стойкого к стиранию материала ЭВА &#40;EVA&#41;. Форма этих сапог спроектирована так, что сапог облегает ногу. Материал экологически чистый и нетоксичный, абсолютно не пропускает влагу. Обладает низкой теплопроводностью, что позволяет ноге находиться в комфорте, создавая приятные ощущения во время работы в любых погодных условиях. Сапоги можно использовать круглый год. Они хорошо предохраняют от влаги, холода и грязи. Ноги всегда находятся в тепле, исключают простудные заболевания. Легко гнуться и не дубеют на морозе, остаются мягкими в минусовую температуру. Принимают геометрию стопы , предохраняя ноги от плоскостопия. Не натирают мозоли &#40;мягкий, гладкий материал&#41;.";s:4:"dpic";s:14:"/a1e/16840.jpg";s:11:"preview_pic";s:14:"/c1a/16840.jpg";s:4:"bxid";s:6:"202267";s:5:"alias";s:29:"sapogi-eva-snezhok-uteplennye";s:7:"section";s:5:"11653";s:5:"title";s:0:"";s:11:"description";s:0:"";s:8:"keywords";s:0:"";s:5:"price";s:1:"0";s:9:"old-price";s:1:"0";}i:137;a:20:{s:2:"id";s:3:"110";s:3:"act";s:1:"N";s:9:"prod_type";s:0:"";s:4:"name";s:57:"Сапоги ЭВА  (манжет) мужские (t-15)";s:3:"art";s:13:"Сап350УМ";s:4:"sort";s:3:"100";s:6:"search";s:1348:"САПОГИ ЭВА  (МАНЖЕТ) МУЖСКИЕ (T-15)

УНИВЕРСАЛЬНАЯ МОДЕЛЬ ВЫСОКИХ МУЖСКИХ САПОГ ИЗ ЭВА ПРЕКРАСНО ПОДХОДИТ НЕ ТОЛЬКО ДЛЯ АКТИВНОГО ОТДЫХА, РЫБАЛКИ И ОХОТЫ, НО И ДЛЯ ПОВСЕДНЕВНОЙ ЭКСПЛУАТАЦИИ. ДЛЯ УДОБСТВА ПОЛЬЗОВАНИЯ САПОГИ СМОДЕЛИРОВАНЫ ОБЛЕГЧЕННЫМИ С ОБЛЕГАЮЩИМ ПО НОГЕ ГОЛЕНИЩЕМ. БЛАГОДАРЯ СВОЕЙ ВСПЕНЕННОЙ СТРУКТУРЕ МАТЕРИАЛ ЭВА ОБЛАДАЕТ УНИКАЛЬНЫМИ СВОЙСТВАМИ, ЧТО ДЕЛАЕТ ДАННУЮ МОДЕЛЬ ОБУВИ НЕОБЫЧАЙНО ЛЕГКОЙ - ВЕС ОДНОЙ ПАРЫ ОБУВИ ВСЕГО 600 ГР., И ОЧЕНЬ ТЕПЛОЙ - ЭВА ОБЛАДАЕТ НИЗКОЙ ТЕПЛОПРОВОДНОСТЬЮ. ТАКЖЕ МАТЕРИАЛ ЯВЛЯЕТСЯ МОРОЗОСТОЙКИМ И ВОДОНЕПРОНИЦАЕМЫМ. ПРИ ХОДЬБЕ ПОДОШВА САПОГА АМОРТИЗИРУЕТ СТОПУ. ПРИ КОМПЛЕКТАЦИИ ОБУВИ ВСТАВНЫМ МЕХОВЫМ ЧУЛКОМ-УТЕПЛИТЕЛЕМ ЕЕ МОЖНО КОМФОРТНО ЭКСПЛУАТИРОВАТЬ В МОРОЗ ДО -15С (АРТ.31(СЕ)350УМ).";s:6:"parent";s:1:"8";s:4:"durl";s:66:"obuv-rabochaya/obuv-iz-pvkh-i-eva/sapogi-eva-manzhet-muzhskie-t-15";s:4:"dtxt";s:1303:"универсальная модель высоких мужских сапог из ЭВА прекрасно подходит не только для активного отдыха, рыбалки и охоты, но и для повседневной эксплуатации. Для удобства пользования сапоги смоделированы облегченными с облегающим по ноге голенищем. Благодаря своей вспененной структуре материал ЭВА обладает уникальными свойствами, что делает данную модель обуви необычайно легкой - вес одной пары обуви всего 600 гр., и очень теплой - ЭВА обладает низкой теплопроводностью. Также материал является морозостойким и водонепроницаемым. При ходьбе подошва сапога амортизирует стопу. При комплектации обуви вставным меховым чулком-утеплителем ее можно комфортно эксплуатировать в мороз до -15С &#40;арт.31&#40;СЕ&#41;350УМ&#41;.";s:4:"dpic";s:14:"/18e/17153.jpg";s:11:"preview_pic";s:14:"/11f/17153.jpg";s:4:"bxid";s:6:"202282";s:5:"alias";s:32:"sapogi-eva-manzhet-muzhskie-t-15";s:7:"section";s:5:"11653";s:5:"title";s:0:"";s:11:"description";s:0:"";s:8:"keywords";s:0:"";s:5:"price";s:1:"0";s:9:"old-price";s:1:"0";}i:138;a:20:{s:2:"id";s:3:"111";s:3:"act";s:1:"N";s:9:"prod_type";s:0:"";s:4:"name";s:47:"Сапоги ПВХ болотные (К56РБ)";s:3:"art";s:10:"СапК56";s:4:"sort";s:3:"100";s:6:"search";s:1008:"САПОГИ ПВХ БОЛОТНЫЕ (К56РБ)

РЫБАЦКИЕ САПОГИ ОПТИМАЛЬНО ПОДХОДЯТ ДЛЯ ИСПОЛЬЗОВАНИЯ В РЫБОЛОВЕЦКИХ И ОХОТНИЧЬИХ ХОЗЯЙСТВАХ, КОММУНАЛЬНЫХ СЛУЖБАХ. ТЕХНИЧЕСКОЕ ОПИСАНИЕ: - ПЛОТНАЯ РИФЛЕНАЯ ПОДОШВА ОБЕСПЕЧИВАЕТ КОМФОРТНОСТЬ ПРИ ХОДЬБЕ ПО ЛЮБОЙ ПОВЕРХНОСТИ - ДЛЯ НАДЕЖНОЙ ФИКСАЦИИ САПОГ ИМЕЕТСЯ УДОБНОЕ ПРИСПОСОБЛЕНИЕ ДЛЯ ПРИСТЕГИВАНИЯ К ПОЯСНОМУ РЕМНЮ МАТЕРИАЛ: ВЕРХ - ОБУВНОЙ ПВХ ПОДОШВА - ОБУВНОЙ ПВХ МБС НАДСТАВКА - ТКАНЬ ВИНИТОЛ С ПОКРЫТИЕМ ПВХ НА ТРИКОТАЖНОЙ ОСНОВЕ. РАЗМЕРНЫЙ РЯД: 262-300 ВЫСОТА МОДЕЛИ: 92 СМ МАССА ПАРЫ, КГ.: 2,5 КОЛИЧЕСТВО В КОРОБЕ: 5 ПАР";s:6:"parent";s:1:"8";s:4:"durl";s:60:"obuv-rabochaya/obuv-iz-pvkh-i-eva/sapogi-pvkh-bolotnye-k56rb";s:4:"dtxt";s:957:"Рыбацкие сапоги оптимально подходят для использования в рыболовецких и охотничьих хозяйствах, коммунальных службах. Техническое описание: - плотная рифленая подошва обеспечивает комфортность при ходьбе по любой поверхности - для надежной фиксации сапог имеется удобное приспособление для пристегивания к поясному ремню Материал: верх - обувной ПВХ подошва - обувной ПВХ МБС надставка - ткань винитол с покрытием ПВХ на трикотажной основе. Размерный ряд: 262-300 Высота модели: 92 см Масса пары, кг.: 2,5 Количество в коробе: 5 пар";s:4:"dpic";s:14:"/b4c/17166.jpg";s:11:"preview_pic";s:14:"/2e4/17166.jpg";s:4:"bxid";s:6:"202290";s:5:"alias";s:26:"sapogi-pvkh-bolotnye-k56rb";s:7:"section";s:5:"11653";s:5:"title";s:0:"";s:11:"description";s:0:"";s:8:"keywords";s:0:"";s:5:"price";s:1:"0";s:9:"old-price";s:1:"0";}i:139;a:20:{s:2:"id";s:3:"112";s:3:"act";s:1:"N";s:9:"prod_type";s:0:"";s:4:"name";s:58:"Сапоги ПВХ мужские 40см (кор.7пар)";s:3:"art";s:9:"Сап179";s:4:"sort";s:3:"100";s:6:"search";s:1155:"САПОГИ ПВХ МУЖСКИЕ 40СМ (КОР.7ПАР)

САПОГИ ПРОИЗВОДЯТСЯ НА ИТАЛЬЯНСКОМ ОБОРУДОВАНИИ MAINGROUP. ВЫСОКОЕ ГОЛЕНИЩЕ С ПРОЧНЫМИ СТЕНКАМИ ИМЕЕТ ЗАЩИТНЫЕ ЭЛЕМЕНТЫ: ЗАЩИТА ГОЛЕНОСТОПНОГО СУСТАВА, ПЯТОЧНОЙ КОСТИ, ЗАЩИТА ОТ БОКОВЫХ ПОРЕЗОВ И ПРОКОЛОВ (ТОЛЩИНА СТЕНОК ГОЛЕНИЩА В ОСОЮЗКЕ - 4 ММ), УСИЛЕННЫЙ ЗАДНИЙ ШОВ ГОЛЕНИЩА. САПОГИ ИМЕЮТ ТОЛСТУЮ ПОДОШВУ (НЕ МЕНЕЕ 1,8 СМ) С АНТИСКОЛЬЗЯЩИМ САМООЧИЩАЮЩИМСЯ ПРОТЕКТОРОМ. ШПОРА В ПЯТОЧНОЙ ЧАСТИ ПОЗВОЛЯЕТ ЛЕГКО СНИМАТЬ ОБУВЬ. САПОГИ ИМЕЮТ ТРИКОТАЖНУЮ ПОДКЛАДКУ, ЧТО ПРИДАЕТ КОМФОРТ ПРИ ИХ ЭКСПЛУАТАЦИИ. САПОГИ РЕЗИНОВЫЕ (ПВХ), ВЫСОТА 40 СМ. ТЕМПЕРАТУРНЫЙ ДИАПАЗОН ОТ -10°С ДО +30°С. МАТЕРИАЛ: ПВХ ЦВЕТ: ОЛИВА";s:6:"parent";s:1:"8";s:4:"durl";s:68:"obuv-rabochaya/obuv-iz-pvkh-i-eva/sapogi-pvkh-muzhskie-40sm-kor-7par";s:4:"dtxt";s:1121:"Сапоги производятся на итальянском оборудовании MAINGroup. Высокое голенище с прочными стенками имеет защитные элементы: защита голеностопного сустава, пяточной кости, защита от боковых порезов и проколов &#40;толщина стенок голенища в осоюзке - 4 мм&#41;, усиленный задний шов голенища. Сапоги имеют толстую подошву &#40;не менее 1,8 см&#41; с антискользящим самоочищающимся протектором. Шпора в пяточной части позволяет легко снимать обувь. Сапоги имеют трикотажную подкладку, что придает комфорт при их эксплуатации. Сапоги резиновые &#40;ПВХ&#41;, высота 40 см. Температурный диапазон от -10°С до &#43;30°С. Материал: ПВХ Цвет: Олива";s:4:"dpic";s:14:"/997/17193.jpg";s:11:"preview_pic";s:14:"/081/17193.jpg";s:4:"bxid";s:6:"202291";s:5:"alias";s:34:"sapogi-pvkh-muzhskie-40sm-kor-7par";s:7:"section";s:5:"11653";s:5:"title";s:0:"";s:11:"description";s:0:"";s:8:"keywords";s:0:"";s:5:"price";s:1:"0";s:9:"old-price";s:1:"0";}}}}s:8:"end_time";i:1565720590;}