a:2:{s:4:"data";a:11:{s:2:"id";s:2:"54";s:5:"title";s:0:"";s:8:"keywords";s:0:"";s:11:"description";s:0:"";s:4:"core";s:0:"";s:4:"prop";s:0:"";s:5:"alias";s:19:"fartuki-narukavniki";s:4:"name";s:37:"фартуки нарукавники";s:6:"parent";s:1:"9";s:7:"parents";a:1:{i:0;a:9:{s:2:"id";s:1:"9";s:5:"title";s:0:"";s:8:"keywords";s:0:"";s:11:"description";s:0:"";s:4:"core";s:0:"";s:4:"prop";s:0:"";s:5:"alias";s:20:"zashchitnaya-odezhda";s:4:"name";s:29:"защитная одежда";s:6:"parent";s:1:"0";}}s:8:"children";a:2:{s:10:"categories";a:0:{}s:8:"products";a:20:{i:0;a:20:{s:2:"id";s:4:"1314";s:3:"act";s:1:"Y";s:9:"prod_type";s:0:"";s:4:"name";s:45:"Нарукавники брезентовые";s:3:"art";s:9:"Нар101";s:4:"sort";s:3:"100";s:6:"search";s:1425:"НАРУКАВНИКИ БРЕЗЕНТОВЫЕ
НАРУКАВНИКИ ОЧЕНЬ ЛЕГКИЕ И УДОБНЫЕ В НОСКЕ И ЭКСПЛУАТАЦИИ. ПРЕДНАЗНАЧЕНЫ ДЛЯ ПРЕДОХРАНЕНИЯ РУКАВА РАБОЧЕЙ ОДЕЖДЫ ОТ ПРОМОКАНИЯ И ЗАГРЯЗНЕНИЙ. ТАКОЕ СРЕДСТВО ИНДИВИДУАЛЬНОЙ ЗАЩИТЫ, КАК НАРУКАВНИКИ ШИРОКО ИСПОЛЬЗУЮТСЯ В ТАКИХ ОТРАСЛЯХ: ПИЩЕВАЯ ПРОМЫШЛЕННОСТЬ И ОБЩЕСТВЕННОЕ ПИТАНИЕ, А ТАКЖЕ ВСЕ ОТРАСЛИ, ГДЕ НЕОБХОДИМО ПРЕДОХРАНЯТЬ РУКИ РАБОТНИКА ОТ ВОДЫ, ЖИРОВ, МОЮЩИХ СРЕДСТВ. ТАКЖЕ РЕКОМЕНДУЮТСЯ К ИСПОЛЬЗОВАНИЮ В НЕФТЯНОЙ, ХИМИЧЕСКОЙ И МЕДИЦИНСКОЙ ПРОМЫШЛЕННОСТЯХ. НАРУКАВНИКИ ЗАЩИЩАЮТ РУКАВА РАБОЧЕЙ ОДЕЖДЫ И РУКИ РАБОТНИКИ ОТ МЕХАНИЧЕСКИХ ВОЗДЕЙСТВИЙ, НЕТОКСИЧНОЙ ПЫЛИ, ОТ ВОДЫ И РАСТВОРОВ НЕТОКСИЧНЫХ ВЕЩЕСТВ, ЩЕЛОЧЕЙ, ВРЕДНЫХ БИОЛОГИЧЕСКИХ ФАКТОРОВ, ОБЩИХ ПРОИЗВОДСТВЕННЫХ ЗАГРЯЗНЕНИЙ, ОРГАНИЧЕСКИХ РАСТВОРИТЕЛЕЙ, НЕФТИ И НЕФТЕПРОДУКТОВ.";s:6:"parent";s:2:"54";s:4:"durl";s:64:"zashchitnaya-odezhda/fartuki-narukavniki/narukavniki-brezentovye";s:4:"dtxt";s:1378:"Нарукавники очень легкие и удобные в носке и эксплуатации. Предназначены для предохранения рукава рабочей одежды от промокания и загрязнений. Такое средство индивидуальной защиты, как нарукавники широко используются в таких отраслях: пищевая промышленность и общественное питание, а также все отрасли, где необходимо предохранять руки работника от воды, жиров, моющих средств. Также рекомендуются к использованию в нефтяной, химической и медицинской промышленностях. Нарукавники защищают рукава рабочей одежды и руки работники от механических воздействий, нетоксичной пыли, от воды и растворов нетоксичных веществ, щелочей, вредных биологических факторов, общих производственных загрязнений, органических растворителей, нефти и нефтепродуктов.";s:4:"dpic";s:13:"/5f1/3662.jpg";s:11:"preview_pic";s:13:"/6de/3662.jpg";s:4:"bxid";s:6:"200923";s:5:"alias";s:23:"narukavniki-brezentovye";s:7:"section";s:5:"11707";s:5:"title";s:0:"";s:11:"description";s:0:"";s:8:"keywords";s:0:"";s:5:"price";s:1:"0";s:9:"old-price";s:1:"0";}i:1;a:20:{s:2:"id";s:4:"1315";s:3:"act";s:1:"N";s:9:"prod_type";s:0:"";s:4:"name";s:49:"Нарукавники прорезиненные";s:3:"art";s:9:"Нар106";s:4:"sort";s:3:"100";s:6:"search";s:383:"НАРУКАВНИКИ ПРОРЕЗИНЕННЫЕ
КОМПЛЕКТ НАРУКАВНИКОВ ПРОРЕЗИНЕННЫХ ЗАЩИЩАЕТ ОТ: - ВОДЫ - КИСЛОТ И ЩЕЛОЧЕЙ - ПРОДУКТОВ НЕФТЕПЕРЕРАБОТКИ, МАСЕЛ И ЖИРОВ ТКАНЬ: ДИАГОНАЛЬ ПРОРЕЗИНЕННАЯ ПЛОТНОСТЬ: 350+/-10 Г/М2 ЦВЕТ: ЧЕРНЫЙ";s:6:"parent";s:2:"54";s:4:"durl";s:66:"zashchitnaya-odezhda/fartuki-narukavniki/narukavniki-prorezinennye";s:4:"dtxt";s:336:"Комплект нарукавников прорезиненных Защищает от: - воды - кислот и щелочей - продуктов нефтепереработки, масел и жиров Ткань: диагональ прорезиненная Плотность: 350&#43;/-10 г/м2 Цвет: черный";s:4:"dpic";s:13:"/7b3/3664.jpg";s:11:"preview_pic";s:13:"/539/3664.jpg";s:4:"bxid";s:6:"200926";s:5:"alias";s:25:"narukavniki-prorezinennye";s:7:"section";s:5:"11707";s:5:"title";s:0:"";s:11:"description";s:0:"";s:8:"keywords";s:0:"";s:5:"price";s:1:"0";s:9:"old-price";s:1:"0";}i:2;a:20:{s:2:"id";s:4:"1316";s:3:"act";s:1:"N";s:9:"prod_type";s:0:"";s:4:"name";s:41:"Нарукавники спилковые";s:3:"art";s:9:"Нар107";s:4:"sort";s:3:"100";s:6:"search";s:1078:"НАРУКАВНИКИ СПИЛКОВЫЕ
НАРУКАВНИКИ ИЗГОТОВЛЕНЫ ИЗ КОЖЕВЕННОГО СПИЛКА ТОЛЩИНОЙ 0,9-1,2ММ. НАРУКАВНИКИ СПИЛКОВЫЕ ОБЕСПЕЧИВАЮТ МАКСИМАЛЬНУЮ ЗАЩИТУ РУК, А ТАКЖЕ ОСНОВНОГО КОСТЮМА ПРИ ВЫПОЛНЕНИИ СВАРОЧНЫХ РАБОТ. НАРУКАВНИКИ СПИЛКОВЫЕ - ЭТО ЗАЩИТА ОТ ИСКР, БРЫЗГ РАСПЛАВЛЕННОГО МЕТАЛЛА И ОКАЛИНЫ. НЕОБХОДИМО УЧИТЫВАТЬ ТОТ ФАКТ, ЧТО НАРУКАВНИКИ СПИЛКОВЫЕ ОБЕСПЕЧИВАЮТ ЗАЩИТУ ТОЛЬКО ТОЙ ЧАСТИ ТЕЛА, КОТОРУЮ ЗАКРЫВАЮТ, ПОЭТОМУ, ДЛЯ НАИБОЛЕЕ ПОЛНОЙ ЗАЩИТЫ, НУЖНО НОСИТЬ ИХ ВМЕСТЕ С ПЕРЧАТКАМИ. В СЛУЧАЕ РАЗДЕЛЬНОГО ИСПОЛЬЗОВАНИЯ СРЕДСТВ ЗАЩИТЫ, БЕЗОПАСНОСТЬ ОПЕРАТОРА НЕ МОЖЕТ БЫТЬ ГАРАНТИРОВАНА.";s:6:"parent";s:2:"54";s:4:"durl";s:62:"zashchitnaya-odezhda/fartuki-narukavniki/narukavniki-spilkovye";s:4:"dtxt";s:1035:"Нарукавники изготовлены из кожевенного спилка толщиной 0,9-1,2мм. Нарукавники спилковые обеспечивают максимальную защиту рук, а также основного костюма при выполнении сварочных работ. Нарукавники спилковые - это защита от искр, брызг расплавленного металла и окалины. Необходимо учитывать тот факт, что нарукавники спилковые обеспечивают защиту только той части тела, которую закрывают, поэтому, для наиболее полной защиты, нужно носить их вместе с перчатками. В случае раздельного использования средств защиты, безопасность оператора не может быть гарантирована.";s:4:"dpic";s:13:"/d86/3665.jpg";s:11:"preview_pic";s:13:"/4a3/3665.jpg";s:4:"bxid";s:6:"200927";s:5:"alias";s:21:"narukavniki-spilkovye";s:7:"section";s:5:"11707";s:5:"title";s:0:"";s:11:"description";s:0:"";s:8:"keywords";s:0:"";s:5:"price";s:1:"0";s:9:"old-price";s:1:"0";}i:3;a:20:{s:2:"id";s:4:"1317";s:3:"act";s:1:"N";s:9:"prod_type";s:0:"";s:4:"name";s:38:"Нарукавники тк.Грета";s:3:"art";s:9:"Нар109";s:4:"sort";s:3:"100";s:6:"search";s:173:"НАРУКАВНИКИ ТК.ГРЕТА
НАРУКАВНИКИ ОБЕСПЕЧИВАЮТ НАДЕЖНУЮ ЗАЩИТУ ОТ МЕХАНИЧЕСКИХ ВОЗДЕЙСТВИЙ. .";s:6:"parent";s:2:"54";s:4:"durl";s:61:"zashchitnaya-odezhda/fartuki-narukavniki/narukavniki-tk-greta";s:4:"dtxt";s:133:"Нарукавники обеспечивают надежную защиту от механических воздействий. .";s:4:"dpic";s:14:"/2f8/14419.jpg";s:11:"preview_pic";s:14:"/667/14419.jpg";s:4:"bxid";s:6:"200928";s:5:"alias";s:20:"narukavniki-tk-greta";s:7:"section";s:5:"11707";s:5:"title";s:0:"";s:11:"description";s:0:"";s:8:"keywords";s:0:"";s:5:"price";s:1:"0";s:9:"old-price";s:1:"0";}i:4;a:20:{s:2:"id";s:4:"1318";s:3:"act";s:1:"Y";s:9:"prod_type";s:0:"";s:4:"name";s:35:"Фартук брезентовый";s:3:"art";s:9:"Фар227";s:4:"sort";s:3:"100";s:6:"search";s:546:"ФАРТУК БРЕЗЕНТОВЫЙ

ПРЕДНАЗНАЧЕН, ДЛЯ ЗАЩИТЫ ОТ ИСКР, БРЫЗГ, РАСПЛАВЛЕННОГО МЕТАЛЛА И ПОВЫШЕННОЙ ТЕМПЕРАТУРЫ. ФАРТУК С ЦЕЛЬНОКРОЕНЫМ НАГРУДНИКОМ, С ЗАМКНУТОЙ ШЕЙНОЙ БРЕТЕЛЬЮ. К ВЕРХНИМ БОКОВЫМ УГЛАМ ПРИТАЧАНА ТЕСЬМА ДЛЯ ЗАВЯЗЫВАНИЯ. НА ФАРТУКЕ ОДИН НАГРУДНЫЙ КАРМАН. ЦВЕТ: ХАКИ ТКАНЬ: БРЕЗЕНТ, ОП .";s:6:"parent";s:2:"54";s:4:"durl";s:59:"zashchitnaya-odezhda/fartuki-narukavniki/fartuk-brezentovyy";s:4:"dtxt";s:507:"Предназначен, для защиты от искр, брызг, расплавленного металла и повышенной температуры. Фартук с цельнокроеным нагрудником, с замкнутой шейной бретелью. К верхним боковым углам притачана тесьма для завязывания. На фартуке один нагрудный карман. Цвет: хаки Ткань: брезент, ОП .";s:4:"dpic";s:17:"/d25/img_2752.jpg";s:11:"preview_pic";s:17:"/fff/img_2752.jpg";s:4:"bxid";s:6:"201641";s:5:"alias";s:18:"fartuk-brezentovyy";s:7:"section";s:5:"11707";s:5:"title";s:0:"";s:11:"description";s:0:"";s:8:"keywords";s:0:"";s:5:"price";s:1:"0";s:9:"old-price";s:1:"0";}i:5;a:20:{s:2:"id";s:4:"1319";s:3:"act";s:1:"N";s:9:"prod_type";s:0:"";s:4:"name";s:84:"Фартук клеенчатый для пищевой промышленности";s:3:"art";s:9:"Фар015";s:4:"sort";s:3:"100";s:6:"search";s:312:"ФАРТУК КЛЕЕНЧАТЫЙ ДЛЯ ПИЩЕВОЙ ПРОМЫШЛЕННОСТИ

РЕКОМЕНДУЕТСЯ РАБОТНИКАМ ПИЩЕВОЙ ПРОМЫШЛЕННОСТИ МАТЕРИАЛ: ПИЩЕВАЯ КЛЕЕНКА РАЗМЕР: УНИВЕРСАЛЬНЫЙ ДЛИНА: 100 СМ ГОСТ 12.4.029-76 .";s:6:"parent";s:2:"54";s:4:"durl";s:91:"zashchitnaya-odezhda/fartuki-narukavniki/fartuk-kleenchatyy-dlya-pishchevoy-promyshlennosti";s:4:"dtxt";s:224:"Рекомендуется работникам пищевой промышленности Материал: пищевая клеенка Размер: универсальный Длина: 100 см ГОСТ 12.4.029-76 .";s:4:"dpic";s:17:"/3cc/img_3582.jpg";s:11:"preview_pic";s:17:"/58a/img_3582.jpg";s:4:"bxid";s:6:"201642";s:5:"alias";s:50:"fartuk-kleenchatyy-dlya-pishchevoy-promyshlennosti";s:7:"section";s:5:"11707";s:5:"title";s:0:"";s:11:"description";s:0:"";s:8:"keywords";s:0:"";s:5:"price";s:1:"0";s:9:"old-price";s:1:"0";}i:6;a:20:{s:2:"id";s:4:"1320";s:3:"act";s:1:"N";s:9:"prod_type";s:0:"";s:4:"name";s:39:"Фартук КЩС+ВО средний";s:3:"art";s:9:"Фар224";s:4:"sort";s:3:"100";s:6:"search";s:424:"ФАРТУК КЩС+ВО СРЕДНИЙ

ФАРТУК С ЦЕЛЬНОКРОЕНЫМ ПРИТАЧНЫМ НАГРУДНИКОМ, ПЕРЕХОДЯЩИМ СЗАДИ В КОКЕТКУ, К НИЖНЕЙ ЧАСТИ КОТОРОЙ ПРИТАЧАНА ЭЛАСТИЧНАЯ ЛЕНТА. К БОКОВЫМ УГЛАМ НА ЛИНИИ ТАЛИИ ПРИТАЧАНА ТЕСЬМА. ТКАНЬ: ТКАНЬ ПРОРЕЗИНЕННАЯ КЩС. .";s:6:"parent";s:2:"54";s:4:"durl";s:65:"zashchitnaya-odezhda/fartuki-narukavniki/fartuk-kshchs-vo-sredniy";s:4:"dtxt";s:381:"Фартук с цельнокроеным притачным нагрудником, переходящим сзади в кокетку, к нижней части которой притачана эластичная лента. К боковым углам на линии талии притачана тесьма. Ткань: ткань прорезиненная КЩС. .";s:4:"dpic";s:17:"/7f2/img_2745.jpg";s:11:"preview_pic";s:17:"/333/img_2745.jpg";s:4:"bxid";s:6:"201643";s:5:"alias";s:24:"fartuk-kshchs-vo-sredniy";s:7:"section";s:5:"11707";s:5:"title";s:0:"";s:11:"description";s:0:"";s:8:"keywords";s:0:"";s:5:"price";s:1:"0";s:9:"old-price";s:1:"0";}i:7;a:20:{s:2:"id";s:4:"1321";s:3:"act";s:1:"Y";s:9:"prod_type";s:0:"";s:4:"name";s:59:"Фартук рыбообработчика Fisherman*s WPL";s:3:"art";s:9:"Фар900";s:4:"sort";s:3:"100";s:6:"search";s:843:"ФАРТУК РЫБООБРАБОТЧИКА FISHERMAN*S WPL

ФАРТУК ИЗГОТОВЛЕН ИЗ СПЕЦИАЛЬНОЙ ПРОЧНОЙ ТКАНИ С ПВХ ПОКРЫТИЕМ, СТОЙКОЙ К ДЕЙСТВИЮ МОРСКОЙ ВОДЫ, РЫБЬЕГО ЖИРА, НЕФТЕПРОДУКТОВ. ДЛИНА ФАРТУКА 120 СМ., ШИРИНА ПО НИЗУ 97 СМ. ЦВЕТ: ЯРКО-ОРАНЖЕВЫЙ. ТКАНЬ ЭКОЛОГИЧНА И СООТВЕТСВУЕТ ЕВРОПЕЙСКОМУ СТАНДАРТУ EN713 ИЗГОТОВЛЕН В ПОЛНОМ СООТВЕТСТВИИ С ТЕХНИЧЕСКИМ РЕГЛАМЕНТОМ ТАМОЖЕННОГО СОЮЗА ТР ТС 019/2011 О БЕЗОПАСНОСТИ СРЕДСТВ ИНДИВИДУАЛЬНОЙ ЗАЩИТЫ. ДЕКЛАРАЦИЯ/СЕРТИФИКАТ ПРЕДОСТАВЛЯЕТСЯ. .";s:6:"parent";s:2:"54";s:4:"durl";s:80:"zashchitnaya-odezhda/fartuki-narukavniki/fartuk-ryboobrabotchika-fisherman-s-wpl";s:4:"dtxt";s:780:"Фартук изготовлен из специальной прочной ткани с ПВХ покрытием, стойкой к действию морской воды, рыбьего жира, нефтепродуктов. Длина фартука 120 см., ширина по низу 97 см. Цвет: ярко-оранжевый. Ткань экологична и соответсвует европейскому стандарту EN713 Изготовлен в полном соответствии с техническим регламентом таможенного союза ТР ТС 019/2011 О безопасности средств индивидуальной защиты. Декларация/сертификат предоставляется. .";s:4:"dpic";s:13:"/b2f/7156.jpg";s:11:"preview_pic";s:13:"/156/7156.jpg";s:4:"bxid";s:6:"201651";s:5:"alias";s:39:"fartuk-ryboobrabotchika-fisherman-s-wpl";s:7:"section";s:5:"11707";s:5:"title";s:0:"";s:11:"description";s:0:"";s:8:"keywords";s:0:"";s:5:"price";s:1:"0";s:9:"old-price";s:1:"0";}i:8;a:20:{s:2:"id";s:4:"1322";s:3:"act";s:1:"N";s:9:"prod_type";s:0:"";s:4:"name";s:31:"Фартук спилковый";s:3:"art";s:9:"Фар029";s:4:"sort";s:3:"100";s:6:"search";s:315:"ФАРТУК СПИЛКОВЫЙ

ФАРТУК СПИЛКОВЫЙ ЯВЛЯЕТСЯ ОТЛИЧНОЙ ЗАЩИТОЙ ОТ МЕХАНИЧЕСКИХ ПОВРЕЖДЕНИЙ, ОБЩЕПРОМЫШЛЕННЫХ ЗАГРЯЗНЕНИЙ, А ТАКЖЕ ОТ ИСКР И БРЫЗГ РАСПЛАВЛЕННОГО МЕТАЛЛА. .";s:6:"parent";s:2:"54";s:4:"durl";s:57:"zashchitnaya-odezhda/fartuki-narukavniki/fartuk-spilkovyy";s:4:"dtxt";s:280:"Фартук спилковый является отличной защитой от механических повреждений, общепромышленных загрязнений, а также от искр и брызг расплавленного металла. .";s:4:"dpic";s:14:"/b8d/11106.jpg";s:11:"preview_pic";s:14:"/bdd/11106.jpg";s:4:"bxid";s:6:"201659";s:5:"alias";s:16:"fartuk-spilkovyy";s:7:"section";s:5:"11707";s:5:"title";s:0:"";s:11:"description";s:0:"";s:8:"keywords";s:0:"";s:5:"price";s:1:"0";s:9:"old-price";s:1:"0";}i:9;a:20:{s:2:"id";s:4:"1323";s:3:"act";s:1:"N";s:9:"prod_type";s:0:"";s:4:"name";s:80:"Фартук тк.Диагональ (плотные) цв.синий лента";s:3:"art";s:9:"Фар226";s:4:"sort";s:3:"100";s:6:"search";s:307:"ФАРТУК ТК.ДИАГОНАЛЬ (ПЛОТНЫЕ) ЦВ.СИНИЙ ЛЕНТА

ФАРТУК ЗАЩИЩАЕТ ОТ ОБЩЕПРОИЗВОДСТВЕННЫХ ЗАГРЯЗНЕНИЙ. ТКАНЬ ДИАГОНАЛЬ 100% Х/Б, ПЛ 230 Г/М2. ЦВЕТ: СИНИЙ, ЧЕРНЫЙ. РАЗМЕР: 810*835 ММ .";s:6:"parent";s:2:"54";s:4:"durl";s:83:"zashchitnaya-odezhda/fartuki-narukavniki/fartuk-tk-diagonal-plotnye-tsv-siniy-lenta";s:4:"dtxt";s:227:"Фартук защищает от общепроизводственных загрязнений. Ткань диагональ 100&#37; х/б, пл 230 г/м2. Цвет: синий, черный. Размер: 810*835 мм .";s:4:"dpic";s:17:"/1c0/img_3689.jpg";s:11:"preview_pic";s:17:"/fd9/img_3689.jpg";s:4:"bxid";s:6:"201662";s:5:"alias";s:42:"fartuk-tk-diagonal-plotnye-tsv-siniy-lenta";s:7:"section";s:5:"11707";s:5:"title";s:0:"";s:11:"description";s:0:"";s:8:"keywords";s:0:"";s:5:"price";s:1:"0";s:9:"old-price";s:1:"0";}i:10;a:20:{s:2:"id";s:4:"1324";s:3:"act";s:1:"N";s:9:"prod_type";s:0:"";s:4:"name";s:66:"Фартук тк.диагональ, цв.синий тесьма";s:3:"art";s:9:"Фар228";s:4:"sort";s:3:"100";s:6:"search";s:293:"ФАРТУК ТК.ДИАГОНАЛЬ, ЦВ.СИНИЙ ТЕСЬМА

ФАРТУК ЗАЩИЩАЕТ ОТ ОБЩЕПРОИЗВОДСТВЕННЫХ ЗАГРЯЗНЕНИЙ. ТКАНЬ ДИАГОНАЛЬ 100% Х/Б, ПЛ 230 Г/М2. ЦВЕТ: СИНИЙ, ЧЕРНЫЙ. РАЗМЕР: 810*835 ММ .";s:6:"parent";s:2:"54";s:4:"durl";s:75:"zashchitnaya-odezhda/fartuki-narukavniki/fartuk-tk-diagonal-tsv-siniy-tesma";s:4:"dtxt";s:227:"Фартук защищает от общепроизводственных загрязнений. Ткань диагональ 100&#37; х/б, пл 230 г/м2. Цвет: синий, черный. Размер: 810*835 мм .";s:4:"dpic";s:17:"/adf/img_3689.jpg";s:11:"preview_pic";s:17:"/a2b/img_3689.jpg";s:4:"bxid";s:6:"201663";s:5:"alias";s:34:"fartuk-tk-diagonal-tsv-siniy-tesma";s:7:"section";s:5:"11707";s:5:"title";s:0:"";s:11:"description";s:0:"";s:8:"keywords";s:0:"";s:5:"price";s:1:"0";s:9:"old-price";s:1:"0";}i:11;a:20:{s:2:"id";s:4:"1325";s:3:"act";s:1:"N";s:9:"prod_type";s:0:"";s:4:"name";s:50:"Фартук тк.диагональ, черный";s:3:"art";s:9:"Фар230";s:4:"sort";s:3:"100";s:6:"search";s:275:"ФАРТУК ТК.ДИАГОНАЛЬ, ЧЕРНЫЙ
ФАРТУК ЗАЩИЩАЕТ ОТ ОБЩЕПРОИЗВОДСТВЕННЫХ ЗАГРЯЗНЕНИЙ. ТКАНЬ ДИАГОНАЛЬ 100% Х/Б, ПЛ 230 Г/М2. ЦВЕТ: СИНИЙ, ЧЕРНЫЙ. РАЗМЕР: 810*835 ММ .";s:6:"parent";s:2:"54";s:4:"durl";s:67:"zashchitnaya-odezhda/fartuki-narukavniki/fartuk-tk-diagonal-chernyy";s:4:"dtxt";s:227:"Фартук защищает от общепроизводственных загрязнений. Ткань диагональ 100&#37; х/б, пл 230 г/м2. Цвет: синий, черный. Размер: 810*835 мм .";s:4:"dpic";s:14:"/cfc/10223.jpg";s:11:"preview_pic";s:14:"/c72/10223.jpg";s:4:"bxid";s:6:"201664";s:5:"alias";s:26:"fartuk-tk-diagonal-chernyy";s:7:"section";s:5:"11707";s:5:"title";s:0:"";s:11:"description";s:0:"";s:8:"keywords";s:0:"";s:5:"price";s:1:"0";s:9:"old-price";s:1:"0";}i:12;a:20:{s:2:"id";s:4:"1326";s:3:"act";s:1:"N";s:9:"prod_type";s:0:"";s:4:"name";s:64:"Фартук удлиненный (мед.клеенка) 110*85";s:3:"art";s:9:"Фар024";s:4:"sort";s:3:"100";s:6:"search";s:561:"ФАРТУК УДЛИНЕННЫЙ (МЕД.КЛЕЕНКА) 110*85

ВОДООТТАЛКИВАЮЩИЙ ФАРТУК ВЫПОЛНЕННЫЙ ИЗ МЕДИЦИНСКОЙ КЛЕЕНКИ ПЛОТНОСТЬЮ 350 Г/КВ.М. ПРЕДСТАВЛЯЕТ СОБОЙ УДОБНЫЙ ПЕРЕДНИК СПЕЦИАЛЬНОГО НАЗНАЧЕНИЯ С ЦЕЛЬНОКРОЕНЫМ НАГРУДНИКОМ. ШЕЙНАЯ БРЕТЕЛЬ ЗАМКНУТА, ИМЕЕТСЯ ТЕСЬМА ДЛЯ ЗАВЯЗЫВАНИЯ, ПРИТАЧАННАЯ К БОКОВЫМ УГЛАМ ИЗДЕЛИЯ. .";s:6:"parent";s:2:"54";s:4:"durl";s:77:"zashchitnaya-odezhda/fartuki-narukavniki/fartuk-udlinennyy-med-kleenka-110-85";s:4:"dtxt";s:493:"Водоотталкивающий фартук выполненный из медицинской клеенки плотностью 350 г/кв.м. Представляет собой удобный передник специального назначения с цельнокроеным нагрудником. Шейная бретель замкнута, имеется тесьма для завязывания, притачанная к боковым углам изделия. .";s:4:"dpic";s:17:"/1e9/img_2971.jpg";s:11:"preview_pic";s:17:"/031/img_2971.jpg";s:4:"bxid";s:6:"201666";s:5:"alias";s:36:"fartuk-udlinennyy-med-kleenka-110-85";s:7:"section";s:5:"11707";s:5:"title";s:0:"";s:11:"description";s:0:"";s:8:"keywords";s:0:"";s:5:"price";s:1:"0";s:9:"old-price";s:1:"0";}i:13;a:20:{s:2:"id";s:4:"1327";s:3:"act";s:1:"N";s:9:"prod_type";s:0:"";s:4:"name";s:64:"Фартук удлиненный (мед.клеенка) 140*85";s:3:"art";s:9:"Фар030";s:4:"sort";s:3:"100";s:6:"search";s:559:"ФАРТУК УДЛИНЕННЫЙ (МЕД.КЛЕЕНКА) 140*85
ВОДООТТАЛКИВАЮЩИЙ ФАРТУК ВЫПОЛНЕННЫЙ ИЗ МЕДИЦИНСКОЙ КЛЕЕНКИ ПЛОТНОСТЬЮ 350 Г/КВ.М. ПРЕДСТАВЛЯЕТ СОБОЙ УДОБНЫЙ ПЕРЕДНИК СПЕЦИАЛЬНОГО НАЗНАЧЕНИЯ С ЦЕЛЬНОКРОЕНЫМ НАГРУДНИКОМ. ШЕЙНАЯ БРЕТЕЛЬ ЗАМКНУТА, ИМЕЕТСЯ ТЕСЬМА ДЛЯ ЗАВЯЗЫВАНИЯ, ПРИТАЧАННАЯ К БОКОВЫМ УГЛАМ ИЗДЕЛИЯ. .";s:6:"parent";s:2:"54";s:4:"durl";s:77:"zashchitnaya-odezhda/fartuki-narukavniki/fartuk-udlinennyy-med-kleenka-140-85";s:4:"dtxt";s:493:"Водоотталкивающий фартук выполненный из медицинской клеенки плотностью 350 г/кв.м. Представляет собой удобный передник специального назначения с цельнокроеным нагрудником. Шейная бретель замкнута, имеется тесьма для завязывания, притачанная к боковым углам изделия. .";s:4:"dpic";s:14:"/d91/13513.jpg";s:11:"preview_pic";s:14:"/450/13513.jpg";s:4:"bxid";s:6:"201667";s:5:"alias";s:36:"fartuk-udlinennyy-med-kleenka-140-85";s:7:"section";s:5:"11707";s:5:"title";s:0:"";s:11:"description";s:0:"";s:8:"keywords";s:0:"";s:5:"price";s:1:"0";s:9:"old-price";s:1:"0";}i:14;a:20:{s:2:"id";s:4:"1328";s:3:"act";s:1:"N";s:9:"prod_type";s:0:"";s:4:"name";s:81:"Фартук цельнокроенный цв.зеленый тк.Оксфорд";s:3:"art";s:9:"Фар001";s:4:"sort";s:3:"100";s:6:"search";s:783:"ФАРТУК ЦЕЛЬНОКРОЕННЫЙ ЦВ.ЗЕЛЕНЫЙ ТК.ОКСФОРД
ТКАНЬ OXFORD - ЭТО ИННОВАЦИОННЫЙ ПОЛИЭСТЕР, И В ОТЛИЧИЕ ОТ ОБЫЧНОГО, БЫТОВОГО ПОЛИЭСТЕРА, ОТЛИЧНО ВПИТЫВАЕТ ЖИДКОСТЬ. НА ОЩУПЬ ИЗДЕЛИЯ ИЗ ЭТОГО ПОЛИЭСТЕРА НАПОМИНАЮТ ХЛОПОК.ИЗДЕЛИЯ ИЗ ТАКОГО ПОЛИЭСТЕРА ВЫДЕРЖИВАЮТ БОЛЬШОЕ КОЛИЧЕСТВО СТИРОК, СОХРАНЯЯ СВОЙ ИЗНАЧАЛЬНЫЙ ВНЕШНИЙ ВИД. СТИРКА ПРИ MAX T 70 ГРАДУСОВ ОБЕСПЕЧИВАЕТ ПОЛНОЕ ОТСТИРЫВАНИЕ ПЯТЕН, ПРИ ЭТОМ КАЧЕСТВА ТКАНИ СОХРАНЯЮТСЯ. .";s:6:"parent";s:2:"54";s:4:"durl";s:85:"zashchitnaya-odezhda/fartuki-narukavniki/fartuk-tselnokroennyy-tsv-zelenyy-tk-oksford";s:4:"dtxt";s:700:"Ткань Oxford - это инновационный полиэстер, и в отличие от обычного, бытового полиэстера, отлично впитывает жидкость. На ощупь изделия из этого полиэстера напоминают хлопок.Изделия из такого полиэстера выдерживают большое количество стирок, сохраняя свой изначальный внешний вид. Стирка при max t 70 градусов обеспечивает полное отстирывание пятен, при этом качества ткани сохраняются. .";s:4:"dpic";s:14:"/16d/15284.jpg";s:11:"preview_pic";s:14:"/324/15284.jpg";s:4:"bxid";s:6:"201669";s:5:"alias";s:44:"fartuk-tselnokroennyy-tsv-zelenyy-tk-oksford";s:7:"section";s:5:"11707";s:5:"title";s:0:"";s:11:"description";s:0:"";s:8:"keywords";s:0:"";s:5:"price";s:1:"0";s:9:"old-price";s:1:"0";}i:15;a:20:{s:2:"id";s:4:"1329";s:3:"act";s:1:"N";s:9:"prod_type";s:0:"";s:4:"name";s:80:"Фартук цельнокроенный цв.т.синий тк.Оксфорд";s:3:"art";s:9:"Фар004";s:4:"sort";s:3:"100";s:6:"search";s:784:"ФАРТУК ЦЕЛЬНОКРОЕННЫЙ ЦВ.Т.СИНИЙ ТК.ОКСФОРД

ТКАНЬ OXFORD - ЭТО ИННОВАЦИОННЫЙ ПОЛИЭСТЕР, И В ОТЛИЧИЕ ОТ ОБЫЧНОГО, БЫТОВОГО ПОЛИЭСТЕРА, ОТЛИЧНО ВПИТЫВАЕТ ЖИДКОСТЬ. НА ОЩУПЬ ИЗДЕЛИЯ ИЗ ЭТОГО ПОЛИЭСТЕРА НАПОМИНАЮТ ХЛОПОК.ИЗДЕЛИЯ ИЗ ТАКОГО ПОЛИЭСТЕРА ВЫДЕРЖИВАЮТ БОЛЬШОЕ КОЛИЧЕСТВО СТИРОК, СОХРАНЯЯ СВОЙ ИЗНАЧАЛЬНЫЙ ВНЕШНИЙ ВИД. СТИРКА ПРИ MAX T 70 ГРАДУСОВ ОБЕСПЕЧИВАЕТ ПОЛНОЕ ОТСТИРЫВАНИЕ ПЯТЕН, ПРИ ЭТОМ КАЧЕСТВА ТКАНИ СОХРАНЯЮТСЯ. .";s:6:"parent";s:2:"54";s:4:"durl";s:85:"zashchitnaya-odezhda/fartuki-narukavniki/fartuk-tselnokroennyy-tsv-t-siniy-tk-oksford";s:4:"dtxt";s:700:"Ткань Oxford - это инновационный полиэстер, и в отличие от обычного, бытового полиэстера, отлично впитывает жидкость. На ощупь изделия из этого полиэстера напоминают хлопок.Изделия из такого полиэстера выдерживают большое количество стирок, сохраняя свой изначальный внешний вид. Стирка при max t 70 градусов обеспечивает полное отстирывание пятен, при этом качества ткани сохраняются. .";s:4:"dpic";s:17:"/cbe/img_3726.jpg";s:11:"preview_pic";s:17:"/f7a/img_3726.jpg";s:4:"bxid";s:6:"201670";s:5:"alias";s:44:"fartuk-tselnokroennyy-tsv-t-siniy-tk-oksford";s:7:"section";s:5:"11707";s:5:"title";s:0:"";s:11:"description";s:0:"";s:8:"keywords";s:0:"";s:5:"price";s:1:"0";s:9:"old-price";s:1:"0";}i:16;a:20:{s:2:"id";s:4:"1330";s:3:"act";s:1:"N";s:9:"prod_type";s:0:"";s:4:"name";s:43:"Фартук цельноспилковый";s:3:"art";s:9:"Фар002";s:4:"sort";s:3:"100";s:6:"search";s:943:"ФАРТУК ЦЕЛЬНОСПИЛКОВЫЙ
КАК НИ СТРАННО, НО ФАРТУК НУЖЕН НЕ ТОЛЬКО ПОВАРУ. СВАРЩИКАМ И МЕТАЛЛУРГАМ ОН ТАКЖЕ МОЖЕТ ОЧЕНЬ СИЛЬНО ПРИГОДИТЬСЯ. ТАКИЕ ЗАЩИТНЫЕ ФАРТУКИ ВЫПОЛНЯЮТСЯ ИЗ ГОРАЗДО БОЛЕЕ ПРОЧНЫХ МАТЕРИАЛОВ – КОЖИ, СПИЛКА ИЛИ БРЕЗЕНТА. СПИЛКОВЫЕ И КОЖАНЫЕ ФАРТУКИ ЗАЩИЩАЮТ ОТ ИСКР МЕТАЛЛА, ОКАЛИНЫ, БРЫЗГ, ПРОИЗВОДСТВЕННЫХ ЗАГРЯЗНЕНИЙ, ПРОКОЛОВ И ПОРЕЗОВ. ЗАЧАСТУЮ ТАКИЕ ФАРТУКИ ИМЕЮТ ОГНЕСТОЙКУЮ ПРОПИТКУ. НОШЕНИЕ ФАРТУКА НЕОБХОДИМО ПРИ СВАРОЧНЫХ РАБОТАХ, ШЛИФОВАНИИ, РАБОТАХ В МАСТЕРСКОЙ И НА ПРОИЗВОДСТВЕ. .";s:6:"parent";s:2:"54";s:4:"durl";s:63:"zashchitnaya-odezhda/fartuki-narukavniki/fartuk-tselnospilkovyy";s:4:"dtxt";s:898:"Как ни странно, но фартук нужен не только повару. Сварщикам и металлургам он также может очень сильно пригодиться. Такие защитные фартуки выполняются из гораздо более прочных материалов – кожи, спилка или брезента. Спилковые и кожаные фартуки защищают от искр металла, окалины, брызг, производственных загрязнений, проколов и порезов. Зачастую такие фартуки имеют огнестойкую пропитку. Ношение фартука необходимо при сварочных работах, шлифовании, работах в мастерской и на производстве. .";s:4:"dpic";s:13:"/f0f/7248.jpg";s:11:"preview_pic";s:13:"/937/7248.jpg";s:4:"bxid";s:6:"201671";s:5:"alias";s:22:"fartuk-tselnospilkovyy";s:7:"section";s:5:"11707";s:5:"title";s:0:"";s:11:"description";s:0:"";s:8:"keywords";s:0:"";s:5:"price";s:1:"0";s:9:"old-price";s:1:"0";}i:17;a:20:{s:2:"id";s:4:"1331";s:3:"act";s:1:"N";s:9:"prod_type";s:0:"";s:4:"name";s:25:"Фартук Chemical WPL";s:3:"art";s:9:"Фар901";s:4:"sort";s:3:"100";s:6:"search";s:1221:"ФАРТУК CHEMICAL WPL

ОТЛИЧНЫЙ ФАРТУК С ШИРОКИМ НАБОРОМ ЗАЩИТНЫХ СВОЙСТВ: - К80 (ОТ РАСТВОРОВ С МАССОВОЙ ДОЛЕЙ КИСЛОТ ДО 80%) - Щ50 (ОТ РАСТВОРОВ ЩЕЛОЧЕЙ КОНЦЕНТРАЦИИ ДО 50%) - НЖ (ОТ НЕФТИ, НЕФТЕПРОДУКТОВ, МАСЕЛ И ЖИРОВ) - ВН (ДЛЯ ЗАЩИТЫ ОТ ВОДЫ) ОСОБЕННОСТИ: ДЛИНА ФАРТУКА 120 СМ, ШИРИНА ПО НИЗУ 97 СМ ТКАНЬ: ФАРТУК ИЗГОТОВЛЕН ИЗ СПЕЦИАЛЬНОЙ КАЧЕСТВЕННОЙ ТКАНИ С ПВХ ПОКРЫТИЕМ. ВЕС ТКАНИ 480 ГР./КВ.М. ЦВЕТ: НАСЫЩЕННЫЙ ОЛИВКОВЫЙ УПАКОВКА: ФИРМЕННЫЙ ПАКЕТ WATERPROOF-LINE ФАСОВКА: В ПРОЧНЫХ ПОЛИПРОПИЛЕНОВЫХ МЕШКАХ ПО 25 ШТ ИЗГОТОВЛЕН В ПОЛНОМ СООТВЕТСТВИИ С ТЕХНИЧЕСКИМ РЕГЛАМЕНТОМ ТАМОЖЕННОГО СОЮЗА ТР ТС 019/2011 О БЕЗОПАСНОСТИ СРЕДСТВ ИНДИВИДУАЛЬНОЙ ЗАЩИТЫ. ДЕКЛАРАЦИЯ/СЕРТИФИКАТ ПРЕДОСТАВЛЯЕТСЯ. .";s:6:"parent";s:2:"54";s:4:"durl";s:60:"zashchitnaya-odezhda/fartuki-narukavniki/fartuk-chemical-wpl";s:4:"dtxt";s:1232:"Отличный фартук с широким набором защитных свойств: - К80 &#40;от растворов с массовой долей кислот до 80&#37;&#41; - Щ50 &#40;от растворов щелочей концентрации до 50&#37;&#41; - Нж &#40;от нефти, нефтепродуктов, масел и жиров&#41; - Вн &#40;для защиты от воды&#41; Особенности: Длина фартука 120 см, ширина по низу 97 см Ткань: фартук изготовлен из специальной качественной ткани с ПВХ покрытием. Вес ткани 480 гр./кв.м. Цвет: насыщенный оливковый Упаковка: фирменный пакет WATERPROOF-LINE Фасовка: в прочных полипропиленовых мешках по 25 шт Изготовлен в полном соответствии с техническим регламентом таможенного союза ТР ТС 019/2011 О безопасности средств индивидуальной защиты. Декларация/сертификат предоставляется. .";s:4:"dpic";s:14:"/4ad/16312.jpg";s:11:"preview_pic";N;s:4:"bxid";s:6:"201882";s:5:"alias";s:19:"fartuk-chemical-wpl";s:7:"section";s:5:"11707";s:5:"title";s:0:"";s:11:"description";s:0:"";s:8:"keywords";s:0:"";s:5:"price";s:1:"0";s:9:"old-price";s:1:"0";}i:18;a:20:{s:2:"id";s:4:"1332";s:3:"act";s:1:"Y";s:9:"prod_type";s:0:"";s:4:"name";s:69:"Нарукавники рыбообработчика Fisherman*s WPL";s:3:"art";s:9:"Нар900";s:4:"sort";s:3:"100";s:6:"search";s:511:"НАРУКАВНИКИ РЫБООБРАБОТЧИКА FISHERMAN*S WPL

НОВАЯ, ХОРОШО ПРОДУМАННАЯ МОДЕЛЬ ОСОБЕННОСТИ: НАРУКАВНИКИ. ТКАНЬ: НАРУКАВНИКИ ИЗГОТОВЛЕНЫ ИЗ СПЕЦИАЛЬНОЙ ТКАНИ С ПВХ ПОКРЫТИЕМ, ВЕС ТКАНИ 500 ГР. / КВ. М. ТКАНЬ ИМЕЕТ УЛУЧШЕННЫЕ ПОКАЗАТЕЛИ ПО ПРОЧНОСТИ И ИЗНОСОСТОЙКОСТИ. ЯРКО-ОРАНЖЕВЫЙ ЦВЕТ. .";s:6:"parent";s:2:"54";s:4:"durl";s:85:"zashchitnaya-odezhda/fartuki-narukavniki/narukavniki-ryboobrabotchika-fisherman-s-wpl";s:4:"dtxt";s:438:"Новая, хорошо продуманная модель Особенности: Нарукавники. Ткань: нарукавники изготовлены из специальной ткани с ПВХ покрытием, вес ткани 500 гр. / кв. м. Ткань имеет улучшенные показатели по прочности и износостойкости. Ярко-оранжевый цвет. .";s:4:"dpic";s:14:"/df1/16302.jpg";s:11:"preview_pic";s:14:"/5db/16302.jpg";s:4:"bxid";s:6:"201891";s:5:"alias";s:44:"narukavniki-ryboobrabotchika-fisherman-s-wpl";s:7:"section";s:5:"11707";s:5:"title";s:0:"";s:11:"description";s:0:"";s:8:"keywords";s:0:"";s:5:"price";s:1:"0";s:9:"old-price";s:1:"0";}i:19;a:20:{s:2:"id";s:4:"1333";s:3:"act";s:1:"N";s:9:"prod_type";s:0:"";s:4:"name";s:35:"Нарукавники Chemical WPL";s:3:"art";s:9:"Нар901";s:4:"sort";s:3:"100";s:6:"search";s:708:"НАРУКАВНИКИ CHEMICAL WPL

НАРУКАВНИК С ШИРОКИМ НАБОРОМ ЗАЩИТНЫХ СВОЙСТВ: - К80 (ОТ РАСТВОРОВ С МАССОВОЙ ДОЛЕЙ КИСЛОТ ДО 80%) - Щ50 (ОТ РАСТВОРОВ ЩЕЛОЧЕЙ КОНЦЕНТРАЦИИ ДО 50%) - НЖ (ОТ НЕФТИ, НЕФТЕПРОДУКТОВ, МАСЕЛ И ЖИРОВ) - ВН (ДЛЯ ЗАЩИТЫ ОТ ВОДЫ) ТКАНЬ: ФАРТУК ИЗГОТОВЛЕН ИЗ СПЕЦИАЛЬНОЙ КАЧЕСТВЕННОЙ ТКАНИ С ПВХ ПОКРЫТИЕМ. ВЕС ТКАНИ 480 ГР./КВ.М. ЦВЕТ: НАСЫЩЕННЫЙ ОЛИВКОВЫЙ УПАКОВКА: ФИРМЕННЫЙ ПАКЕТ WATERPROOF-LINE";s:6:"parent";s:2:"54";s:4:"durl";s:65:"zashchitnaya-odezhda/fartuki-narukavniki/narukavniki-chemical-wpl";s:4:"dtxt";s:709:"Нарукавник с широким набором защитных свойств: - К80 &#40;от растворов с массовой долей кислот до 80&#37;&#41; - Щ50 &#40;от растворов щелочей концентрации до 50&#37;&#41; - Нж &#40;от нефти, нефтепродуктов, масел и жиров&#41; - Вн &#40;для защиты от воды&#41; Ткань: фартук изготовлен из специальной качественной ткани с ПВХ покрытием. Вес ткани 480 гр./кв.м. Цвет: насыщенный оливковый Упаковка: фирменный пакет WATERPROOF-LINE";s:4:"dpic";s:14:"/372/16735.jpg";s:11:"preview_pic";s:14:"/5fe/16735.jpg";s:4:"bxid";s:6:"202215";s:5:"alias";s:24:"narukavniki-chemical-wpl";s:7:"section";s:5:"11707";s:5:"title";s:0:"";s:11:"description";s:0:"";s:8:"keywords";s:0:"";s:5:"price";s:1:"0";s:9:"old-price";s:1:"0";}}}}s:8:"end_time";i:1565782640;}